name,province,city,address,phone_number,website,url
جامعه المصطفی (ص) العالمیه - واحد اصفهان,اصفهان,اصفهان,اصفهان، خیابان ابن سینا کوچه 33,03137173313 ( داخلی  ),http://dlib.miu.ac.ir,https://lib.ir/fa/library/792/جامعه-المصطفی-ص-العالمیه--واحد-اصفهان/search/
حضرت آیت ا... العظمی خامنه ای (مدظله العالی) - جامعه المصطفی (ص) العالمیه,اصفهان,اصفهان,خیابان ابن سینا، کوچه 33- نمایندگی اصفهان,031377313 ( داخلی  ),http://Dlib.miu.ac.ir,https://lib.ir/fa/library/797/حضرت-آیت-ا--العظمی-خامنه-ای-مدظله-العالی--جامعه-المصطفی-ص-العالمیه/search/
دانشگاه علم و فناوری مازندران,مازندران,بهشهر,بلوار دانشگاه – کیلومتر 3 جاده دریا -,09375591452 ( داخلی 01134150250 ),http://,https://lib.ir/fa/library/692/دانشگاه-علم-و-فناوری-مازندران/search/
سازمان اسناد و كتابخانه ملی جمهوری اسلامی ایران,تهران,تهران,تهران - بزرگراه شهيد حقانی - بعد از ایستگاه مترو ميرداماد- خروجی كتابخانه ملی.,88644104-021 ( داخلی  ),http://nlai.ir,https://lib.ir/fa/library/447/سازمان-اسناد-و-كتابخانه-ملی-جمهوری-اسلامی-ایران/search/
علامه جعفری - جامعه المصطفی (ص) العالمیه,آذربایجان شرقی,تبریز,تبریز ، بلوار ۲۹ بهمن، جنب کتابخانه عمومی حضرت ولیعصر(عج),۰۴۱۳۳۲۷۳۱۹۰ ( داخلی  ),http://Dlib.miu.ac.ir,https://lib.ir/fa/library/793/علامه-جعفری--جامعه-المصطفی-ص-العالمیه/search/
مجتمع عالی خواهران نمایندگی خراسان - جامعه المصطفی (ص) العالمیه,خراسان رضوی,مشهد,مشهد-خیابان مصلی-بین مصلی 9-11,05133694110 ( داخلی  ),http://Dlib.miu.ac.ir,https://lib.ir/fa/library/795/مجتمع-عالی-خواهران-نمایندگی-خراسان--جامعه-المصطفی-ص-العالمیه/search/
مرکز جهانی حضرت ولی عصر (عجل الله تعالی فرجه الشریف),اصفهان,اصفهان,خ چهارباغ پایین – بین تختی و دروازه دولت – نرسیده به کوچه مسجد سرخی(5),04632204045 ( داخلی  ),http://,https://lib.ir/fa/library/307/مرکز-جهانی-حضرت-ولی-عصر-عجل-الله-تعالی-فرجه-الشریف/search/
مرکز و کتابخانه مطالعات اسلامی به زبان‌های اروپایی,قم,قم,قم مقدسه - خیابان شهید صدوقی - کوچه شماره 11 - پلاک 72,32910706-025 ( داخلی  ),http://lib.clisel.com,https://lib.ir/fa/library/599/مرکز-و-کتابخانه-مطالعات-اسلامی-به-زبان-های-اروپایی/search/
موسسه آموزش های کوتاه مدت و فرصت های مطالعاتی - جامعه المصطفی (ص) العالمیه,قم,قم,میدان جهاد، موسسه آموزش های کوتاه مدت و فرصت های مطالعاتی,02537110738 ( داخلی  ),http://Dlib.miu.ac.ir,https://lib.ir/fa/library/791/موسسه-آموزش-های-کوتاه-مدت-و-فرصت-های-مطالعاتی--جامعه-المصطفی-ص-العالمیه/search/
نمايندگي المصطفي در استان مرکزي – واحد برادران، آشتيان,مرکزی,آشتیان,شهر آشتيان – بلوار معلم – ميدان آيت‌الله دانش – نمايندگي المصطفي,08637224503 ( داخلی  ),http://Dlib.miu.ac.ir,https://lib.ir/fa/library/801/نمايندگي-المصطفي-در-استان-مرکزي--واحد-برادران-آشتيان/search/
نمایندگی تهران و البرز - جامعه المصطفی (ص) العالمیه,تهران,تهران,تهران، کریم‌خان زند، سنایی ۸، پلاک۴. دفتر نمایندگی تهران و البرز,۰۲۱۸۸۳۱۹۹۷۹ ( داخلی  ),http://Dlib.miu.ac.ir,https://lib.ir/fa/library/794/نمایندگی-تهران-و-البرز--جامعه-المصطفی-ص-العالمیه/search/
کتابخانه ۱۳ آبان (کتابخانه های سازمان فرهنگی هنری شهرداری تهران),تهران,شهر رى,شهرري - خيابان شهيدرجائي - شهرك ۱۳آبان - خيابان شهيد مولايي جنوبي - كوچه شهيد عطري - جنب مسجد سيدالشهداء (ع).,55525577-021 ( داخلی  ),http://tlib.ir,https://lib.ir/fa/library/573/کتابخانه-۱۳-آبان-کتابخانه-های-سازمان-فرهنگی-هنری-شهرداری-تهران/search/
کتابخانه ابن سینا (کتابخانه های سازمان فرهنگی هنری شهرداری تهران),تهران,تهران,تهران - خیابان پیروزی - میدان چهار صد دستگاه.,33303103-021 ( داخلی  ),http://tlib.ir,https://lib.ir/fa/library/562/کتابخانه-ابن-سینا-کتابخانه-های-سازمان-فرهنگی-هنری-شهرداری-تهران/search/
کتابخانه اخلاق (کتابخانه های سازمان فرهنگی هنری شهرداری تهران),تهران,تهران,تهران - خيابان پيروزي - خيابان شكوفه - خيابان شهيد كاظمي - جنب بوستان گلزار - فرهنگسراي اخلاق,33312303-021 ( داخلی  ),http://tlib.ir,https://lib.ir/fa/library/563/کتابخانه-اخلاق-کتابخانه-های-سازمان-فرهنگی-هنری-شهرداری-تهران/search/
کتابخانه اداره کل پژوهش های اسلامی رسانه - دفتر نمایندگی خراسان,خراسان رضوی,مشهد,مشهد مقدس - خیابان امام خمینی (ره) - امام خمینی 25 - مجموعه فرهنگی و هنری صبا - طبقه سوم.,05132215106 ( داخلی  ),http://Lib.irib.ir,https://lib.ir/fa/library/556/کتابخانه-اداره-کل-پژوهش-های-اسلامی-رسانه--دفتر-نمایندگی-خراسان/search/
کتابخانه استاد حکیمی (کتابخانه های سازمان فرهنگی هنری شهرداری تهران),تهران,تهران,تهران - خيابان يافت آباد - شهرك ولي عصر - انتهاي حيدري جنوبي - خيابان پژاند -  بوستان,66297525-021 ( داخلی  ),http://tlib.ir,https://lib.ir/fa/library/610/کتابخانه-استاد-حکیمی-کتابخانه-های-سازمان-فرهنگی-هنری-شهرداری-تهران/search/
کتابخانه استاد معین (کتابخانه های سازمان فرهنگی هنری شهرداری تهران),تهران,تهران,تهران - جاده مخصوص كرج - شهرک وردآورد (كيلومتر۱۹) - بلواراصلي وردآورد، خانه فرهنگ وردآورد.,4498107-021 ( داخلی  ),http://tlib.ir,https://lib.ir/fa/library/583/کتابخانه-استاد-معین-کتابخانه-های-سازمان-فرهنگی-هنری-شهرداری-تهران/search/
كتابخانه آستان حضرت عبدالعظيم حسنى (ع),تهران,شهر رى,شهرری – آستان مقدس حضرت عبدالعظیم (ع) - بست شمالی (درب شماره 9) - كتابخانه مركزی آستان مقدّس حضرت عبد العظیم (ع).,021-51223350-021  كتابخانه برادران:2-51223362-كتابخانه خواهران:3 ( داخلی  ),http://abdolazim.com,https://lib.ir/fa/library/295/كتابخانه-آستان-حضرت-عبدالعظيم-حسنى-ع/search/
كتابخانه آستانه مقدس حضرت فاطمه معصومه (س),قم,قم,قم مقدسه - ميدان آستانه- كتابخانه آستانه مقدس حضرت معصومه سلام الله عليها.,025-37840750-(داخلی 906) 53  ( داخلی  ),http://lib.amfm.ir/,https://lib.ir/fa/library/294/كتابخانه-آستانه-مقدس-حضرت-فاطمه-معصومه-س/search/
کتابخانه آفتاب (کتابخانه های سازمان فرهنگی هنری شهرداری تهران),تهران,تهران,تهران - بزرگراه شهید نواب صفوی - ابتدای خیابان کمیل شرقی – فرهنگسرای انقلاب اسلامی.,55408668-021 ( داخلی  ),http://tlib.ir,https://lib.ir/fa/library/584/کتابخانه-آفتاب-کتابخانه-های-سازمان-فرهنگی-هنری-شهرداری-تهران/search/
کتابخانه آفتابگردان (کتابخانه های سازمان فرهنگی هنری شهرداری تهران),تهران,تهران,تهران - خیابان دکتر شریعتی - بلوار صبا - بلوار شهید اندرزگو - پارک قیطریه - فرهنگسرای ملل.,55408668-55419057 021-021 ( داخلی  ),http://tlib.ir,https://lib.ir/fa/library/585/کتابخانه-آفتابگردان-کتابخانه-های-سازمان-فرهنگی-هنری-شهرداری-تهران/search/
كتابخانه الغدير یزد (مؤسسه فرهنگی تحقيقاتی اخوان دستمالچی),یزد,يزد,يزد - ميدان دروازه قرآن - مؤسسه فرهنگی تحقيقاتی اخوان دستمالچى,03535238233 ( داخلی 212 ),http://ghadir-edu.com,https://lib.ir/fa/library/112/كتابخانه-الغدير-یزد-مؤسسه-فرهنگی-تحقيقاتی-اخوان-دستمالچی/search/
كتابخانه  امام خميني (ره) شهر قنوات,قم,قنوات,شهر قنوات - خيابان امام خمينى (ره) - مقابل پاسگاه انتظامى.,33223100-025 ( داخلی  ),http://qompl.ir,https://lib.ir/fa/library/388/كتابخانه-امام-خميني-ره-شهر-قنوات/search/
کتابخانه امام خمینی (ره) (کتابخانه های سازمان فرهنگی هنری شهرداری تهران),تهران,تهران,تهران - خيابان ۱۷ شهريور - خيابان خشكبار چي - بوستان خيام.,333303843-021 ( داخلی  ),http://tlib.ir,https://lib.ir/fa/library/609/کتابخانه-امام-خمینی-ره--کتابخانه-های-سازمان-فرهنگی-هنری-شهرداری-تهران/search/
کتابخانه امام رضا (ع) (آستان قدس رضوی),خراسان رضوی,سبزوار,بلوار شهدای هسته ای - جنب پارک شهدای گمنام - مجتمع فرهنگی و کتابخانه امام رضا (ع) سبزوار,44670172-051 ( داخلی 051-44670173 ),https://library.razavi.ir/aqlibraries,https://lib.ir/fa/library/516/کتابخانه-امام-رضا-ع--آستان-قدس-رضوی/search/
كتابخانه امام رضا (ع) (آستان قدس رضوی),خراسان رضوی,روشناوند گناباد,شهرستان گناباد - شهر روشناوند - بلوار امام رضا (ع) - حسینیه و کتابخانه امام رضا (ع),57473070-051 ( داخلی  ),https://library.razavi.ir/aqlibraries,https://lib.ir/fa/library/173/كتابخانه-امام-رضا-ع--آستان-قدس-رضوی/search/
كتابخانه امام رضا (ع) (آستان قدس رضوی),خراسان جنوبی,بيرجند,بيرجند - خیابان معلم - میدان مادر - جنب باغ اکبریه,32421325-056 ( داخلی 056-32446820 ),https://library.razavi.ir/aqlibraries,https://lib.ir/fa/library/175/كتابخانه-امام-رضا-ع--آستان-قدس-رضوی/search/
كتابخانه امام رضا (ع)  (آستان قدس رضوی ع),یزد,طبس,طبس - روستاي محمدآباد - كتابخانه حضرت امام رضا عليه السلام.,32867316-056 ( داخلی  ),http://,https://lib.ir/fa/library/176/كتابخانه-امام-رضا-ع--آستان-قدس-رضوی-ع/search/
كتابخانه امام رضا (ع) (آستان قدس رضوی ع),خراسان رضوی,قوچان,قوچان - بلوار مصلی - مجتمع فرهنگی و کتابخانه امام رضا (ع),05147234700 ( داخلی  ),https://library.razavi.ir/aqlibraries,https://lib.ir/fa/library/174/كتابخانه-امام-رضا-ع--آستان-قدس-رضوی-ع/search/
كتابخانه امام رضا (ع) (آستان قدس رضوی ع),خراسان جنوبی,قائن,قاین - بلوار بسیج - روبروی گلزار شهداء - کتابخانه امام رضا (ع).,32526006-056 ( داخلی  ),http://qlib.ugig.ir,https://lib.ir/fa/library/170/كتابخانه-امام-رضا-ع--آستان-قدس-رضوی-ع/search/
كتابخانه امام رضا (ع) (آستان قدس رضوی ع),کرمان,امین شهر,رفسنجان - امين شهر (حسين آباد انار).,( داخلی  ),http://aqlibrary.org,https://lib.ir/fa/library/171/كتابخانه-امام-رضا-ع--آستان-قدس-رضوی-ع/search/
كتابخانه امام رضا  (ع) (آستان قدس رضوی ع),خراسان رضوی,سرخس,سرخس - بلوار سردار سلیمانی – روبروی شرکت برق,34527771-051 ( داخلی  ),https://library.razavi.ir/aqlibraries,https://lib.ir/fa/library/172/كتابخانه-امام-رضا--ع--آستان-قدس-رضوی-ع/search/
كتابخانه امام رضا (ع) (آستان قدس رضوی ع),کرمان,كرمان,كرمان - بلوار هوشنگ مرادي كرمانى - پشت هتل پارس.,32118485-034 ( داخلی  ),http://aqlibrary.org,https://lib.ir/fa/library/157/كتابخانه-امام-رضا-ع--آستان-قدس-رضوی-ع/search/
كتابخانه امام رضا (ع) (آستان قدس رضوی ع),خراسان رضوی,درگز,درگز - خیابان امام خمینی (ره) - نبش كوچه شماره 27.,46231115-051 ( داخلی  ),http://aqlibrary.org,https://lib.ir/fa/library/377/كتابخانه-امام-رضا-ع--آستان-قدس-رضوی-ع/search/
کتابخانه امام رضا (ع) (آستان قدس رضوی ع),خراسان رضوی,تربت حیدریه,شهرک ولیعصر – بلوار دکتر چمران – جنب بوستان مینو,051-52290335 ( داخلی 52290334 - 051 ),https://library.razavi.ir/aqlibraries,https://lib.ir/fa/library/514/کتابخانه-امام-رضا-ع--آستان-قدس-رضوی-ع/search/
کتابخانه امام رضا علیه السلام (آستان قدس رضوی ع),خراسان رضوی,گناباد,گناباد-خیابان حافظ، نبش حافظ20 پلاک188,05157263292 ( داخلی 05157263272 ),https://library.razavi.ir/aqlibraries,https://lib.ir/fa/library/741/کتابخانه-امام-رضا-علیه-السلام-آستان-قدس-رضوی-ع/search/
کتابخانه امام رضا(ع) بروجرد (آستان قدس رضوی ع),لرستان,بروجرد,بروجرد-خیابان 18متری-کوچه شهید اصغر پور,066،42629770 ( داخلی  ),http://,https://lib.ir/fa/library/782/کتابخانه-امام-رضا-ع-بروجرد-آستان-قدس-رضوی-ع/search/
كتابخانه امام صادق (ع) (حوزه علميه),قزوین,قزوين,قزوين - خيابان پيغمبريه - كوچه شهيد حاج سيد جوادي (پنجه علي).,33236732-028 ( داخلی  ),http://is-lib.ir,https://lib.ir/fa/library/191/كتابخانه-امام-صادق-ع--حوزه-علميه/search/
كتابخانه امام صادق (ع) زابل,سیستان و بلوچستان,زابل,زابل - خیابان طالقانی – جنب مسجد مرحوم شریفی - حوزه علمیه امام صادق علیه السلام.,32222627-054 ( داخلی  ),http://yasenarges.ir,https://lib.ir/fa/library/501/كتابخانه-امام-صادق-ع-زابل/search/
کتابخانه امام علی علیه السلام (کتابخانه های سازمان فرهنگی هنری شهرداری تهران),تهران,تهران,تهران - خیابان ولیعصر (عج) - روبروي بزرگراه نيايش - بلوار اسفندیار - شماره ۳۵.,22042038-021 ( داخلی  ),http://tlib.ir,https://lib.ir/fa/library/564/کتابخانه-امام-علی-علیه-السلام-کتابخانه-های-سازمان-فرهنگی-هنری-شهرداری-تهران/search/
کتابخانه امامزاده یحیی ع (کتابخانه های سازمان فرهنگی هنری شهرداری تهران),تهران,تهران,تهران - خيابان ری - كوچه آبشار غربی - كوچه شهيد هداوند - خانه فرهنگ امامزاده يحيي - شماره ۷.,33553228-021 ( داخلی  ),http://tlib.ir,https://lib.ir/fa/library/608/کتابخانه-امامزاده-یحیی-ع-کتابخانه-های-سازمان-فرهنگی-هنری-شهرداری-تهران/search/
کتابخانه امید (کتابخانه های سازمان فرهنگی هنری شهرداری تهران),تهران,تهران,تهران - ميدان نوبنياد- بزرگراه شهيد بابايي- شهرك اميد- مجتمع فرهنگی .,77077175-021 ( داخلی  ),http://tlib.ir,https://lib.ir/fa/library/664/کتابخانه-امید-کتابخانه-های-سازمان-فرهنگی-هنری-شهرداری-تهران/search/
کتابخانه امیر کبیر (کتابخانه های سازمان فرهنگی هنری شهرداری تهران),تهران,تهران,تهران - خيابان دکتر شريعتي - نرسيده به ميدان قدس - خيابان برادران واعظي - خيابان قيطريه - ضلع شمال غرب بوستان قيطريه.,22207051-021 ( داخلی  ),http://tlib.ir,https://lib.ir/fa/library/607/کتابخانه-امیر-کبیر-کتابخانه-های-سازمان-فرهنگی-هنری-شهرداری-تهران/search/
کتابخانه انتشارات سمت,تهران,تهران,تهران - بزرگراه جلال آل احمد - غرب پل یادگار امام - روبروی پمپ گاز - سازمان سمت - طبقه اول کتابخانه,44234843-021 ( داخلی  ),http://samt.ac.ir,https://lib.ir/fa/library/772/کتابخانه-انتشارات-سمت/search/
كتابخانه انجمن آثار و مفاخر فرهنگی,تهران,تهران,تهران- خيابان وليعصر (ع)- پل امير بهادر- خيابان سرگرد بشيرى- شماره 71.,55394852-021 ( داخلی  ),http://anjom.ir,https://lib.ir/fa/library/449/كتابخانه-انجمن-آثار-و-مفاخر-فرهنگی/search/
کتابخانه اندیشه (کتابخانه های سازمان فرهنگی هنری شهرداری تهران),تهران,تهران,تهران - خيابان دکتر شريعتی - نرسيده به پل سيدخندان - روبروي مخابرات - بوستان هلال احمر - فرهنگسرای اتدیشه.,88739770-021 ( داخلی  ),http://tlib.ir,https://lib.ir/fa/library/613/کتابخانه-اندیشه-کتابخانه-های-سازمان-فرهنگی-هنری-شهرداری-تهران/search/
کتابخانه انقلاب اسلامی (کتابخانه های سازمان فرهنگی هنری شهرداری تهران),تهران,تهران,تهران - خيابان كميل - ‌تقاطع بزرگراه شهيد نواب صفوي - فرهنگسراي انقلاب اسلامی.,021-۵۵۴۰۸۶۶۹ ( داخلی  ),http://tlib.ir,https://lib.ir/fa/library/572/کتابخانه-انقلاب-اسلامی-کتابخانه-های-سازمان-فرهنگی-هنری-شهرداری-تهران/search/
كتابخانه آیت الله العظمی آخوند ملا علی همدانی (ره),همدان,همدان,همدان _ خیابان شهداء  _ كوچه آخوند,32517051-081 ( داخلی  ),http://,https://lib.ir/fa/library/504/كتابخانه-آیت-الله-العظمی-آخوند-ملا-علی-همدانی-ره/search/
كتابخانه آیت الله العظمی بروجردی (مسجد اعظم),قم,قم,قم مقدسه - حرم مطهر حضرت معصومه س - مسجد اعظم - کتابخانه آیت الله العظمی بروجردی (ره).,45-37839844-025 ( داخلی  ),http://BLIB.IR,https://lib.ir/fa/library/509/كتابخانه-آیت-الله-العظمی-بروجردی-مسجد-اعظم/search/
کتابخانه آیت الله ايرواني (کتابخانه های سازمان فرهنگی هنری شهرداری تهران),تهران,تهران,تهران - خيابان مولوی - نرسيده به چهارراه وحدت اسلامی - كوچه دولت آبادی - كوچه حاج حسن - پلاک جدید ۱.,55893654-021 ( داخلی  ),http://tlib.ir,https://lib.ir/fa/library/612/کتابخانه-آیت-الله-ايرواني-کتابخانه-های-سازمان-فرهنگی-هنری-شهرداری-تهران/search/
كتابخانه آیت الله جلیلی (آستان قدس رضوی ع),کرمانشاه,كرمانشاه,كرمانشاه - میدان جلیلی روبروی بانک ملی کتابخانه آیت الله جلیلی,38249509-083 ( داخلی  ),http://,https://lib.ir/fa/library/159/كتابخانه-آیت-الله-جلیلی-آستان-قدس-رضوی-ع/search/
كتابخانه آیت الله حاج شيخ عباس تربتی (آستان قدس رضوی ع),خراسان رضوی,مشهد,مشهد مقدس - خواجه ربیع- روبروی یوسف زاده 11,37413999-051 ( داخلی  ),http://aqlibrary.ir/libraries/lib4.aspx,https://lib.ir/fa/library/141/كتابخانه-آیت-الله-حاج-شيخ-عباس-تربتی-آستان-قدس-رضوی-ع/search/
کتابخانه آیت الله حاج شیخ مجتبی قزوینی (آستان قدس رضوی ع),خراسان رضوی,مشهد,خیابان طبرسی - چهار راه مجلسی – مجلسی غربی 1 (رسالت 2),32766444-051 ( داخلی 32713070 - 051 ),https://library.razavi.ir/aqlibraries,https://lib.ir/fa/library/142/کتابخانه-آیت-الله-حاج-شیخ-مجتبی-قزوینی-آستان-قدس-رضوی-ع/search/
کتابخانه آیت الله حاج شیخ هاشم قزوینی (آستان قدس رضوی ع),خراسان رضوی,مشهد,بلوار شهید رستمی 38- محمدآباد 7,051-33668100  ( داخلی  ),http://www.razavi.aqr.ir,https://lib.ir/fa/library/143/کتابخانه-آیت-الله-حاج-شیخ-هاشم-قزوینی-آستان-قدس-رضوی-ع/search/
كتابخانه آيت الله حكيم (ره) (آستان قدس رضوی ع),تهران,تهران,تهران - خیابان دكتر باهنر - حصار بوعلي - خيابان سرتيپ شهيد خلبان رضا سعيدي - پلاك 62 .,22281249-021 ( داخلی  ),http://aqlibrary.ir,https://lib.ir/fa/library/154/كتابخانه-آيت-الله-حكيم-ره--آستان-قدس-رضوی-ع/search/
كتابخانه آيت ‌الله شهيد مدرس (ره) (آستان قدس رضوی ع),خراسان رضوی,كاشمر,كاشمر - بلوار شاهد - زيارتگاه شهيد مدرس (ره).,15-55245614-051 ( داخلی  ),http://aqlibrary.org/libraries/lib19.aspx,https://lib.ir/fa/library/162/كتابخانه-آيت-الله-شهيد-مدرس-ره--آستان-قدس-رضوی-ع/search/
كتابخانه آیت الله شیخ محمد تقی بروجردی (آستان قدس رضوی ع),لرستان,بروجرد,بروجرد - خيابان دكتر شريعتي - كوچه شهيد شايسته نيا - جنب درمانگاه امام خميني(ره) - كتابخانه آيت الله حاج شيخ محمد تقي بروجردي(ره).,۰۶۶-۰۶۶ آقایان:  ۴۲۶۱۱۶۳۰ -بانوان:   ۴۲۶۲۹۸۳۷  ( داخلی  ),http://aqlibrary.org,https://lib.ir/fa/library/163/كتابخانه-آیت-الله-شیخ-محمد-تقی-بروجردی-آستان-قدس-رضوی-ع/search/
كتابخانه آیت الله صافی گلپايگانى,قم,قم,قم مقدسه - خيابان انقلاب (چهارمردان)- كوچه 6 - كوچه 11 - پلاك 183 .,37708581-025 ( داخلی  ),http://saafi.org,https://lib.ir/fa/library/448/كتابخانه-آیت-الله-صافی-گلپايگانى/search/
کتابخانه آیت الله طالقانی (کتابخانه های سازمان فرهنگی هنری شهرداری تهران),تهران,تهران,تهران - خیابان انقلاب اسلامی- پيچ شميران- خيابان تنكابن (نورمحمدي)- كوچه آيت ا... طالقاني (ره).,77526923-021 ( داخلی  ),http://tlib.ir,https://lib.ir/fa/library/662/کتابخانه-آیت-الله-طالقانی-کتابخانه-های-سازمان-فرهنگی-هنری-شهرداری-تهران/search/
كتابخانه آيت ‌الله وزيری (آستان قدس رضوی ع),یزد,يزد,يزد - خيابان امام - خيابان مسجد جامع - كتابخانه وزيري يزد.,36264554-035 ( داخلی  ),http://aqlibrary.org/libraries/lib28.aspx,https://lib.ir/fa/library/145/كتابخانه-آيت-الله-وزيری-آستان-قدس-رضوی-ع/search/
کتابخانه آیت الله کاشانی (کتابخانه های سازمان فرهنگی هنری شهرداری تهران),تهران,تهران,تهران- خیابان مصطفی خمینی- کوچه سجادی- بن بست شام بیاتی- پلاک ۳۰.,33530695-021 ( داخلی  ),http://tlib.ir,https://lib.ir/fa/library/661/کتابخانه-آیت-الله-کاشانی-کتابخانه-های-سازمان-فرهنگی-هنری-شهرداری-تهران/search/
كتابخانه ايرانشناسی مجلس شورای اسلامی,تهران,تهران,تهران - ضلع جنوب شرقي ميدان بهارستان - کتابخانه مجلس شوراي اسلامي.,33130911-021 ( داخلی  ),http://ical.ir,https://lib.ir/fa/library/185/كتابخانه-ايرانشناسی-مجلس-شورای-اسلامی/search/
کتابخانه بازار (کتابخانه های سازمان فرهنگی هنری شهرداری تهران),تهران,تهران,تهران- میدان امام خمینی(ره)- خیابان امیر کبیر - بعد از ناصر خسرو- ناظم الاطبای جنوبی- کوچه حشمتی- کوی کمالی- پلاک ۲۰- خانه موزه بازار.,33112824-021 ( داخلی  ),http://tlib.ir,https://lib.ir/fa/library/660/کتابخانه-بازار-کتابخانه-های-سازمان-فرهنگی-هنری-شهرداری-تهران/search/
کتابخانه برادران نمایندگی خراسان - جامعه المصطفی (ص) العالمیه,خراسان رضوی,مشهد,مشهد – بلوار مدرس – نبش مدرس یک، جامعه المصطفی نمایندگی خراسان,05132211821 ( داخلی  ),http://Dlib.miu.ac.ir,https://lib.ir/fa/library/796/کتابخانه-برادران-نمایندگی-خراسان--جامعه-المصطفی-ص-العالمیه/search/
كتابخانه بزرگ آيت الله العظمي مرعشی نجفی (ره),قم,قم,قم مقدسه - خيابان ارم - كتابخانه بزرگ آيت الله مرعشي نجفى (ره).,78-37741970-025 ( داخلی  ),http://marashilibrary.com,https://lib.ir/fa/library/284/كتابخانه-بزرگ-آيت-الله-العظمي-مرعشی-نجفی-ره/search/
كتابخانه بنياد پژوهش های اسلامی آستان قدس رضوى (ع),خراسان رضوی,مشهد,مشهد مقدس - حرم مطهر دوربرگردان شیخ طبرسی - بنیاد پژوهشهاى اسلامى.,32232501-051 ( داخلی  ),http://islamic-rf.ir,https://lib.ir/fa/library/181/كتابخانه-بنياد-پژوهش-های-اسلامی-آستان-قدس-رضوى-ع/search/
كتابخانه بنياد دايرة المعارف اسلامی,تهران,تهران,تهران- خیابان فلسطین شمالی- بالای كتاب مرجع- شماره130,88969290-88967871-88978052-88966703-021 ( داخلی  ),http://lib.rch.ac.ir,https://lib.ir/fa/library/183/كتابخانه-بنياد-دايرة-المعارف-اسلامی/search/
کتابخانه بهاران(کتابخانه های سازمان فرهنگی هنری شهرداری تهران),تهران,تهران,تهران - ميدان ابوذر- انتهاي سجادجنوبي- ميدان بهاران- خيابان رادمردان- فرهنگسراي بهاران.,66218568-021 ( داخلی  ),http://tlib.ir,https://lib.ir/fa/library/658/کتابخانه-بهاران-کتابخانه-های-سازمان-فرهنگی-هنری-شهرداری-تهران/search/
کتابخانه پامچال(کتابخانه های سازمان فرهنگی هنری شهرداری تهران),تهران,تهران,تهران - خيابان يافت آباد - شهرك ولي عصر عج- انتهاي حيدري جنوبي- خيابان پژاند,33878283-021 ( داخلی  ),http://tlib.ir,https://lib.ir/fa/library/657/کتابخانه-پامچال-کتابخانه-های-سازمان-فرهنگی-هنری-شهرداری-تهران/search/
کتابخانه پرتو (کتابخانه های سازمان فرهنگی هنری شهرداری تهران),تهران,تهران,تهران - شهرك راه‌آهن - بلوارگلها - بالاتراز ميدان اتريش - بوستان نسترن - كتابخانه پرتو.,44763299-021 ( داخلی  ),http://tlib.ir,https://lib.ir/fa/library/592/کتابخانه-پرتو-کتابخانه-های-سازمان-فرهنگی-هنری-شهرداری-تهران/search/
کتابخانه پردیس ابوریحان دانشگاه تهران,تهران,پاكدشت,پاکدشت - بلوار امام رضا (ع)- پردیس ابوریحان دانشگاه تهران.,36041006-021 ( داخلی  ),http://abu.ut.ac.ir,https://lib.ir/fa/library/542/کتابخانه-پردیس-ابوریحان-دانشگاه-تهران/search/
کتابخانه پردیس بین الملل كیش دانشگاه تهران,هرمزگان,كیش,جزيره كيش - بلوار ميرمهنا - ابتدای نيايش - پرديس بين المللی كيش دانشگاه تهران.,44430055-076 ( داخلی  ),http://kishlib.ut.ac.ir,https://lib.ir/fa/library/103/کتابخانه-پردیس-بین-الملل-كیش-دانشگاه-تهران/search/
کتابخانه پردیس بین المللی ارس دانشگاه تهران,آذربایجان شرقی,جلفا,جلفا - بلوار امام خميني ره - پرديس بین المللی ارس دانشگاه تهران.,42024824-041 ( داخلی  ),http://aras.ut.ac.ir,https://lib.ir/fa/library/518/کتابخانه-پردیس-بین-المللی-ارس-دانشگاه-تهران/search/
کتابخانه پرديس 2 دانشکده‌های فنی دانشگاه تهران,تهران,تهران,تهران- خيابان کارگر شمالي- بعد از بزرگراه جلال آل احمد- پرديس2 دانشکده های فني.,82089801-021 ( داخلی  ),http://eng.ut.ac.ir,https://lib.ir/fa/library/534/کتابخانه-پرديس-2-دانشکده-های-فنی-دانشگاه-تهران/search/
كتابخانه پردیس علوم دانشگاه تهران,تهران,تهران,تهران – خیابان انقلاب – پردیس مركزی دانشگاه تهران – پردیس علوم .,61112616-66495290-021 ( داخلی  ),http://Science.ut.ac.ir/sclib,https://lib.ir/fa/library/321/كتابخانه-پردیس-علوم-دانشگاه-تهران/search/
کتابخانه پردیس هنرهای زیبا دانشگاه تهران,تهران,تهران,تهران - خیابان انقلاب - دانشگاه تهران- دانشکده هنرهای زیبا.,61113246-61112755 021-66499680 021-021 ( داخلی 3246-2755 ),http://dlib.ut.ac.ir,https://lib.ir/fa/library/541/کتابخانه-پردیس-هنرهای-زیبا-دانشگاه-تهران/search/
كتابخانه پژوهشگاه انديشه سياسی اسلام,قم,قم,قم مقدسه – میدان رسالت – ابتدای بلوار بسیج – بسیج 2 - دبيرخانه مجلس خبرگان رهبري – مرکز تحقیقات علمی حکومت  اسلامی,37834501-025 ( داخلی  ),http://rcipt.ir,https://lib.ir/fa/library/317/كتابخانه-پژوهشگاه-انديشه-سياسی-اسلام/search/
کتابخانه پژوهشگاه دانشهای بنیادی,تهران,تهران,فرمانیه- ابتدای پاسداران -کوهستان نهم (نوریان)- خیابان شعله- خیابان یاسمن غربی-خیابان آذرمینا- بن بست مهران- پلاک 7- مرکز تحقیقات فیزیک نظری و ریاضیات- واحد کتابخانه,22291812-021 ( داخلی 4135 ),https://library.ipm.ac.ir,https://lib.ir/fa/library/286/کتابخانه-پژوهشگاه-دانشهای-بنیادی/search/
كتابخانه پژوهشگاه علوم و فناوری رنگ,تهران,تهران,تهران - بزرگراه صيادشيرازي(به سمت شمال) - خروجي لويزان - ميدان حسين‌آباد - خيابان وفامنش - نبش كوچه شمس - پلاك 55 (59قديم).,22946834-021 ( داخلی  ),http://icrc.ac.ir,https://lib.ir/fa/library/269/كتابخانه-پژوهشگاه-علوم-و-فناوری-رنگ/search/
كتابخانه پژوهشگاه معلم اداره كل آموزش و پرورش استان مركزی,مرکزی,اراک,اراك - خیابان قائم مقام فراهانی - میدان ارك - روبروی نیروی انتظامی - پژوهشكاه معلم.,32220010-086 ( داخلی  ),http://cms.medu.ir,https://lib.ir/fa/library/394/كتابخانه-پژوهشگاه-معلم-اداره-كل-آموزش-و-پرورش-استان-مركزی/search/
كتابخانه پژوهشگاه نیرو,تهران,تهران,تهران - شهرك قدس - انتهاي بلوار شهيد دادمان - پژوهشگاه نیرو .,9-88079401-021 ( داخلی  ),http://nri.ac.ir,https://lib.ir/fa/library/401/كتابخانه-پژوهشگاه-نیرو/search/
کتابخانه پژوهشکده بیمه,تهران,تهران,تهران، سعادت آباد، میدان شهید حسن تهرانی مقدم (کاج سابق)، سرو غربی، بعد از مخابرات سلمان فارسی، پلاک 43,021-22092265 ( داخلی 120 ),https://lib.irc.ac.ir/,https://lib.ir/fa/library/282/کتابخانه-پژوهشکده-بیمه/search/
کتابخانه پندار(کتابخانه های سازمان فرهنگی هنری شهرداری تهران),تهران,تهران,تهران- دهکده المپیک- شهرک راه آهن- انتهای بلوار امیر کبیر-  پشت دبیرستان دخترانه هداوند- جنب مسجد چهارده معصوم(ع)- پلاک ۴،,44729091-021 ( داخلی  ),http://tlib.ir,https://lib.ir/fa/library/656/کتابخانه-پندار-کتابخانه-های-سازمان-فرهنگی-هنری-شهرداری-تهران/search/
كتابخانه پيغمبر (ص) (آستان قدس رضوی ع),خراسان رضوی,مشهد,مشهد مقدس - بلوار پيروزي - ميدان سلمان فارسى.,38794842-051 ( داخلی  ),http://aqlibrary.ir,https://lib.ir/fa/library/151/كتابخانه-پيغمبر-ص--آستان-قدس-رضوی-ع/search/
كتابخانه تخصصی ادبی و هنری (دفتر تبلیغات اسلامی حوزه علمیه قم),قم,قم,خیابان فاطمی (دورشهر) / کوچه اول / جنب کلانتری 11,31156342 ( داخلی  ),http://eshragh.ir,https://lib.ir/fa/library/450/كتابخانه-تخصصی-ادبی-و-هنری-دفتر-تبلیغات-اسلامی-حوزه-علمیه-قم/search/
كتابخانه تخصصی ادبیات,قم,قم,قم مقدسه - خیابان شهید فاطمی (دورشهر) - خیابان سمیه - پلاك 15 طبقه زیرین.,12-37732011-025 ( داخلی  ),http://literaturelib.com,https://lib.ir/fa/library/500/كتابخانه-تخصصی-ادبیات/search/
كتابخانه تخصصی ادبیات آستان قدس رضوی (ع),خراسان رضوی,مشهد,مشهد- حرم مطهر-  بست شیخ طوسی- کتابخانه مرکزی و مرکز اسناد آستان قدس رضوی- طبقه منهای یک,32232004-051 ( داخلی  ),http://aqlibrary.org/literature,https://lib.ir/fa/library/374/كتابخانه-تخصصی-ادبیات-آستان-قدس-رضوی-ع/search/
كتابخانه تخصصي اسناد (آستان قدس رضوی ع),خراسان رضوی,مشهد,مشهد مقدس - حرم مطهر امام رضا علیه السلام - ساختمان بنياد پژوهشهاي اسلامى - مديريت امور اسناد و مطبوعات.,32221149-051 ( داخلی  ),http://aqlibrary.org,https://lib.ir/fa/library/156/كتابخانه-تخصصي-اسناد-آستان-قدس-رضوی-ع/search/
کتابخانه تخصصی اقتصاد اسلامی آستان قدس رضوی (ع),خراسان رضوی,مشهد,,8-05112232004 ( داخلی 3359 ),http://islamiceconomics.aqlibrary.ir/,https://lib.ir/fa/library/515/کتابخانه-تخصصی-اقتصاد-اسلامی-آستان-قدس-رضوی-ع/search/
کتابخانه تخصصی امام حسین (علیه السلام),قم,قم,قم مقدسه - خيابان سميه - کوچه 16 متري شهيدين (عباس آباد) - شماره 137 .,37739680-025 ( داخلی  ),http://ihlib.ir,https://lib.ir/fa/library/508/کتابخانه-تخصصی-امام-حسین-علیه-السلام/search/
كتابخانه تخصصی امام خمينی (ره),قم,قم,قم مقدسه - خيابان شهدا ( صفائيه) - كوچه 24 (ممتاز) - چهار راه ادیب - پلاك 85 - موسسه تنظيم و نشر آثار امام خمينی (ره).,9-37742247-025 ( داخلی  ),http://hawzah.net/Hawzah/Library/Default.aspx,https://lib.ir/fa/library/123/كتابخانه-تخصصی-امام-خمينی-ره/search/
كتابخانه تخصصي امام رضا  (ع) (آستان قدس رضوی ع),خراسان رضوی,مشهد,مشهد مقدس - حرم مطهر امام رضا علیه السلام - بست شيخ بهايي - طبقه فوقاني كتابخانه گوهرشاد .,32223276-051 ( داخلی  ),http://aqlibrary.ir,https://lib.ir/fa/library/158/كتابخانه-تخصصي-امام-رضا--ع--آستان-قدس-رضوی-ع/search/
کتابخانه تخصصی امامت,قم,قم,قم مقدسه - خیابان معلم- کوی 10- خیابان شهیدین بهشتی و قدوسی (16متري عباس آباد)- پلاک 56- بنیاد فرهنگی امامت,37838690-37841015 و 2 ( داخلی 410 ),http://lib.emamat.ir,https://lib.ir/fa/library/629/کتابخانه-تخصصی-امامت/search/
کتابخانه تخصصی انقلاب اسلامی و دفاع مقدس,تهران,تهران,میدان ونک –بزرگراه شهید حقانی- خیابان سرو- جنب مترو حقانی- موزه ملی انقلاب اسلامی و دفاع مقدس- کتابخانه,02188657020 ( داخلی 671 - 672 - 673 ),http://Http://Lib.iranhdm.ir,https://lib.ir/fa/library/439/کتابخانه-تخصصی-انقلاب-اسلامی-و-دفاع-مقدس/search/
كتابخانه تخصصی اهل بیت (ع) مسجد گوهرشاد (آستان قدس رضوی ع),خراسان رضوی,مشهد,مشهد مقدس - حرم مطهر امام رضا علیه السلام - ورودی بست شيخ بهايي .,32223276-051 ( داخلی  ),http://aqlibrary.org,https://lib.ir/fa/library/138/كتابخانه-تخصصی-اهل-بیت-ع-مسجد-گوهرشاد-آستان-قدس-رضوی-ع/search/
كتابخانه تخصصی پژوهشگاه علوم و فرهنگ اسلام (دفتر تبليغات اسلامی حوزه علمیه قم),قم,قم,چهار راه شهدا. ابتدای خیابان معلم. ساختمان پژوهشکده فرهنگ و معارف قرآن,02531151435 ( داخلی 1308-1325 ),http://Lib.isca.ac.ir,https://lib.ir/fa/library/114/كتابخانه-تخصصی-پژوهشگاه-علوم-و-فرهنگ-اسلام-دفتر-تبليغات-اسلامی-حوزه-علمیه-قم/search/
كتابخانه تخصصی پژوهشكده حج و زیارت,قم,قم,قم مقدسه - بلوار عمار ياسر - خيابان شهيد قدوسي - روبروي مرکز خدمات حوزه هاي علميه - حوزه نمايندگي ولي فقيه در حج و زيارت - پژوهشکده حج و زيارت - طبقه 2 - کتابخانه و اسناد,37186205-37186215-025 ( داخلی  ),http://hajj.ir,https://lib.ir/fa/library/364/كتابخانه-تخصصی-پژوهشكده-حج-و-زیارت/search/
كتابخانه تخصصی تاریخ اسلام و ایران,قم,قم,قم - خیابان سمیه - خیابان شهید رجایی - كوچه 11 - پ 8 .,37731355-025 ( داخلی  ),http://historylib.com,https://lib.ir/fa/library/442/كتابخانه-تخصصی-تاریخ-اسلام-و-ایران/search/
کتابخانه تخصصی تفسیر و علوم قرآنی,یزد,يزد,بلوار مدرس- اکرمیه – خیابان دانش شرقی,03538265513 ( داخلی  ),http://Logii.ir,https://lib.ir/fa/library/766/کتابخانه-تخصصی-تفسیر-و-علوم-قرآنی/search/
كتابخانه تخصصي جغرافيا (آستان قدس رضوی ع),خراسان رضوی,مشهد,مشهد مقدس - حرم مطهر رضوی علیه السلام.,8-32232004 ( داخلی 3251 ),http://aqlibrary.ir,https://lib.ir/fa/library/155/كتابخانه-تخصصي-جغرافيا-آستان-قدس-رضوی-ع/search/
کتابخانه تخصصی جهاد و شهادت (موسسه فرهنگی روایت سیره شهدا),قم,قم,قم مقدسه - میدان بسیج - خیابان حجت الاسلام ایرانی - نبش کوچه 4,02537105 ( داخلی 506-151 ),http://Ravayatgar.net,https://lib.ir/fa/library/602/کتابخانه-تخصصی-جهاد-و-شهادت-موسسه-فرهنگی-روایت-سیره-شهدا/search/
کتابخانه تخصصی حقوقی آموزش و تحقیقات دادگستری کل استان تهران باقرالعلوم (ع),تهران,تهران,تهران -  پل کریمخان زند -  خیابان سنایی - نبش کوچه هفدهم - پلاک .140,88326702-021 ( داخلی 2232 ),http://Dadgostary-tehran.ir,https://lib.ir/fa/library/628/کتابخانه-تخصصی-حقوقی-آموزش-و-تحقیقات-دادگستری-کل-استان-تهران-باقرالعلوم-ع/search/
كتابخانه تخصصی دانشگاه اديان و مذاهب,قم,قم,قم مقدسه - شهرك پرديسان - مقابل مسجد امام صادق (ع) - دانشگاه اديان و مذاهب.,32802610-025 ( داخلی  ),http://lib.urd.ac.ir,https://lib.ir/fa/library/108/كتابخانه-تخصصی-دانشگاه-اديان-و-مذاهب/search/
كتابخانه تخصصی دفاع مقدس,خراسان رضوی,مشهد,مشهد مقدس - بلوار امامت - روبروی امامت 18 - پارك ملت – مجنمع فرهنگی امام رضا(ع).,36091814-051 ( داخلی  ),http://mashadpl.ir,https://lib.ir/fa/library/410/كتابخانه-تخصصی-دفاع-مقدس/search/
کتابخانه تخصصی شیعه شناسی,قم,قم,45متری عمار یاسر – پلاک 92,37713773-025  ( داخلی 100 ),http://WWW.Shia stadis.com,https://lib.ir/fa/library/659/کتابخانه-تخصصی-شیعه-شناسی/search/
كتابخانه تخصصی صاحب الزمان (عج) (مسجد جمکران),قم,قم,قم - خیابان فاطمی (دورشهر) - كوچه 28 - پلاك 6.,37732212-025 ( داخلی  ),http://jmcu.ir,https://lib.ir/fa/library/373/كتابخانه-تخصصی-صاحب-الزمان-عج--مسجد-جمکران/search/
کتابخانه تخصصی علوم حدیث,قم,قم,قم مقدسه - خیابان سمیه - 20 متری شهید رجایی - بین کوچه 4و 6 . پلاک 74,37733026-025 ( داخلی  ),http://,https://lib.ir/fa/library/548/کتابخانه-تخصصی-علوم-حدیث/search/
كتابخانه تخصصی علوم قرآن و حدیث (آستان قدس رضوی ع),خراسان رضوی,مشهد,مشهد- آستان قدس رضوی- طبقه(۱-) کتابخانه مرکزی- مجاور تالار امانت مواد سمعی و بصری,32232004-051 ( داخلی 254 ),http://quran.aqlibrary.org,https://lib.ir/fa/library/376/كتابخانه-تخصصی-علوم-قرآن-و-حدیث-آستان-قدس-رضوی-ع/search/
كتابخانه تخصصی علوم و معارف قرآن (دفتر تبليغات اسلامی حوزه علمیه قم),قم,قم,قم مقدسه - ميدان شهداء - ساختمان پژوهشگاه دفتر تبليغات اسلامی حوزه علميه قم - طبقه منفی 1.,371160-025 ( داخلی  ),http://Lib.isca.ac.ir,https://lib.ir/fa/library/107/كتابخانه-تخصصی-علوم-و-معارف-قرآن-دفتر-تبليغات-اسلامی-حوزه-علمیه-قم/search/
کتابخانه تخصصی فقه و اصول,قم,قم,قم مقدسه - بلوار امین - 20 متری گلستان - کوچه 11 - پلاک 4,32914608-32939668-025 ( داخلی  ),http://feghlib.ir,https://lib.ir/fa/library/101/کتابخانه-تخصصی-فقه-و-اصول/search/
کتابخانه تخصصی فقه و اصول مرکز فقهی ائمه اطهار علیهم السلام,قم,قم,قم - میدان معلم - مرکز فقهی ائمه اطهار علیهم السلام - طبقه سوم.,37749494و 37730176 ( داخلی 224 ),http://markazfeqhi.com,https://lib.ir/fa/library/507/کتابخانه-تخصصی-فقه-و-اصول-مرکز-فقهی-ائمه-اطهار-علیهم-السلام/search/
كتابخانه تخصصی قرآنی سازمان دارالقرآن الكریم,تهران,تهران,تهران- ميدان امام حسين (ع)- خيابان خواجه نصيرالدين طوسى - شماره 85 - سازمان دارالقرآن‌الكريم.,77600915 ( داخلی  ),http://,https://lib.ir/fa/library/380/كتابخانه-تخصصی-قرآنی-سازمان-دارالقرآن-الكریم/search/
كتابخانه تخصصی لاتين پژوهشگاه علوم و فرهنگ اسلامی (دفتر تبليغات اسلامی حوزه علمیه قم),قم,قم,قم مقدسه - ابتدای خیابان معلم - پژوهشكاه علوم و فرهنگ اسلامی - طبقه اول و منفی 1.,371160-025 ( داخلی 1325 - 1308 ),http://Lib.isca.ac.ir,https://lib.ir/fa/library/196/كتابخانه-تخصصی-لاتين-پژوهشگاه-علوم-و-فرهنگ-اسلامی-دفتر-تبليغات-اسلامی-حوزه-علمیه-قم/search/
کتابخانه تخصصی مجتمع آموزش عالی زبان، ادبیات و فرهنگ شناسی- جامعه المصطفی (ص) العالمیه,قم,قم,بلوار شهیدان شاهرودی، مجتمع آموزش عالی زبان، ادبیات و فرهنگ شناسی,37048313-025 ( داخلی  ),http://Dlib.miu.ac.ir,https://lib.ir/fa/library/790/کتابخانه-تخصصی-مجتمع-آموزش-عالی-زبان-ادبیات-و-فرهنگ-شناسی-جامعه-المصطفی-ص-العالمیه/search/
كتابخانه تخصصی مخطوطات آستان قدس رضوی (ع),خراسان رضوی,مشهد,مشهد مقدس - حرم مطهر امام رضا علیه السلام.,8-32232004-051 ( داخلی 385 ),http://aqlibrary.org,https://lib.ir/fa/library/136/كتابخانه-تخصصی-مخطوطات-آستان-قدس-رضوی-ع/search/
کتابخانه تخصصی مذاهب اسلامی,قم,قم,قم مقدسه - بلوار شهید صدوقی - بلوار شهید محمود اخلاقی (بکایی)- پلاک 65.,32935011-025 ( داخلی 24 ),http://www.mazaheb.com,https://lib.ir/fa/library/595/کتابخانه-تخصصی-مذاهب-اسلامی/search/
كتابخانه تخصصی مطبوعات آستان قدس رضوی (ع),خراسان رضوی,مشهد,مشهد مقدس - حرم مطهر رضوى- ضلع شرقي دور برگردان طبرسى- ساختمان بنياد پژوهشهاي اسلامي قدس رضوى- مديريت امور اسناد ومطبوعات- گروه مطبوعات-كتابخانه تخصصی مطبوعات,32232501-051 ( داخلی 356 ),http://aqlibrary.org,https://lib.ir/fa/library/375/كتابخانه-تخصصی-مطبوعات-آستان-قدس-رضوی-ع/search/
کتابخانه تخصصی معارف اهل بیت(ع),قم,قم,خیابان شهدا (صفائیه)- کوچه 21- کوچه 3- موسسه معارف اهل¬بیت(ع),33553657-025 ( داخلی 3061 ),http://www.maaref.org,https://lib.ir/fa/library/115/کتابخانه-تخصصی-معارف-اهل-بیت-ع/search/
كتابخانه تخصصی موزه آستان قدس رضوی (ع),خراسان رضوی,مشهد,مشهد مقدس -  حرم مطهر امام رضا علیه السلام - موزه مركزى.,32224570-051 ( داخلی  ),http://aqm.ir,https://lib.ir/fa/library/167/كتابخانه-تخصصی-موزه-آستان-قدس-رضوی-ع/search/
كتابخانه تخصصی مؤسسه آموزش عالی طلوع مهر,قم,قم,قم مقدسه - خیابان شهید فاطمی - میدان رسالت.,37730080-025 ( داخلی  ),http://tolouemehr.ac.ir,https://lib.ir/fa/library/496/كتابخانه-تخصصی-مؤسسه-آموزش-عالی-طلوع-مهر/search/
كتابخانه تخصصی مؤسسه شیعه شناسی,قم,قم,قم مقدسه - شهرك پردیسان - بلوار دانشگاه - بلوار مولوی - مؤسسه شیعه شناسی.,32804636-025 ( داخلی  ),http://shistu.org,https://lib.ir/fa/library/451/كتابخانه-تخصصی-مؤسسه-شیعه-شناسی/search/
كتابخانه تخصصي و مركز اسناد موسسه آموزش عالي اخلاق و تربيت,قم,قم,قم مقدسه - بلوار شهيد صدوقي(ره)- خيابان شهيد شهبازي – موسسه آموزش عالي اخلاق و تربيت - پلاك 13.,32918444-025 ( داخلی 119 ),http://lib.ueae.ir/simwebclt/WebAccess/SimwebPortal.dll,https://lib.ir/fa/library/502/كتابخانه-تخصصي-و-مركز-اسناد-موسسه-آموزش-عالي-اخلاق-و-تربيت/search/
کتابخانه تخصصی کودکان و نوجوانان مرکز آموزش های کاربردی (دفتر تبلیغات اسلامی حوزه علمیه قم),قم,قم,قم- میدان جانبازان- خیابان شهیدان فاطمی (دورشهر)- کوچه 1 – جنب کلانتری 11 کتابخانه تخصصی کودکان و نوجوانان مرکز آموزشهای کاربردی پلاک 35,31156372-025 ( داخلی  ),http://lib.isca.ac.ir,https://lib.ir/fa/library/118/کتابخانه-تخصصی-کودکان-و-نوجوانان-مرکز-آموزش-های-کاربردی-دفتر-تبلیغات-اسلامی-حوزه-علمیه-قم/search/
کتابخانه ترنج (ابیانه) (کتابخانه های سازمان فرهنگی هنری شهرداری تهران),تهران,تهران,تهران - اتوبان شهید محلاتی - تقاطع بلوار ابوذر - خانه فرهنگ ابوذر - کتابخانه ترنج .,33834759-021 ( داخلی  ),http://tlib.ir,https://lib.ir/fa/library/565/کتابخانه-ترنج-ابیانه--کتابخانه-های-سازمان-فرهنگی-هنری-شهرداری-تهران/search/
کتابخانه تلاش (کتابخانه های سازمان فرهنگی هنری شهرداری تهران),تهران,تهران,تهران - محله خاني‌آبادنو - بلوار ميلاد - خيابان شهرداری - جنب بوستان ۲۲ بهمن - خانه فرهنگ تلاش.,55511125-021 ( داخلی  ),http://tlib.ir,https://lib.ir/fa/library/586/کتابخانه-تلاش-کتابخانه-های-سازمان-فرهنگی-هنری-شهرداری-تهران/search/
كتابخانه ثامن الائمه (ع) (آستان قدس رضوی ع),خراسان رضوی,مشهد,مشهد مقدس - بلوار شهيد موسوي قوچاني شمالى - مجتمع مسکونی ثامن الائمه(ع).,37123160-051 ( داخلی  ),http://aqlibrary.org,https://lib.ir/fa/library/168/كتابخانه-ثامن-الائمه-ع--آستان-قدس-رضوی-ع/search/
کتابخانه جامع امین جامعه المصطفی العالمیه,قم,قم,بلوار امین - سه راه سالاریه مجتمع آموزش عالی امین,025-32133306 ( داخلی 176-306 ),http://dlib.miu.ac.ir,https://lib.ir/fa/library/798/کتابخانه-جامع-امین-جامعه-المصطفی-العالمیه/search/
كتابخانه جامع جامعة المصطفی (ص) العالمية,قم,قم,قم مقدسه - بلوار امین (ص) - سه راه سالاریه - مجتمع امین - جامعة العلوم وابسته به جامعه المصطفى (ص).,32133176-025 ( داخلی  ),http://dlib.miu.ac.ir,https://lib.ir/fa/library/195/كتابخانه-جامع-جامعة-المصطفی-ص-العالمية/search/
كتابخانه جامع علوم و معارف قرآن كریم (مؤسسه معارف اسلامی امام رضا (ع)),قم,قم,قم - بلوار شهید محمد منتظری - كوچه شماره 8 - پلاك 12 .,377422010-37740559-025 ( داخلی  ),http://maaref.ir,https://lib.ir/fa/library/455/كتابخانه-جامع-علوم-و-معارف-قرآن-كریم-مؤسسه-معارف-اسلامی-امام-رضا-ع/search/
كتابخانه جامعة المصطفی (ص) العالمیه، واحد مشهد مقدس,خراسان رضوی,مشهد,مشهد مقدس - خیابان امام خمینی (ره)- کوجه شماره 14 - جامعه المصطفی العالمیه.,32233228-051 ( داخلی  ),http://miu.ac.ir,https://lib.ir/fa/library/453/كتابخانه-جامعة-المصطفی-ص-العالمیه-واحد-مشهد-مقدس/search/
کتابخانه جهان‌آرا (کتابخانه های سازمان فرهنگی هنری شهرداری تهران),تهران,تهران,تهران - خيابان سيد جمال الدين اسدآبادی - خيابان ۵۹ غربی جهان آرا.,88602358-021 ( داخلی  ),http://tlib.ir,https://lib.ir/fa/library/616/کتابخانه-جهان-آرا-کتابخانه-های-سازمان-فرهنگی-هنری-شهرداری-تهران/search/
كتابخانه جواد الائمه (ع) (آستان قدس رضوی ع),کرمان,رفسنجان,رفسنجان - ميدان خاتم‌الانبياء (ص) - مجتمع فرهنگي حضرت جوادالائمه (ع).,8-34331104-34356680 034-034 ( داخلی  ),http://aqlibrary.org,https://lib.ir/fa/library/177/كتابخانه-جواد-الائمه-ع--آستان-قدس-رضوی-ع/search/
كتابخانه جواد الائمه (ع) (آستان قدس رضوی ع),خراسان رضوی,مشهد,مشهد مقدس - بلوار وكيل آباد - بلوارهاشميه - هاشميه31 طبقه زير زمين مسجد جواد الائمه (ع) .,38823638-051 ( داخلی  ),http://aqlibrary.ir,https://lib.ir/fa/library/144/كتابخانه-جواد-الائمه-ع--آستان-قدس-رضوی-ع/search/
کتابخانه حزین لاهیجی(کتابخانه های سازمان فرهنگی هنری شهرداری تهران),تهران,تهران,تهرانسر- بلوار گلها- جنب كوچه۱4- خانه فرهنگ تهرانسر- طبقه دوم- کتابخانه حزین لاهیجی,۴۴۵۳۴۰۵۵-021 ( داخلی  ),http://tlib.ir,https://lib.ir/fa/library/655/کتابخانه-حزین-لاهیجی-کتابخانه-های-سازمان-فرهنگی-هنری-شهرداری-تهران/search/
كتابخانه حسين بن موسی الكاظم (ع) (آستان قدس رضوی ع),یزد,طبس,طبس - آستان مبارك حسين بن موسي الكاظم (ع).,3-32822200-056 ( داخلی  ),http://aqlibrary.org,https://lib.ir/fa/library/160/كتابخانه-حسين-بن-موسی-الكاظم-ع--آستان-قدس-رضوی-ع/search/
كتابخانه حسينيه امام رضا (ع) (آستان قدس رضوی ع),خراسان رضوی,مشهد,مشهد مقدس - میدان شهدا - خیابان شهید هاشمی نژاد 8 جدید  (کوچه ناظر) بن بست  ناظر 1,32218010-051 ( داخلی  ),http://aqlibrary.ir/libraries/lib15.aspx,https://lib.ir/fa/library/152/كتابخانه-حسينيه-امام-رضا-ع--آستان-قدس-رضوی-ع/search/
کتابخانه حسینیه هدایت(کتابخانه های سازمان فرهنگی هنری شهرداری تهران),تهران,تهران,تهران - خيابان ري- بالاتر از ميدان قيام- كوچه شهيد رقيب دوست- حسينيه هدايت.,33134154-021 ( داخلی  ),http://tlib.ir,https://lib.ir/fa/library/654/کتابخانه-حسینیه-هدایت-کتابخانه-های-سازمان-فرهنگی-هنری-شهرداری-تهران/search/
کتابخانه حضرت زهرا (س) - جامعه المصطفی (ص) العالمیه,قم,قم,پردیسان. بلوار امامت بعد از دانشگاه پیام نور. مجتمع آموزش عالی بنت الهدی،  کد پستی 64462-37166,02537183176-02537183172 ( داخلی  ),http://Dlib.miu.ac.ir,https://lib.ir/fa/library/789/کتابخانه-حضرت-زهرا-س--جامعه-المصطفی-ص-العالمیه/search/
كتابخانه حضرت معصومه (س) جامعه الزهراء (س),قم,قم,قم مقدسه - سه راه سالاریه - خیابان بوعلی سینا - حوزه علمیه خواهران - جامعة الزهراء (س).,32112198-025 ( داخلی  ),http://book.jz.ac.ir/,https://lib.ir/fa/library/379/كتابخانه-حضرت-معصومه-س-جامعه-الزهراء-س/search/
كتابخانه حوزه علمیه الزهراء (س) بروجن,چهار محال و بختیاری,بروجن,بروجن – بلوار ملت – خیابان قرنی- مدرسه الزهراء(س).,34226675-038 ( داخلی  ),http://,https://lib.ir/fa/library/343/كتابخانه-حوزه-علمیه-الزهراء-س-بروجن/search/
کتابخانه حوزه علمیه امام صادق علیه السلام,البرز,كرج,کرج - بلوار امامزاده حسن (ع) - مصلای نمازجمعه - خیابان شهید نصرتی - جنب فرهنگسرا - حوزه علمیه امام صادق (علیه السلام),32216516-026 ( داخلی  ),http://howzeh-karaj.ir,https://lib.ir/fa/library/631/کتابخانه-حوزه-علمیه-امام-صادق-علیه-السلام/search/
کتابخانه حوزه علمیه امام علی بن ابیطالب (ع) ملایر,همدان,ملایر,ملایر - خیابان ‌شهداء - خیابان ‌شهید رستگار مؤمنی - مسجد جامع.,32220948-081 ( داخلی  ),http://hozehm.blogfa.com,https://lib.ir/fa/library/511/کتابخانه-حوزه-علمیه-امام-علی-بن-ابیطالب-ع-ملایر/search/
کتابخانه حوزه علمیه خواهران الزهراء (س) شبستر,آذربایجان شرقی,شبستر,شبستر- میدان معلم- ضلع جنوبی پارك آزادگان-اداره فرهنگ و ارشاد اسلامی-طبقه فوقانی,04142429555 ( داخلی  ),http://,https://lib.ir/fa/library/684/کتابخانه-حوزه-علمیه-خواهران-الزهراء-س-شبستر/search/
کتابخانه حوزه علمیه خواهران الزهراء (س) فامنین,همدان,فامنین,فامنین- خیابان امام خمینی- خیابان مطهری- بن بست شهید جلیلی,08136823911 ( داخلی  ),http://,https://lib.ir/fa/library/686/کتابخانه-حوزه-علمیه-خواهران-الزهراء-س-فامنین/search/
کتابخانه حوزه علمیه خواهران حضرت فاطمه (س) خسروشاه,آذربایجان شرقی,خسروشاه,خسروشاه- خیابان شهید رجایی- نرسیده به كارخانه دامنه سهند,04132444503 ( داخلی  ),http://,https://lib.ir/fa/library/683/کتابخانه-حوزه-علمیه-خواهران-حضرت-فاطمه-س-خسروشاه/search/
کتابخانه حوزه علمیه خواهران فاطمة المعصومه (س) دلیجان,مرکزی,دلیجان,دلیجان- شهرك امام رضا (ع)- آخر بلوار محمدی- جنب پارك الغدیر,08644233400 ( داخلی  ),http://,https://lib.ir/fa/library/680/کتابخانه-حوزه-علمیه-خواهران-فاطمة-المعصومه-س-دلیجان/search/
کتابخانه حوزه علمیه خواهران کوثر (س) آباده,فارس,آباده,آباده- بلوار فرهنگ- شهرك سپاه- خیابان انصار,07144332426 ( داخلی  ),http://,https://lib.ir/fa/library/682/کتابخانه-حوزه-علمیه-خواهران-کوثر-س-آباده/search/
کتابخانه حوزه علمیه فاطمة الزهرا (س) ورزنه,اصفهان,ورزنه,ورزنه- بلوار شهید بهشتی- چهارراه آیت الله فاضل(ره)- جنب مسجد حاج عزیز الله,03146485390 ( داخلی  ),http://,https://lib.ir/fa/library/675/کتابخانه-حوزه-علمیه-فاطمة-الزهرا-س-ورزنه/search/
کتابخانه حوزه علمیه فیضیه مازندران,مازندران,بابل,بابل _ میدان شهید بزاز ـ کیلومتر سه جاده کیاکلا ـ روستای سلطان محمد طاهر ـ حوزه علمیه فیضیه مازندران.,32072647-011 ( داخلی  ),http://faiz432.ir,https://lib.ir/fa/library/506/کتابخانه-حوزه-علمیه-فیضیه-مازندران/search/
کتابخانه حکیمیه(کتابخانه های سازمان فرهنگی هنری شهرداری تهران),تهران,تهران,تهران - تهرانپارس- شهرك حكيميه- فاز یک- بلوار نور- بوستان نور.,77305428-021 ( داخلی  ),http://tlib.ir,https://lib.ir/fa/library/653/کتابخانه-حکیمیه-کتابخانه-های-سازمان-فرهنگی-هنری-شهرداری-تهران/search/
کتابخانه خاوران(کتابخانه های سازمان فرهنگی هنری شهرداری تهران),تهران,تهران,"تهران- خيابان خاوران-  نرسيده به هاشم آباد- فرهنگسراي
خاوران",33717285-021 ( داخلی  ),http://tlib.ir,https://lib.ir/fa/library/652/کتابخانه-خاوران-کتابخانه-های-سازمان-فرهنگی-هنری-شهرداری-تهران/search/
کتابخانه 15 خرداد (کتابخانه های سازمان فرهنگی هنری شهرداری تهران),تهران,تهران,تهران - شاد آباد - ميدان الغدير - ميدان جانبازان - مجموعه مختار سليماني.,66784614-021 ( داخلی  ),http://tlib.ir,https://lib.ir/fa/library/580/کتابخانه-15-خرداد-کتابخانه-های-سازمان-فرهنگی-هنری-شهرداری-تهران/search/
کتابخانه خواجوی کرمانی(کتابخانه های سازمان فرهنگی هنری شهرداری تهران),تهران,تهران,تهران - خيابان شوش- ميدان شهيد هرندي- بوستان خواجوي كرماني- مجموعه فرهنگي خواجوي‌كرماني.,55890778-021 ( داخلی  ),http://tlib.ir,https://lib.ir/fa/library/651/کتابخانه-خواجوی-کرمانی-کتابخانه-های-سازمان-فرهنگی-هنری-شهرداری-تهران/search/
كتابخانه دانشگاه آزاد اسلامی واحد قم,قم,قم,قم پردیسان – بلوار دانشگاه -دانشگاه آزاد اسلامی واحد قم,37780014-025 ( داخلی  ),http://azad-qom.ac.ir,https://lib.ir/fa/library/200/كتابخانه-دانشگاه-آزاد-اسلامی-واحد-قم/search/
كتابخانه دانشگاه باقر العلوم (ع),قم,قم,قم مقدسه - شهرك پردیسان - انتهای بلوار دانشگاه- دانشگاه باقر العلوم علیه السلام.,32136640-025 ( داخلی  ),http://bou.ac.ir,https://lib.ir/fa/library/125/كتابخانه-دانشگاه-باقر-العلوم-ع/search/
کتابخانه دانشگاه بین المللی مذاهب اسلامی,تهران,تهران,خ انقلاب اسلامی – خ ابوریحان – خ روانمهر – پلاک 3,66465252 ( داخلی 511-512 ),http://www.mazaheb.ac.ir,https://lib.ir/fa/library/512/کتابخانه-دانشگاه-بین-المللی-مذاهب-اسلامی/search/
كتابخانه دانشگاه پيام نور اصفهان,اصفهان,اصفهان,اصفهان - خيابان كهندژ - دانشگاه پيام نور.,5-37380003-031 ( داخلی  ),http://isf-pnu.ac.ir,https://lib.ir/fa/library/260/كتابخانه-دانشگاه-پيام-نور-اصفهان/search/
كتابخانه دانشگاه صنعتی اروميه,آذربایجان غربی,اروميه,ارومیه– كیلومتر جاده بند- دانشگاه صنعتی ارومیه.,31980284-044 ( داخلی  ),http://uut.ac.ir,https://lib.ir/fa/library/268/كتابخانه-دانشگاه-صنعتی-اروميه/search/
کتابخانه دانشگاه علوم اسلامی رضوى (ع),خراسان رضوی,مشهد,مشهد مقدس - ضلع شرقی دور برگردان طبرسى - ساختمان دانشگاه علوم اسلامی رضوى.,32218990-051 ( داخلی 359 ),http://razavi.ac.ir/libraryunit.aspx,https://lib.ir/fa/library/106/کتابخانه-دانشگاه-علوم-اسلامی-رضوى-ع/search/
كتابخانه دانشگاه علوم پزشكی بابل,مازندران,بابل,بابل - خیابان گنج افروز - دانشگاه علوم پزشكی - كتابخانه مركزی.,32224152-011 ( داخلی  ),http://mvbabol.ac.ir,https://lib.ir/fa/library/189/كتابخانه-دانشگاه-علوم-پزشكی-بابل/search/
كتابخانه دانشگاه علوم پزشكی جندی شاپور,خوزستان,اهواز,اهواز - شهر دانشگاهي -  دانشگاه علوم پزشكی جندی شاپور - ساختمان كتابخانه مركزی – طبقه اول.,33330250-061 ( داخلی  ),http://centrallib.ajums.ac.ir,https://lib.ir/fa/library/280/كتابخانه-دانشگاه-علوم-پزشكی-جندی-شاپور/search/
كتابخانه دانشگاه فرهنگیان پردیس حضرت معصومه (س) . واحد خواهران قم,قم,قم,قم مقدسه - بلوار شهید كریمی - شهرك امام خمینی (ره) – روبه روی بوستان بنفشه.,32703527-025 ( داخلی  ),http://Mttu.net,https://lib.ir/fa/library/187/كتابخانه-دانشگاه-فرهنگیان-پردیس-حضرت-معصومه-س--واحد-خواهران-قم/search/
كتابخانه دانشگاه فرهنگیان پردیس شهید بهشتی,خراسان رضوی,مشهد,مشهد مقدس - بلوار شهید كلانتری – حد فاصل میدان جمهوری اسلامی و میدان آزادی - جنب دانشگاه فردوسی مشهد – دانشگاه فرهنگیان پردیس شهید بهشتی.,38783094-051 ( داخلی  ),http://tbm.ir,https://lib.ir/fa/library/234/كتابخانه-دانشگاه-فرهنگیان-پردیس-شهید-بهشتی/search/
كتابخانه دانشگاه فرهنگیان پردیس علامه طباطبایی,لرستان,خرم آباد,خرم آباد - خیابان انقلاب اسلامی - انتهای خیابان جلال آل احمد - دانشگاه فرهنگیان.,33239578-066 ( داخلی  ),http://dfl-ac.ir,https://lib.ir/fa/library/494/كتابخانه-دانشگاه-فرهنگیان-پردیس-علامه-طباطبایی/search/
کتابخانه دانشگاه فرهنگیان فردوس (مرکز آموزش عالی بنت الهدی صدر),خراسان جنوبی,فردوس,فردوس - خیابان امام خمینی - مرکز آموزش عالی بنت الهدی صدر.,05632727156 ( داخلی  ),http://ferdows.cfu.ac.ir,https://lib.ir/fa/library/552/کتابخانه-دانشگاه-فرهنگیان-فردوس-مرکز-آموزش-عالی-بنت-الهدی-صدر/search/
کتابخانه دانشگاه قرآن و حديث (پردیس تهران),تهران,شهر رى,تهران ـ شهر ری ـ ضلع جنوبی حرم مطهر حضرت عبدالعظیم حسنی (ع) ـ دانشگاه قرآن و حدیث پردیس تهران,55952526-55952525-55952524-021 ( داخلی  ),http://qhu.ac.ir,https://lib.ir/fa/library/102/کتابخانه-دانشگاه-قرآن-و-حديث-پردیس-تهران/search/
كتابخانه دانشگاه مفيد,قم,قم,قم مقدسه - بلوار شهید صدوقی - ميدان مفيد.,32130241-025 ( داخلی  ),http://mofidu.ac.ir,https://lib.ir/fa/library/182/كتابخانه-دانشگاه-مفيد/search/
کتابخانه دانشکدگان فارابی دانشگاه تهران,قم,قم,قم مقدسه - ابتدای جاده قدیم قم-تهران، بعد از ترمینال، دانشکدگان فارابی دانشگاه تهران- کتابخانه,36166323-025 ( داخلی  ),http://farabi.ut.ac.ir,https://lib.ir/fa/library/110/کتابخانه-دانشکدگان-فارابی-دانشگاه-تهران/search/
كتابخانه دانشكده ادبيات دانشگاه تهران,تهران,تهران,تهران - خيابان انقلاب اسلامى - دانشگاه تهران.,61112595-021 ( داخلی  ),http://literature.ut.ac.ir/library,https://lib.ir/fa/library/204/كتابخانه-دانشكده-ادبيات-دانشگاه-تهران/search/
كتابخانه دانشكده ادبیات و علوم انسانی دانشگاه كاشان,اصفهان,كاشان,كاشان - بلوار قطب راوندی.,55912800-55912803-031 ( داخلی  ),http://lib.kashanu.ac.ir,https://lib.ir/fa/library/197/كتابخانه-دانشكده-ادبیات-و-علوم-انسانی-دانشگاه-كاشان/search/
کتابخانه دانشکده اقتصاد دانشگاه تهران,تهران,تهران,تهران - خیابان کارگر شمالی-مقابل بیمارستان شریعتی-دانشکده اقتصاد دانشگاه تهران.,88634001-021 ( داخلی  ),http://economics.ut.ac.ir,https://lib.ir/fa/library/543/کتابخانه-دانشکده-اقتصاد-دانشگاه-تهران/search/
کتابخانه دانشکده الهیات و معارف اسلامی دانشگاه تهران,تهران,تهران,تهران - خیابان شهید مطهری - نبش خیابان شهید مفتح - دانشکده الهیات و معارف اسلامی پلاک 47.,88742477 ( داخلی  ),http://ftis.ut.ac.ir,https://lib.ir/fa/library/544/کتابخانه-دانشکده-الهیات-و-معارف-اسلامی-دانشگاه-تهران/search/
کتابخانه دانشکده تحصیلات تکمیلی محیط زیست دانشگاه تهران,تهران,تهران,تهران- خیابان انقلاب- خیابان قدس، دانشکده تحصیلات تکمیلی محیط زیست.,61113170-61113169 ( داخلی  ),http://env.ut.ac.ir/library,https://lib.ir/fa/library/531/کتابخانه-دانشکده-تحصیلات-تکمیلی-محیط-زیست-دانشگاه-تهران/search/
کتابخانه دانشکده تربیت بدنی و علوم ورزشی دانشگاه تهران,تهران,تهران,تهران - ميدان انقلاب اسلامی - خيابان كارگر شمالي.,88351730-37  ( داخلی  ),http://sport.ut.ac.ir/officedeptsread.asp?officedeptsID=11,https://lib.ir/fa/library/519/کتابخانه-دانشکده-تربیت-بدنی-و-علوم-ورزشی-دانشگاه-تهران/search/
کتابخانه دانشکده جغرافیای دانشگاه تهران,تهران,تهران,تهران - میدان انقلاب اسلامی - خیابان قدس - کوچه آذین - داشکده جغرافیای دانشگاه تهران - ساختمات شماره 2 - طبقه همکف.,61113367-021 ( داخلی  ),http://geography.ut.ac.ir/fa/12/8,https://lib.ir/fa/library/520/کتابخانه-دانشکده-جغرافیای-دانشگاه-تهران/search/
كتابخانه دانشكده حقوق و علوم سیاسی دانشگاه تهران,تهران,تهران,تهران - خیابان 16 آذر - درب غربی دانشگاه تهران - دانشكده حقوق و علوم سیاسی – طبقه همكف.,66494989-021 ( داخلی  ),http://lawpol.ut.ac.ir,https://lib.ir/fa/library/412/كتابخانه-دانشكده-حقوق-و-علوم-سیاسی-دانشگاه-تهران/search/
کتابخانه دانشکده دامپزشکی دانشگاه تهران,تهران,تهران,تهران-خيابان آزادي-نبش خيابان دکتر قريب-دانشکده دامپزشکي دانشگاه تهران,61117000 ( داخلی  ),http://vetmed.ut.ac.ir,https://lib.ir/fa/library/522/کتابخانه-دانشکده-دامپزشکی-دانشگاه-تهران/search/
کتابخانه دانشکده روانشناسی و علوم تربیتی دانشگاه تهران,تهران,تهران,تهران- بزرگراه شهید دکتر چمران- خیابان جلال آل احمد- رو به روی کوی نصر - خیابان دکتر کاردان.,70-5 و 88240161-88250062 ( داخلی  ),http://psyedu.ut.ac.ir,https://lib.ir/fa/library/524/کتابخانه-دانشکده-روانشناسی-و-علوم-تربیتی-دانشگاه-تهران/search/
كتابخانه دانشکده زبانها و ادبیات خارجی دانشگاه تهران,تهران,تهران,تهران - خیابان کارگر شمالی - دانشگاه تهران.,88025001-61119200 ( داخلی  ),http://ffll.ut.ac.ir/Moavenat_Library_User.asp,https://lib.ir/fa/library/438/كتابخانه-دانشکده-زبانها-و-ادبیات-خارجی-دانشگاه-تهران/search/
کتابخانه دانشکده علوم اجتماعی دانشگاه تهران,تهران,تهران,تهران- بزرگراه جلال آل احمد‏- جنب بيمارستان شريعتي- دانشکده علوم اجتماعی دانشگاه تهران -طبقه همکف.,88000146-61117931 ( داخلی  ),http://social.ut.ac.ir/departments/dep/Library,https://lib.ir/fa/library/526/کتابخانه-دانشکده-علوم-اجتماعی-دانشگاه-تهران/search/
کتابخانه دانشکده علوم قرآنی اصفهان,اصفهان,اصفهان,دولت آباد برخوار- بلوار آیت الله طالقانی- خیابان حسام دولت آبادی,4-45850771-031 ( داخلی 117 ),https://dlib.quran.ac.ir/,https://lib.ir/fa/library/630/کتابخانه-دانشکده-علوم-قرآنی-اصفهان/search/
کتابخانه دانشکده مدیریت دانشگاه تهران,تهران,تهران,تهران - کارگر شمالی - جنب پل نصر (گیشا) - دانشکده مدیریت دانشگاه تهران.,88003575-88000245 ( داخلی  ),http://management.ut.ac.ir/?part=menu&inc=menu&id=333,https://lib.ir/fa/library/532/کتابخانه-دانشکده-مدیریت-دانشگاه-تهران/search/
کتابخانه دانشکده مطالعات جهان دانشگاه تهران,تهران,تهران,تهران – خیابان کارگر شمالی – پردیس شمالی دانشگاه تهران – ورودی غربی (دانشکده تربیت بدنی) – دانشکده مطالعات جهان.,61119290 ( داخلی  ),http://fws.ut.ac.ir/rtl/Default4.aspx?LanId=1,https://lib.ir/fa/library/535/کتابخانه-دانشکده-مطالعات-جهان-دانشگاه-تهران/search/
کتابخانه دانشکده کارآفرینی دانشگاه تهران,تهران,تهران,تهران- خیابان کارگر شمالی- خیابان شهید فرشی مقدم (شانزدهم).,61119237 ( داخلی  ),http://ent.ut.ac.ir/index.aspx,https://lib.ir/fa/library/523/کتابخانه-دانشکده-کارآفرینی-دانشگاه-تهران/search/
کتابخانه داوودیه(کتابخانه های سازمان فرهنگی هنری شهرداری تهران),تهران,تهران,تهران- خیابان دکتر شریعتی- بلوار میرداماد- خیابان امیرسهیل تبریزیان- نبش کوچه بهبهانی- پلاک ۱۱.,22906363-021 ( داخلی  ),http://tlib.ir,https://lib.ir/fa/library/650/کتابخانه-داوودیه-کتابخانه-های-سازمان-فرهنگی-هنری-شهرداری-تهران/search/
کتابخانه دردار (کتابخانه های سازمان فرهنگی هنری شهرداری تهران),تهران,تهران,تهران - خيابان هفده شهريور - بين ايستگاه دروازه دولاب و آهنگ - خيابان شهيد دولو - كوچه سرخوش - كوچه اعتماد - خانه فرهگ دردار.,33551538-021 ( داخلی  ),http://tlib.ir,https://lib.ir/fa/library/611/کتابخانه-دردار-کتابخانه-های-سازمان-فرهنگی-هنری-شهرداری-تهران/search/
کتابخانه دفتر تبليغات اسلامی اصفهان,اصفهان,اصفهان,اصفهان - ميدان امام خمینی (ره) - خيابان حافظ - چهارراه كرمانى - دفتر تبليغات اسلامی اصفهان.,4-32208001-031 ( داخلی  ),http://morsalat.com,https://lib.ir/fa/library/121/کتابخانه-دفتر-تبليغات-اسلامی-اصفهان/search/
کتابخانه دکتر حسابی(کتابخانه های سازمان فرهنگی هنری شهرداری تهران),تهران,تهران,تهران- خيابان ابوذر- خيابان شهيدعلمي- كوچة دكترحسابي.,55717978-021 ( داخلی  ),http://tlib.ir,https://lib.ir/fa/library/649/کتابخانه-دکتر-حسابی-کتابخانه-های-سازمان-فرهنگی-هنری-شهرداری-تهران/search/
کتابخانه دکتر شهیدی(کتابخانه های سازمان فرهنگی هنری شهرداری تهران),تهران,تهران,تهارن- نارمك- چهارراه تلفنخانه- خيابان۴۶ متري غربي- خیابان شهید بختیاری (سامان) - ميدان ۵۸ - كوچه يكم شرقي.,77913098-021 ( داخلی  ),http://tlib.ir,https://lib.ir/fa/library/648/کتابخانه-دکتر-شهیدی-کتابخانه-های-سازمان-فرهنگی-هنری-شهرداری-تهران/search/
کتابخانه دکتر عظیمی(کتابخانه های سازمان فرهنگی هنری شهرداری تهران),تهران,تهران,تهران - خيابان دکتر شريعتي- نرسيده به ميدان قدس- كوچه مهنا۱- پلاک ۴.,22714940-021 ( داخلی  ),http://tlib.ir,https://lib.ir/fa/library/647/کتابخانه-دکتر-عظیمی-کتابخانه-های-سازمان-فرهنگی-هنری-شهرداری-تهران/search/
کتابخانه دکتر معتمدنژاد (کتابخانه های سازمان فرهنگی هنری شهرداری تهران),تهران,تهران,تهران - پاسداران - خیابان گل نبی - خیابان ناطق نوری - میدان قبا - فرهنگسرای رسانه (پایداری).,22888680-021 ( داخلی  ),http://tlib.ir,https://lib.ir/fa/library/617/کتابخانه-دکتر-معتمدنژاد-کتابخانه-های-سازمان-فرهنگی-هنری-شهرداری-تهران/search/
کتابخانه دیجیتالی (دفتر تبلیغات اسلامی حوزه علمیه قم),قم,قم,قم مقدسه - میدان شهدا – ابتدای خیابان معلم – جنب مرکز همایشهای دفتر تبلیغات - مرکز اطلاعات و مدارک اسلامی.,02531151330 ( داخلی  ),http://dl.islamicdoc.org,https://lib.ir/fa/library/555/کتابخانه-دیجیتالی-دفتر-تبلیغات-اسلامی-حوزه-علمیه-قم/search/
کتابخانه دیجیتالی نور,قم,قم,,٠٢۵-٣٢٩٣۶٢٧١  ( داخلی  ),http://noorlib.ir,https://lib.ir/fa/library/758/کتابخانه-دیجیتالی-نور/search/
کتابخانه رازی(کتابخانه های سازمان فرهنگی هنری شهرداری تهران),تهران,تهران,تهران- خيابان كارگر جنوبي-  ميدان رازي-  بوستان رازي- فرهنگسرای رازی.,55423352-021 ( داخلی  ),http://tlib.ir,https://lib.ir/fa/library/646/کتابخانه-رازی-کتابخانه-های-سازمان-فرهنگی-هنری-شهرداری-تهران/search/
کتابخانه زبان روسی آستان قدس رضوی (ع),خراسان رضوی,مشهد,,( داخلی  ),http://,https://lib.ir/fa/library/517/کتابخانه-زبان-روسی-آستان-قدس-رضوی-ع/search/
کتابخانه زبانهای خارجی و منابع اسلامی,قم,قم,قم مقدسه - خیابان شهدا - کوچه 39 - پلاک 35 .,37839111 ( داخلی  ),http://libflis.com,https://lib.ir/fa/library/559/کتابخانه-زبانهای-خارجی-و-منابع-اسلامی/search/
کتابخانه سرو (کتابخانه های سازمان فرهنگی هنری شهرداری تهران),تهران,تهران,تهران - خيابان وليعصر (عج) - ضلع شمالي پارك ساعي، - كوچه ساعي۲ - فرهنگسراي سرو.,88786277-021 ( داخلی  ),http://tlib.ir,https://lib.ir/fa/library/618/کتابخانه-سرو-کتابخانه-های-سازمان-فرهنگی-هنری-شهرداری-تهران/search/
کتابخانه سعادت(کتابخانه های سازمان فرهنگی هنری شهرداری تهران),تهران,تهران,تهران- سعادت آباد- بالاتر از میدان کاج- خیابان دوم- عبقری-  بوستان شقایق.,22116760-021 ( داخلی  ),http://tlib.ir,https://lib.ir/fa/library/645/کتابخانه-سعادت-کتابخانه-های-سازمان-فرهنگی-هنری-شهرداری-تهران/search/
کتابخانه سلام (کتابخانه های سازمان فرهنگی هنری شهرداری تهران),تهران,تهران,تهران - نارمك - خيابان گلبرگ شرقي(جانبازان) - بعداز چهارراه دردشت - كوچه شهيد اكبري- خانه فرهنگ سلام.,77916080-021 ( داخلی  ),http://tlib.ir,https://lib.ir/fa/library/574/کتابخانه-سلام-کتابخانه-های-سازمان-فرهنگی-هنری-شهرداری-تهران/search/
کتابخانه سیار و تلفنی آستان قدس رضوی (ع),خراسان رضوی,مشهد,بست حرم مطهر رضوی- طبرسی- ساختمان بنیاد پژوهش ها – طبقه منفی 1 اتاق 103,05132236164 ( داخلی 3444 ),http://sayarlib.aqlibraries.ir,https://lib.ir/fa/library/137/کتابخانه-سیار-و-تلفنی-آستان-قدس-رضوی-ع/search/
کتابخانه سیدالشهداء علیه السلام (کتابخانه های سازمان فرهنگی هنری شهرداری تهران),تهران,تهران,تهران - شهرك اساتيد دانشگاه صنعتي شريف.,44990772-021 ( داخلی  ),http://tlib.ir,https://lib.ir/fa/library/587/کتابخانه-سیدالشهداء-علیه-السلام-کتابخانه-های-سازمان-فرهنگی-هنری-شهرداری-تهران/search/
کتابخانه شفق(کتابخانه های سازمان فرهنگی هنری شهرداری تهران),تهران,تهران,تهران- خیابان سید جمال الدین اسد آبادی- خیابان ۲۱- بوستان شفق.,88706869-021 ( داخلی  ),http://tlib.ir,https://lib.ir/fa/library/644/کتابخانه-شفق-کتابخانه-های-سازمان-فرهنگی-هنری-شهرداری-تهران/search/
کتابخانه شماره دو کانون اسلامی انصار,تهران,تهران,تهران - خیابان  کارگر شمالی -  خیابان گردآفرید- پلاک 2,1-66944370-021 ( داخلی  ),http://kanoon-ansar.ir,https://lib.ir/fa/library/776/کتابخانه-شماره-دو-کانون-اسلامی-انصار/search/
کتابخانه شهدای حصارک (کتابخانه های سازمان فرهنگی هنری شهرداری تهران),تهران,تهران,تهران - جنت آباد شمالی - بلوار سیمون بولیوار - نبش ایرانشهر شمالی - کتابخانه شهدای حصارک.,44832747-021 ( داخلی  ),http://tlib.ir,https://lib.ir/fa/library/619/کتابخانه-شهدای-حصارک-کتابخانه-های-سازمان-فرهنگی-هنری-شهرداری-تهران/search/
کتابخانه شهر (کتابخانه های سازمان فرهنگی هنری شهرداری تهران),تهران,تهران,تهران - انتهاي بزرگراه رسالت غرب - سه راه دهكده المپيك - جنب دبيرستان سپيده كاشاني - خيابان ساحل - فرهنگسراي تهران.,44137060-021 ( داخلی  ),http://tlib.ir,https://lib.ir/fa/library/588/کتابخانه-شهر-کتابخانه-های-سازمان-فرهنگی-هنری-شهرداری-تهران/search/
کتابخانه شهید بخارایی (کتابخانه های سازمان فرهنگی هنری شهرداری تهران),تهران,تهران,تهران - فلكه چهارم خزانه - نبش خيابان جمشيد سيد - مجتمع فرهنگي هنري فجر.,55311575-021 ( داخلی  ),http://tlib.ir,https://lib.ir/fa/library/579/کتابخانه-شهید-بخارایی-کتابخانه-های-سازمان-فرهنگی-هنری-شهرداری-تهران/search/
کتابخانه شهيد فهميده (کتابخانه های سازمان فرهنگی هنری شهرداری تهران),تهران,تهران,تهران - ميدان بهمن - خيابان دشت آزادگان - فرهنگسراي بهمن.,55058437-021 ( داخلی  ),http://tlib.ir,https://lib.ir/fa/library/575/کتابخانه-شهيد-فهميده-کتابخانه-های-سازمان-فرهنگی-هنری-شهرداری-تهران/search/
کتابخانه شهید قدیریان (کتابخانه های سازمان فرهنگی هنری شهرداری تهران),تهران,تهران,تهران - خيابان كارگر جنوبي - ضلع شمال شرقي ميدان حر - خانه فرهنگ حر.,66409523-021 ( داخلی  ),http://tlib.ir,https://lib.ir/fa/library/582/کتابخانه-شهید-قدیریان-کتابخانه-های-سازمان-فرهنگی-هنری-شهرداری-تهران/search/
کتابخانه شهید مفتح کوی دانشگاه تهران,تهران,تهران,تهران- خیابان کارگر شمالی- روبروی خیابان پانزدهم - کوی دانشگاه تهران.,82095500 ( داخلی  ),http://,https://lib.ir/fa/library/528/کتابخانه-شهید-مفتح-کوی-دانشگاه-تهران/search/
کتابخانه شهید کاشانی(کتابخانه های سازمان فرهنگی هنری شهرداری تهران),تهران,تهران,تهران- خیابان مصطفی خمینی- کوچه سجادی- بن بست شام بیاتی- پلاک ۳۰,33530686-021 ( داخلی  ),http://tlib.ir,https://lib.ir/fa/library/643/کتابخانه-شهید-کاشانی-کتابخانه-های-سازمان-فرهنگی-هنری-شهرداری-تهران/search/
کتابخانه شهیدان جعفری نژاد(کتابخانه های سازمان فرهنگی هنری شهرداری تهران),تهران,تهران,تهران- ميدان خراسان- خيابان خاوران- انتهاي خيابان هاشم‌آباد.,33687923-021 ( داخلی  ),http://tlib.ir,https://lib.ir/fa/library/642/کتابخانه-شهیدان-جعفری-نژاد-کتابخانه-های-سازمان-فرهنگی-هنری-شهرداری-تهران/search/
کتابخانه شیخ اشراق (کتابخانه های سازمان فرهنگی هنری شهرداری تهران),تهران,تهران,تهران - فلكه دوم تهران پارس - انتهاي خيابان جشنواره - فرهنگسراي اشراق.,77359222-021 ( داخلی  ),http://tlib.ir,https://lib.ir/fa/library/620/کتابخانه-شیخ-اشراق-کتابخانه-های-سازمان-فرهنگی-هنری-شهرداری-تهران/search/
کتابخانه شیخ شهاب الدین اهری (ره),آذربایجان شرقی,اهر,اهر - خيابان حزب الله - كوچه كتابخانه.,44222496-041 ( داخلی  ),http://tabrizpl.ir,https://lib.ir/fa/library/105/کتابخانه-شیخ-شهاب-الدین-اهری-ره/search/
کتابخانه شیخ صدوق(کتابخانه های سازمان فرهنگی هنری شهرداری تهران),تهران,تهران,شهرري-  فكه اول دولت آباد- روبروي ميدان بروجردي- جنب پارك مهران،-كتابخانه شيخ صدوق (ره),33754041-021 ( داخلی  ),http://tlib.ir,https://lib.ir/fa/library/641/کتابخانه-شیخ-صدوق-کتابخانه-های-سازمان-فرهنگی-هنری-شهرداری-تهران/search/
کتابخانه شیخ فضل الله (کتابخانه های سازمان فرهنگی هنری شهرداری تهران),تهران,تهران,تهران - بلوار آيت ا... كاشاني- بعد از تقاطع شهید ستاری- جنب شهر كتاب نور ( روبروي بانك مسكن) - مجتمع فرهنگی هنری نور- طبقه همکف .,44066751-021 ( داخلی  ),http://tlib.ir,https://lib.ir/fa/library/666/کتابخانه-شیخ-فضل-الله-کتابخانه-های-سازمان-فرهنگی-هنری-شهرداری-تهران/search/
کتابخانه  شیخ مفید (کتابخانه های سازمان فرهنگی هنری شهرداری تهران),تهران,تهران,تهران - شهرک گلستان - انتهای بلوار کاج - نبش سروستان ۱۱- خانه فرهنگ امیر کبیر.,447228017-021 ( داخلی  ),http://tlib.ir,https://lib.ir/fa/library/590/کتابخانه-شیخ-مفید-کتابخانه-های-سازمان-فرهنگی-هنری-شهرداری-تهران/search/
کتابخانه شیخ هادی نجم آبادی (کتابخانه های سازمان فرهنگی هنری شهرداری تهران),تهران,تهران,تهران - بلوار آيت الله كاشاني - ميدان شهرزيبا - خيابان شهران - بعد از زيرگذر همت - فرهنگسراي معرفت.,44304858-021 ( داخلی  ),http://tlib.ir,https://lib.ir/fa/library/571/کتابخانه-شیخ-هادی-نجم-آبادی-کتابخانه-های-سازمان-فرهنگی-هنری-شهرداری-تهران/search/
کتابخانه شیخ کلینی (ره) (کتابخانه های سازمان فرهنگی هنری شهرداری تهران),تهران,تهران,تهران - خيابان فدائيان اسلام - خيابان ۴۵ متري شهرري (بلوار شهيدكريمي) - نرسيده به اداره گذرنامه - كتابخانه شيخ كليني.,33370700 و 701-021 ( داخلی 3375 ),http://tlib.ir,https://lib.ir/fa/library/576/کتابخانه-شیخ-کلینی-ره--کتابخانه-های-سازمان-فرهنگی-هنری-شهرداری-تهران/search/
كتابخانه عبد الله خفیف,فارس,شیراز,شیراز - انتهای خیابان آیت الله طالقانی - جنب پاركینگ.,32228083-071 ( داخلی  ),http://khafif.parsiblog,https://lib.ir/fa/library/436/كتابخانه-عبد-الله-خفیف/search/
کتابخانه عطار(کتابخانه های سازمان فرهنگی هنری شهرداری تهران),تهران,تهران,تهران - ابتداي خوش جنوبي- خيابان شهيد اميرقلي- نرسيده به تقاطع ناهيد- فرهنگسرای عطار نيشابوري.,55718143-021 ( داخلی  ),http://tlib.ir,https://lib.ir/fa/library/640/کتابخانه-عطار-کتابخانه-های-سازمان-فرهنگی-هنری-شهرداری-تهران/search/
کتابخانه علامه امینی (کتابخانه های سازمان فرهنگی هنری شهرداری تهران),تهران,تهران,تهران - خيابان افريقا - بين ميرداماد و ظفر - پارك صبا - كتابخانه علامه اميني (ره).,88787386-021 ( داخلی  ),http://tlib.ir,https://lib.ir/fa/library/621/کتابخانه-علامه-امینی-کتابخانه-های-سازمان-فرهنگی-هنری-شهرداری-تهران/search/
کتابخانه علامه جعفری (ره) (کتابخانه های سازمان فرهنگی هنری شهرداری تهران),تهران,تهران,تهران - بزرگراه آيت ا... كاشاني - خيابان حسن آباد جنوبي - كوچه ۴ - پلاك ۲۳.,44091043-021 ( داخلی  ),http://tlib.ir,https://lib.ir/fa/library/567/کتابخانه-علامه-جعفری-ره--کتابخانه-های-سازمان-فرهنگی-هنری-شهرداری-تهران/search/
کتابخانه علامه شرف الدین,قم,قم,قم، جمکران، ابتدای بلوار انتظار، مجتمع علمی دارالولایة، موسسه دارالإعلام لمدرسة اهل‌البیت,37255866-025 ( داخلی 105-106 ),https://lib.darolelam.ir,https://lib.ir/fa/library/598/کتابخانه-علامه-شرف-الدین/search/
كتابخانه علامه شوشتری (آستان قدس رضوی ع),خوزستان,شوشتر,شوشتر - خیابان طالقانی - کوی شاه زید - جنب منزل علامه شیخ شوشتری(ره),36223377-061 ( داخلی  ),https://library.razavi.ir/aqlibraries,https://lib.ir/fa/library/161/كتابخانه-علامه-شوشتری-آستان-قدس-رضوی-ع/search/
کتابخانه علامه طباطبايي (ره) (کتابخانه های سازمان فرهنگی هنری شهرداری تهران),تهران,تهران,تهران - خيابان آزادی - خيابان شهيدان - ميدان هاشمي - فرهنگسرای کار.,66029060-66046946   021-021 ( داخلی  ),http://tlib.ir,https://lib.ir/fa/library/566/کتابخانه-علامه-طباطبايي-ره--کتابخانه-های-سازمان-فرهنگی-هنری-شهرداری-تهران/search/
کتابخانه علامه طرشتی (کتابخانه های سازمان فرهنگی هنری شهرداری تهران),تهران,تهران,تهران - خيابان آزادی - روبروي استادمعين - بلوار شهید جواد اكبري - بوستان طرشتي - كتابخانه علامه طرشتي.,66021025-021 ( داخلی  ),http://tlib.ir,https://lib.ir/fa/library/622/کتابخانه-علامه-طرشتی-کتابخانه-های-سازمان-فرهنگی-هنری-شهرداری-تهران/search/
كتابخانه عمومی ابن مسكویه,اصفهان,اصفهان,اصفهان – خیابان چهارباغ خواجو - كتابخانه ابن مسكویه.,32125510-031 ( داخلی  ),http://isfahanpl.ir,https://lib.ir/fa/library/202/كتابخانه-عمومی-ابن-مسكویه/search/
كتابخانه عمومی ابوريحان بيرونى,فارس,شیراز,شیراز - خیابان كارگر - پشت درمانگاه بقیة الله.,37384738-071 ( داخلی  ),http://farspl.ir,https://lib.ir/fa/library/226/كتابخانه-عمومی-ابوريحان-بيرونى/search/
كتابخانه عمومی آخی جهان,آذربایجان شرقی,آذر شهر,آذرشهر- اخي جهان - خيابان دانش - خيابان ولي عصر (ع).,34533656-041 ( داخلی  ),http://tabrizpl.ir,https://lib.ir/fa/library/273/كتابخانه-عمومی-آخی-جهان/search/
كتابخانه عمومی ارشاد,اصفهان,اصفهان,اصفهان - خیابان زينبيه جنوبى - میدان قدس - پارك باقوشخانه - کتابخانه ارشاد.,34452015-031 ( داخلی  ),http://ershadlibrary.blogfa.com,https://lib.ir/fa/library/216/كتابخانه-عمومی-ارشاد/search/
كتابخانه عمومی اژیه,اصفهان,اصفهان,اصفهان - اژيه - خیابان جهادگران - روبروی بهداری اژیه.,36622749-031 ( داخلی  ),http://ketabejieh.blogfa.com,https://lib.ir/fa/library/242/كتابخانه-عمومی-اژیه/search/
كتابخانه عمومی استاد ذبیح الله صاحبكار,خراسان رضوی,تربت حیدریه,تربت حیدریه - دولت آباد زاوه _خيابان شهيد رجايي - جنب فرمانداري.,53724111-051 ( داخلی  ),http://mashadpl.ir,https://lib.ir/fa/library/419/كتابخانه-عمومی-استاد-ذبیح-الله-صاحبكار/search/
كتابخانه عمومی استاد شهید مطهری (ره),لرستان,خرم آباد,خرم آباد- خیابان باستان - مقابل زورخانه.,33301789-066 ( داخلی  ),http://lorestanpl.ir,https://lib.ir/fa/library/258/كتابخانه-عمومی-استاد-شهید-مطهری-ره/search/
كتابخانه عمومی اسفهلان,آذربایجان شرقی,اسفهلان,تبریز - روستاي اسفهلان - خيابان دكتر صادقي - كوي شهيد بي پناه.,32457800-041 ( داخلی  ),http://tabrizpl.ir,https://lib.ir/fa/library/313/كتابخانه-عمومی-اسفهلان/search/
كتابخانه عمومی اسكو,آذربایجان شرقی,اسكو,اسكو - فلكه امام خميني (ره).,33222027-041 ( داخلی  ),http://tabrizpl.ir,https://lib.ir/fa/library/291/كتابخانه-عمومی-اسكو/search/
كتابخانه عمومی اشكنان,فارس,اشكنان,لامرد - اشكنان - خیابان امام حسین (علیه السلام) - نبش خیابان فرهنگ.,52763200-071 ( داخلی  ),http://ashkananlib.persianblog.ir,https://lib.ir/fa/library/224/كتابخانه-عمومی-اشكنان/search/
كتابخانه عمومی الزهراء (س),قم,قم,قم مقدسه - بلوار شهید صدوقی - 20 متری امام حسین (ع) - خیابان دانیال نبی(ع) - میدان نور - كتابخانه مجتمع الزهراء(س).,32880744-025 ( داخلی  ),http://alzahralib.ir,https://lib.ir/fa/library/190/كتابخانه-عمومی-الزهراء-س/search/
كتابخانه عمومی الغدير,اصفهان,خميني شهر,خمینی شهر – میدان امام حسین (ع) - ابتدای خیابان شیخ صدوق (ره) - جنب شهرداری منطقه 2 .,33633053-031 ( داخلی  ),http://isfahanpl.ir,https://lib.ir/fa/library/206/كتابخانه-عمومی-الغدير/search/
كتابخانه عمومی الغدیر,گلستان,مزرعه كتول,علي آباد كتول – روستاي مزرعه كتول- خيابان اصلي – جنب داروخانه.,34572752-017 ( داخلی  ),http://golestanpl.ir,https://lib.ir/fa/library/395/كتابخانه-عمومی-الغدیر/search/
كتابخانه عمومی الغدیر تیران,اصفهان,تيران,شهر تيران - خيابان امام خميني (ره)- كوچه انديشه.,33222057-031 ( داخلی  ),http://isfahanpl.ir,https://lib.ir/fa/library/235/كتابخانه-عمومی-الغدیر-تیران/search/
کتابخانه عمومی امام امیرالمومنین علیه السلام,اصفهان,اصفهان,اصفهان - چهار راه شکر شکن,( داخلی  ),http://basatin.net,https://lib.ir/fa/library/774/کتابخانه-عمومی-امام-امیرالمومنین-علیه-السلام/search/
كتابخانه عمومی امام باقر (ع),گلستان,فاضل آباد,فاضل آباد- خيابان فرهنگ- خيابان رضوان- كوچه رضوان19 .,35343773-017 ( داخلی  ),http://golestanpl.ir,https://lib.ir/fa/library/341/كتابخانه-عمومی-امام-باقر-ع/search/
كتابخانه عمومی امام حسین (ع),قم,دستجرد,دستجرد - مقابل شهردارى.,35223994-025 ( داخلی  ),http://qompl.ir,https://lib.ir/fa/library/382/كتابخانه-عمومی-امام-حسین-ع/search/
كتابخانه عمومی امام خميني (ره),اصفهان,بهارستان,شهر جديد بهارستان - انتهاي بلوار بهشت - نرسيده به گلزار شهدا.,36800140-031 ( داخلی  ),http://isfahanpl.ir,https://lib.ir/fa/library/241/كتابخانه-عمومی-امام-خميني-ره/search/
كتابخانه عمومی امام خمینی (ره),خراسان رضوی,كاشمر,كاشمر - بلوار جمهوری اسلامی – مجتمع سرو.,55252220-051 ( داخلی  ),http://Mashadpl.ir,https://lib.ir/fa/library/405/كتابخانه-عمومی-امام-خمینی-ره/search/
كتابخانه عمومی امام خمینی (ره),خراسان رضوی,قوچان,قوچان - خيابان امام خميني (ره) – جنب باغ ملى.,47224008-051 ( داخلی  ),http://khomaynilib.blogfa.com,https://lib.ir/fa/library/424/كتابخانه-عمومی-امام-خمینی-ره/search/
كتابخانه عمومی امام خمینی (ره),خراسان رضوی,طرقبه,طرقبه – كوی بخشداری – دربند الستی – خیابان جانبازان – پلاك 118 – كتابخانه امام خمینی (ره),34222452-051 ( داخلی  ),http://mashadpl.ir,https://lib.ir/fa/library/427/كتابخانه-عمومی-امام-خمینی-ره/search/
كتابخانه عمومی امام رضا (ع),گلستان,علی آباد كتول,علی آباد كتول - خيابان امام رضا(ع) ،بانك سپه مركزى.,34222600-017 ( داخلی  ),http://emamreza-aliabad.blogfa.com,https://lib.ir/fa/library/396/كتابخانه-عمومی-امام-رضا-ع/search/
کتابخانه عمومی امام صادق علیه السلام,قم,قم,قم- خیابان 19 دی- شهرک فرهنگیان- فاز 2= میدان صادقیه- طبقه دوم مسجد امام صادق(ع),375041510-025 ( داخلی  ),http://qompl.ir,https://lib.ir/fa/library/760/کتابخانه-عمومی-امام-صادق-علیه-السلام/search/
كتابخانه عمومی امام علی (ع),قم,قم,قم مقدسه - انتهاي خیابان توحید(نيروگاه) - شيخ آباد - 16 متري وليعصر (عج) - پارك گلها.,38865353-025 ( داخلی  ),http://qompl.ir,https://lib.ir/fa/library/383/كتابخانه-عمومی-امام-علی-ع/search/
كتابخانه عمومی امام محمد باقر (ع),لرستان,اليگودرز,الیگودرز - خیابان امام خمبنی (ره)- خیابان طالقانی جنوبی - پارك شهر.,43320028-066 ( داخلی  ),http://lorestanpl.ir,https://lib.ir/fa/library/251/كتابخانه-عمومی-امام-محمد-باقر-ع/search/
كتابخانه عمومی - امانی خواهران پژوهشگاه علوم و معارف اسلامی (دفتر تبليغات اسلامی حوزه علمیه قم),قم,قم,قم مقدسه - میدان شهدا - كوچه مسجد سلماسی.,371160-025 ( داخلی 1254 ),http://Lib.isca.ac.ir,https://lib.ir/fa/library/116/كتابخانه-عمومی--امانی-خواهران-پژوهشگاه-علوم-و-معارف-اسلامی-دفتر-تبليغات-اسلامی-حوزه-علمیه-قم/search/
كتابخانه عمومی امير قلی امينى,اصفهان,اصفهان,اصفهان – خیابان كاشانی- كوچه دهقان - پلاك 3.,32332576-031 ( داخلی  ),http://isfahanpl.ir,https://lib.ir/fa/library/210/كتابخانه-عمومی-امير-قلی-امينى/search/
كتابخانه عمومی امیر كبیر,گلستان,كردكوی,كردكوی - خیابان شهید بهشتی - جنب فروشگاه فرهنگیان - روبروی بانك ملی.,34342550-0173 ( داخلی  ),http://amirkabirkordkuy.blogfa.com,https://lib.ir/fa/library/397/كتابخانه-عمومی-امیر-كبیر/search/
كتابخانه عمومی اميرخيزى,آذربایجان شرقی,تبریز,تبریز - خيابان مفتح - روبروي مخابرات شهيد قاضي طباطبايي - داخل پارك آزادگان.,32359128-041 ( داخلی  ),http://tabrizpl.ir,https://lib.ir/fa/library/250/كتابخانه-عمومی-اميرخيزى/search/
كتابخانه عمومی آيت الله حائری (فيضيه),قم,قم,قم - ميدان آستانه- مدرسه فيضيه - كتابخانه عمومي آيت الله حائرى (ره).,37741483-025 ( داخلی  ),http://haerilib.ir,https://lib.ir/fa/library/332/كتابخانه-عمومی-آيت-الله-حائری-فيضيه/search/
كتابخانه عمومی آيت الله خامنه اى,قم,قم,قم مقدسه - خيابان شهيد لواساني ( ساحلي ) - كتابخانه عمومي آيت الله العظمي خامنه اي مد ظله.,37702309-025 ( داخلی  ),http://qompl.ir,https://lib.ir/fa/library/225/كتابخانه-عمومی-آيت-الله-خامنه-اى/search/
كتابخانه عمومی آیت الله سید جواد خامنه ای شبستر,آذربایجان شرقی,شبستر,شبستر- خامنه - خيابان شهيد طهمورثى.,42463533-041 ( داخلی  ),http://tabrizpl.ir,https://lib.ir/fa/library/337/كتابخانه-عمومی-آیت-الله-سید-جواد-خامنه-ای-شبستر/search/
كتابخانه عمومی آیت الله مقدسی (ره),مرکزی,محلات,محلات - خیابان شهید رجائی میانی.,43223200-086 ( داخلی  ),http://moghadsi.blogfa.com,https://lib.ir/fa/library/413/كتابخانه-عمومی-آیت-الله-مقدسی-ره/search/
كتابخانه عمومی آیت الله نجفی قوچانی,خراسان رضوی,قوچان,قوچان - خیابان امام خمینی (ره) _ بلوار مصلی _ مقابل درمانگاه تامین اجتماعی.,47221990-051 ( داخلی  ),http://najafylib.blogfa.com,https://lib.ir/fa/library/421/كتابخانه-عمومی-آیت-الله-نجفی-قوچانی/search/
كتابخانه عمومی ايلخچى,آذربایجان شرقی,ايلخچى,اسكو - ايلخچي - خیابان امام خمینی (ره) -خیابان 17 شهریور - خیابان انوری.,33412535-041 ( داخلی  ),http://tabrizpl.ir,https://lib.ir/fa/library/289/كتابخانه-عمومی-ايلخچى/search/
كتابخانه عمومی باسمنج,آذربایجان شرقی,باسمنج,تبریز - باسمنج - خيابان سپاه.,36342074-041 ( داخلی  ),http://tabrizpl.ir,https://lib.ir/fa/library/287/كتابخانه-عمومی-باسمنج/search/
كتابخانه عمومی باقر العلوم (ع),خراسان رضوی,ریوش,کاشمر - ریوش - بلوار معلم – جنب شهرداری – پلاك 116.,55823421-051 ( داخلی  ),http://Mashadpl.ir,https://lib.ir/fa/library/404/كتابخانه-عمومی-باقر-العلوم-ع/search/
كتابخانه عمومی باقر العلوم (ع),خراسان رضوی,مشهد,مشهد مقدس- قاسم آباد - بلوار دكتر حسابی - دكتر حسابی34.,36211070-051 ( داخلی  ),http://imbm.ir,https://lib.ir/fa/library/409/كتابخانه-عمومی-باقر-العلوم-ع/search/
كتابخانه عمومی باقر العلوم (ع),خراسان رضوی,چناران,چناران - ابتدای بلوار طالقانی – جنب پارك ملت - كتابخانه باقر العلوم علیه السّلام.,46123055-051 ( داخلی  ),http://Chenaran-lib.bligfa.com,https://lib.ir/fa/library/432/كتابخانه-عمومی-باقر-العلوم-ع/search/
كتابخانه عمومی باقر العلوم (ع) (هلال احمر),قم,قم,قم مقدسه - خيابان 19 دى - خيابان شهيد بشارت (جوي كنده) - هلال احمر.,37702811-025 ( داخلی  ),http://qompl.ir,https://lib.ir/fa/library/223/كتابخانه-عمومی-باقر-العلوم-ع--هلال-احمر/search/
كتابخانه عمومی بحر العلوم,خراسان رضوی,خلیل آباد,خلیل آباد - خیابان انقلاب – نبش میدان انقلاب.,57723248-051 ( داخلی  ),http://Mashadpl.ir,https://lib.ir/fa/library/407/كتابخانه-عمومی-بحر-العلوم/search/
كتابخانه عمومی بشارت,گلستان,گرگان,گرگان - خیابان شهید بهشتی - كوچه نوبخت - كوچه ششم - كتابخانه عمومی بشارت.,33354747-017 ( داخلی  ),http://besharat3.blogfa.com,https://lib.ir/fa/library/398/كتابخانه-عمومی-بشارت/search/
كتابخانه عمومی بهارستان,اصفهان,بهارستان,شهر بهارستان - جنب دانشگاه شیخ بهایی - كتابخانه عمومی بهارستان.,36812520-031 ( داخلی  ),http://isfahanpl.ir,https://lib.ir/fa/library/217/كتابخانه-عمومی-بهارستان/search/
كتابخانه عمومی بيهقی,خراسان رضوی,ششتمد,سبزوار- ششتمد - بلوار مهرگان - روبروی پارك مهرگان.,44723633-051 ( داخلی  ),http://mashadpl.ir,https://lib.ir/fa/library/433/كتابخانه-عمومی-بيهقی/search/
كتابخانه عمومی پارك شهر مرند,آذربایجان شرقی,مرند,مرند- بلوار شهيد كسايي - پارك شهر مرند.,42238899-041 ( داخلی  ),http://tabrizpl.ir,https://lib.ir/fa/library/309/كتابخانه-عمومی-پارك-شهر-مرند/search/
كتابخانه عمومی تربيت,آذربایجان شرقی,تبریز,تبریز - خيابان دانشسرا - كتابخانه عمومي تربيت.,35242190-041 ( داخلی  ),http://tabrizpl.ir,https://lib.ir/fa/library/292/كتابخانه-عمومی-تربيت/search/
كتابخانه عمومی توحيد,اصفهان,اصفهان,اصفهان - بوستان ملت - نرسیده به پل آذر - كوچه باغ به.,36270763-031 ( داخلی  ),http://isfahanpl.ir,https://lib.ir/fa/library/209/كتابخانه-عمومی-توحيد/search/
كتابخانه عمومی تیمورلو,آذربایجان شرقی,آذر شهر,آذرشهر – گوگان – تیمورلور- خیابا امام خمینی(ره)- كتابخانه عمومی تیمورلو.,34520538-041 ( داخلی  ),http://tabrizpl.ir,https://lib.ir/fa/library/366/كتابخانه-عمومی-تیمورلو/search/
كتابخانه عمومی ثارالله (ع),خراسان رضوی,مشهد,مشهد مقدس - بلوار كوثر - كوثر 6 - مسجد ثارالله (ع).,8839199-0511 ( داخلی  ),http://mashadpl.ir,https://lib.ir/fa/library/362/كتابخانه-عمومی-ثارالله-ع/search/
كتابخانه عمومی جعفریه,قم,جعفریه,جعفريه - خيابان فرهنگ.,36222177-025 ( داخلی  ),http://qompl.ir,https://lib.ir/fa/library/384/كتابخانه-عمومی-جعفریه/search/
كتابخانه عمومی حافظ,گلستان,گرگان,گرگان – شهرك حافظ – حافظ هشتم – كتابخانه عمومی حافظ.,36622933-017 ( داخلی  ),http://hafez-lib.blogfa.com,https://lib.ir/fa/library/391/كتابخانه-عمومی-حافظ/search/
کتابخانه عمومی حسینیه ارشاد,تهران,تهران,تهران - خیابان دکتر شریعتی - نرسیده به میرداماد - حسینیه ارشاد.,22866465-021 ( داخلی  ),http://hepl.ir,https://lib.ir/fa/library/550/کتابخانه-عمومی-حسینیه-ارشاد/search/
كتابخانه عمومی حضرت مهدی (عج),لرستان,خرم آباد,خرم آباد - گلدشت شرقی - خیابان فردوسی - كتابخانه حضرت مهدی(عج).,33421317-066 ( داخلی  ),http://lorestanpl.ir,https://lib.ir/fa/library/247/كتابخانه-عمومی-حضرت-مهدی-عج/search/
كتابخانه عمومی حکیم مدرس زنوزی,آذربایجان شرقی,زنوز,مرند، شهر زنوز. خيابان امام خمینی (ره)، روبروي مسجد جامع.,42123060-041 ( داخلی  ),http://tabrizpl.ir,https://lib.ir/fa/library/305/كتابخانه-عمومی-حکیم-مدرس-زنوزی/search/
كتابخانه عمومی حكیم نباتی كلیبر,آذربایجان شرقی,كليبر,كلیبر - جاده مغان به كليبر - روبروي اداره راه و ترابرى.,44443728-041 ( داخلی  ),http://tabrizpl.ir,https://lib.ir/fa/library/325/كتابخانه-عمومی-حكیم-نباتی-كلیبر/search/
كتابخانه عمومی خاتم الانبیاء (ص),خراسان رضوی,خواف,خواف - میدان امام خمینی(ره)- خیابان حافظ ابرو- جنب پارك .,54222318-051 ( داخلی  ),http://mashadpl.ir,https://lib.ir/fa/library/425/كتابخانه-عمومی-خاتم-الانبیاء-ص/search/
كتابخانه عمومی خدافرین,آذربایجان شرقی,كليبر,كلیبر - بخش خداافرین - خمارلو - خیابان شهید مطهری.,44442500-041 ( داخلی  ),http://tabrizpl.ir,https://lib.ir/fa/library/324/كتابخانه-عمومی-خدافرین/search/
كتابخانه عمومی خرامه,فارس,شیراز,خرامه - بلوار اصلی - جنب سپاه پاسداران.,32722640-071 ( داخلی  ),http://farspl.ir,https://lib.ir/fa/library/229/كتابخانه-عمومی-خرامه/search/
كتابخانه عمومی خسرو شهر,آذربایجان شرقی,خسرو شهر,تبریز - خسرو شهر - اول كوي پاسداران - روبروي تربيت بدني - پلاك 1.,32442216-041 ( داخلی  ),http://tabrizpl.ir,https://lib.ir/fa/library/319/كتابخانه-عمومی-خسرو-شهر/search/
كتابخانه عمومی خواجه نصیر,آذربایجان شرقی,مراغه,مراغه - شهرك ولي عصر - خيابان پروين اعتصامي - كوي مهديه .,37410888-041 ( داخلی  ),http://tabrizpl.ir,https://lib.ir/fa/library/339/كتابخانه-عمومی-خواجه-نصیر/search/
كتابخانه عمومی دهاقان (آیت الله محمد حسین خرد دهاقانی),اصفهان,دهاقان,دهاقان- خیابان ورودی شهر - جنب جمعیت هلال احمر - كتابخانه عمومی.,32622620-031 ( داخلی  ),http://libdehaghan.blogfa.com,https://lib.ir/fa/library/213/كتابخانه-عمومی-دهاقان-آیت-الله-محمد-حسین-خرد-دهاقانی/search/
كتابخانه عمومی دكتر شریعتی,خراسان رضوی,مشهد,مشهد مقدس - خیابان امام خمینی ره – جنب اداره كل آموزش و پرورش.,32224640-051 ( داخلی  ),http://mashadpl.ir,https://lib.ir/fa/library/431/كتابخانه-عمومی-دكتر-شریعتی/search/
كتابخانه عمومی دكتر علی شريعتی,خراسان رضوی,سبزوار,سبزوار - ميدان ارشاد (نقابشك)‌ - ابتدای خيابان كاشفی جنوبى.,44443200-051 ( داخلی  ),http://mashadpl.ir,https://lib.ir/fa/library/430/كتابخانه-عمومی-دكتر-علی-شريعتی/search/
كتابخانه عمومی دكتر علی شریعتی,خراسان رضوی,سرخس,سرخس - خیابان امام رضا (ع) - كوچه شماره 15.,34523236-051 ( داخلی  ),http://mashadpl.ir,https://lib.ir/fa/library/408/كتابخانه-عمومی-دكتر-علی-شریعتی/search/
كتابخانه عمومی رضوی,خراسان رضوی,مشهد,مشهد مقدس - بلوار سرافرازان - بلوار پایداری - جنب مسجد موسی بن جعفر (ع).,38230009-051 ( داخلی  ),http://mashadpl.ir,https://lib.ir/fa/library/353/كتابخانه-عمومی-رضوی/search/
كتابخانه عمومی رهنان شماره يك,اصفهان,اصفهان,اصفهان – كوچه شهید رفیعی – جنب قرض الحسنه خلیل الرحمن.,37384225-031 ( داخلی  ),http://isfahanpl.ir,https://lib.ir/fa/library/214/كتابخانه-عمومی-رهنان-شماره-يك/search/
كتابخانه عمومی روزبه زنجان,زنجان,زنـجان,رنجان - بزرگراه 22 بهمن – جنب پارك شهيد رجائي – كتابخانه عمومي استاد رضا روزبه.,33539900-024 ( داخلی  ),http://zanjanpl.ir,https://lib.ir/fa/library/369/كتابخانه-عمومی-روزبه-زنجان/search/
كتابخانه عمومی ریحانه النبی (س),قم,قم,قم - شهر قائم (عج) - روبروي كلانتري28 خازنى.,37232828-025 ( داخلی  ),http://qompl.ir,https://lib.ir/fa/library/387/كتابخانه-عمومی-ریحانه-النبی-س/search/
كتابخانه عمومی زرين شهر,اصفهان,زرين شهر,زرین شهر- خیابان آیت ا.. كاشانی - فرهنگسرای شهرداری.,32222737-031 ( داخلی  ),http://isfahanpl.ir,https://lib.ir/fa/library/220/كتابخانه-عمومی-زرين-شهر/search/
كتابخانه عمومی زهرائیه نجف آباد,اصفهان,نجف آباد,اصفهان - نجف آباد - ابتدای خیابان فردوسی شمالی - کوچه شهید کسمایی - پلاک 14.,42627377-031 ( داخلی  ),http://zahralib.com,https://lib.ir/fa/library/192/كتابخانه-عمومی-زهرائیه-نجف-آباد/search/
كتابخانه عمومی سراب دوره,لرستان,سراب دوره,بخش سراب دوره - میدان امام حسین (ع).,33150416-066 ( داخلی  ),http://chegenipl.blogfa.com,https://lib.ir/fa/library/406/كتابخانه-عمومی-سراب-دوره/search/
كتابخانه عمومی سعدى,فارس,شیراز,شیراز ، خ بوستان.,37300071-071 ( داخلی  ),http://farspl.ir,https://lib.ir/fa/library/232/كتابخانه-عمومی-سعدى/search/
كتابخانه عمومی سمیرم,اصفهان,سميرم,سميرم - خیابان انقلاب اسلامی.,33226340-031 ( داخلی  ),http://,https://lib.ir/fa/library/219/كتابخانه-عمومی-سمیرم/search/
كتابخانه عمومی سید ابو الرضا راوندی,اصفهان,كاشان,كاشان – چهار راه آیت الله كاشانی – كوچه روحانی شهید علی فلاح- انتهای كوچه – سمت چپ.,34447748-031 ( داخلی  ),http://kashanpl.ir,https://lib.ir/fa/library/399/كتابخانه-عمومی-سید-ابو-الرضا-راوندی/search/
كتابخانه عمومی شماره 1 آذر شهر,آذربایجان شرقی,آذر شهر,آذرشهر، خيابان امام خميني (ره)- بلوار بسيج - جنب سپاه.,34222111-041 ( داخلی  ),http://tabrizpl.ir,https://lib.ir/fa/library/274/كتابخانه-عمومی-شماره-1-آذر-شهر/search/
كتابخانه عمومی شماره 2 آذرشهر,آذربایجان شرقی,آذر شهر,آذر شهر - خيابان امام خميني (ره) - ابتداي شهرك وليعصر (ع) - پارك ولي عصر (عج).,34230111-041 ( داخلی  ),http://.tabrizpl.ir,https://lib.ir/fa/library/315/كتابخانه-عمومی-شماره-2-آذرشهر/search/
كتابخانه عمومی شماره دو آباده,فارس,آباده,آباده - خیابان شاهد.,44345795-071 ( داخلی  ),http://farspl.ir,https://lib.ir/fa/library/233/كتابخانه-عمومی-شماره-دو-آباده/search/
كتابخانه عمومی شماره یك آباده,فارس,آباده,آباده - خیابان طالقانی جنوبی .,44335795-071 ( داخلی  ),http://farspl.ir,https://lib.ir/fa/library/236/كتابخانه-عمومی-شماره-یك-آباده/search/
كتابخانه عمومی شماره يك جهرم,فارس,جهرم,جهرم - خیابان معلم.,52225712-071 ( داخلی  ),http://farspl.ir,https://lib.ir/fa/library/245/كتابخانه-عمومی-شماره-يك-جهرم/search/
كتابخانه عمومی شماره يك شهرستان آران و بيدگل,اصفهان,آران و بيدگل,آران و بيدگل – خيابان 17 شهريور – كوچه قيام دوم,54723600-031 ( داخلی  ),http://isfahanpl.ir,https://lib.ir/fa/library/207/كتابخانه-عمومی-شماره-يك-شهرستان-آران-و-بيدگل/search/
كتابخانه عمومی شماره یك كازرون,فارس,كازرون,كازرون - خیابان ارشاد.,42223059-071 ( داخلی  ),http://farspl.ir,https://lib.ir/fa/library/228/كتابخانه-عمومی-شماره-یك-كازرون/search/
كتابخانه عمومی شندآباد,آذربایجان شرقی,شبستر,شبستر - شند آباد - خیابان شهرداری - كوی ارشاد.,42424296-041 ( داخلی  ),http://,https://lib.ir/fa/library/329/كتابخانه-عمومی-شندآباد/search/
كتابخانه عمومی شهدای قم,قم,قم,قم - خيابان چهار مردان - خيابان شهید روحانى - جنب گلزار شهدا.,37207333-025 ( داخلی  ),http://qompl.ir,https://lib.ir/fa/library/434/كتابخانه-عمومی-شهدای-قم/search/
كتابخانه عمومی شهريار,آذربایجان شرقی,تبریز,تبریز - شهرك امام خميني (ره) - خيابان فرهنگيان - جنب شهرداري منطقه 6.,32890619-041 ( داخلی  ),http://tabrizpl.ir,https://lib.ir/fa/library/264/كتابخانه-عمومی-شهريار/search/
كتابخانه عمومی شهريار بناب,آذربایجان شرقی,بناب,بناب - خيابان باهنر - بلوار مدرس .,37723576-041 ( داخلی  ),http://tabrizpl.ir,https://lib.ir/fa/library/265/كتابخانه-عمومی-شهريار-بناب/search/
كتابخانه عمومی شهید آوینی,خراسان رضوی,بایگ,بایگ - خیابان بسیج – جنب بسیج بایگ.,53523400-051 ( داخلی  ),http://bayglibrary.blogfa.com,https://lib.ir/fa/library/403/كتابخانه-عمومی-شهید-آوینی/search/
كتابخانه عمومی شهید آیت الله مطهری (ره),فارس,نورآباد ممسنى,ممسنی - نورآباد - بلوار هفت تیر - منطقه انتظامی.,44222899-071 ( داخلی  ),http://farspl.ir,https://lib.ir/fa/library/244/كتابخانه-عمومی-شهید-آیت-الله-مطهری-ره/search/
كتابخانه عمومی شهید باهنر,لرستان,بروجرد,بروجرد - بلوار غربی - مهدیه جنوبی - پارك شهر.,42507657-066 ( داخلی  ),http://lorestanpl.ir,https://lib.ir/fa/library/248/كتابخانه-عمومی-شهید-باهنر/search/
كتابخانه عمومی شهید باهنر,خراسان رضوی,مشهد,مشهد مقدس - بلوار امامت  - داخل پارك ملت - مجتمع فرهنگی امام رضا ( ع ).,36043383-051 ( داخلی  ),http://mashadpl.ir,https://lib.ir/fa/library/422/كتابخانه-عمومی-شهید-باهنر/search/
كتابخانه عمومی شهید باهنر,خراسان رضوی,صالح آباد,صالح آباد _خيابان امام خميني (ره) - كوچه ارشاد- بوستان معلم.,52523437-051 ( داخلی  ),http://mashadpl.ir,https://lib.ir/fa/library/416/كتابخانه-عمومی-شهید-باهنر/search/
كتابخانه عمومی شهید بهشتی,خراسان رضوی,تربت حیدریه,تربت حیدریه - خيابان شهید مطهرى - خيابان آسايش - پشت باغ ملى.,52224102-051 ( داخلی  ),http://mashadpl.ir,https://lib.ir/fa/library/423/كتابخانه-عمومی-شهید-بهشتی/search/
كتابخانه عمومی شهيد حميد باكری سردرود,آذربایجان شرقی,تبریز,سردرود - خيابان امام خميني (ره) - ميدان يا علي (ع)- جنب اداره برق.,34202501-041 ( داخلی  ),http://tabrizpl.ir,https://lib.ir/fa/library/314/كتابخانه-عمومی-شهيد-حميد-باكری-سردرود/search/
كتابخانه عمومی شهید ربانی بندر گز,گلستان,كردكوی,كردكوى - بخش درگز - خيابان شهيد ربانى.,3422119-017 ( داخلی  ),http://ketab2119.blogfa.com,https://lib.ir/fa/library/188/كتابخانه-عمومی-شهید-ربانی-بندر-گز/search/
كتابخانه عمومی شهید رجائی,خراسان رضوی,تربت جام,تربت جام - خيابان شهيد بهشتي - كوچه طالقانى.,52522737-051 ( داخلی  ),http://mashadpl.ir,https://lib.ir/fa/library/417/كتابخانه-عمومی-شهید-رجائی/search/
كتابخانه عمومی شهید مدرس,خراسان رضوی,مشهد,مشهد - بلوار مدرس - نبش مدرس 3 .,32229895-051 ( داخلی  ),http://mashadpl.ir,https://lib.ir/fa/library/428/كتابخانه-عمومی-شهید-مدرس/search/
كتابخانه عمومی شهید مدرس (ره),خراسان رضوی,كاشمر,كاشمر - خیابان امام خمینی (ره) – جنب پردیس شهید عسكری.,55228711-051 ( داخلی  ),http://Mashadpl.ir,https://lib.ir/fa/library/393/كتابخانه-عمومی-شهید-مدرس-ره/search/
كتابخانه عمومی شهید مطهری,خراسان رضوی,مشهد,مشهد مقدس - كوی سیدی - خیابان خلج - بوستان شادی.,33851822-051 ( داخلی  ),http://mashadpl.ir,https://lib.ir/fa/library/429/كتابخانه-عمومی-شهید-مطهری/search/
كتابخانه عمومی شهید مطهری,خراسان رضوی,تربت جام,تربت جام - خیابان شهرداری – كوچه شهید خرمی – مجتمع فرهنگی هنری ولایت – كتابخانه شهید مطهری.,52540870-051 ( داخلی  ),http://mashadpl.ir,https://lib.ir/fa/library/418/كتابخانه-عمومی-شهید-مطهری/search/
كتابخانه عمومی شهید مطهری,اصفهان,فولاد شهر,لنجان - كوچه صبا - جنب مسجد امام سجاد (ع).,32622028-031 ( داخلی  ),http://isfahanpl.ir,https://lib.ir/fa/library/238/كتابخانه-عمومی-شهید-مطهری/search/
كتابخانه عمومی شهید مطهری اسكو,آذربایجان شرقی,اسكو,اسكو - خيابان امام خميني (ره) - جنب شهرداري - پارك رضوان.,33226373-041 ( داخلی  ),http://tabrizpl.ir,https://lib.ir/fa/library/320/كتابخانه-عمومی-شهید-مطهری-اسكو/search/
كتابخانه عمومی شهید مفتح,خراسان رضوی,مشهد,مشهد مقدس - بلوار وحدت – پارك وحدت.,33645833-051 ( داخلی  ),http://mashadpl.ir,https://lib.ir/fa/library/349/كتابخانه-عمومی-شهید-مفتح/search/
كتابخانه عمومی شهيد مفتح,اصفهان,اصفهان,اصفهان - خيابان جي - خيابان تالار.,32315361-031 ( داخلی  ),http://isfahanpl.ir,https://lib.ir/fa/library/208/كتابخانه-عمومی-شهيد-مفتح/search/
كتابخانه عمومی شهید نواب صفوی,لرستان,نورآباد,دلفان- نورآباد- میدان بعثت- كتابخانه عمومی شهید نواب صفوی.,32741038-066 ( داخلی  ),http://navabpubliclib.blogfa.com,https://lib.ir/fa/library/400/كتابخانه-عمومی-شهید-نواب-صفوی/search/
كتابخانه عمومی شیخ محمود شبستری,آذربایجان شرقی,شبستر,شبستر - خیابان گلشن راز، بالاتر از اداره اوقاف .,42427574-041 ( داخلی  ),http://tabrizpl.ir,https://lib.ir/fa/library/328/كتابخانه-عمومی-شیخ-محمود-شبستری/search/
كتابخانه عمومی صائب,اصفهان,اصفهان,اصفهان – خیابان صائب - آرامگاه صائب.,32360129-031 ( داخلی  ),http://.isfahanpl.ir,https://lib.ir/fa/library/211/كتابخانه-عمومی-صائب/search/
كتابخانه عمومی صوفیان,آذربایجان شرقی,شبستر,صوفيان - خيابان ستارخان - پلاك 26 .,42522010-041 ( داخلی  ),http://libsofian.blogfa.com,https://lib.ir/fa/library/327/كتابخانه-عمومی-صوفیان/search/
كتابخانه عمومی طبرسی,خراسان رضوی,مشهد,مشهد مقدس - قاسم آباد – بلوار شهید فلاحی- انتهای بلوار فاطمیه(س).,35219930-051 ( داخلی  ),http://mashadpl.ir,https://lib.ir/fa/library/411/كتابخانه-عمومی-طبرسی/search/
كتابخانه عمومی عجبشير,آذربایجان شرقی,عجبشير,عجبشير- خيابان شهيد رجايي - روبروي بنياد شهيد.,6225046-0423 ( داخلی  ),http://.tabrizpl.ir,https://lib.ir/fa/library/298/كتابخانه-عمومی-عجبشير/search/
كتابخانه عمومی علامه امینی,آذربایجان شرقی,تبریز,تبریز - شهرك ارم - خيابان بهشت - جنب پاسگاه شماره 21 .,32309828-041 ( داخلی  ),http://tabrizpl.ir,https://lib.ir/fa/library/336/كتابخانه-عمومی-علامه-امینی/search/
کتابخانه عمومی علامه امینی,قم,قم,قم- خیابان کارگر- بلوار سوم خرداد- خیابان امام حسین(ع)- انتهای کوچه 16 .,38751920-025 ( داخلی  ),http://qompl.ir,https://lib.ir/fa/library/761/کتابخانه-عمومی-علامه-امینی/search/
كتابخانه عمومی علامه بحرالعلوم,لرستان,بروجرد,بروجرد - خیابان جعفری - پارك وحدت.,42445322-066 ( داخلی  ),http://borujerdpl-admin.persianblog.ir,https://lib.ir/fa/library/252/كتابخانه-عمومی-علامه-بحرالعلوم/search/
كتابخانه عمومی علامه طباطبایی,زنجان,ابهر,ابهر- خيابان طالقاني جنوبى- روبروي فرماندارى- كوچه ارشاد - كتابخانه عمومي علامه طباطبائى.,35278163-024 ( داخلی  ),http://abharpl.ir,https://lib.ir/fa/library/368/كتابخانه-عمومی-علامه-طباطبایی/search/
كتابخانه عمومی علامه طباطبایی,خراسان رضوی,مشهد,مشهد مقدس - چهارراه شهدا- خیابان شیرازی-كوچه شهید حسن خوراكیان.,32257070-051 ( داخلی  ),http://mashadpl.ir,https://lib.ir/fa/library/346/كتابخانه-عمومی-علامه-طباطبایی/search/
كتابخانه عمومی علامه طباطبايی (ره),مرکزی,محلات,محلات -انتهاي بلوار شهيد بهشتي – جنب پارك جنگلى.,43251113-086 ( داخلی  ),http://markazipl.ir,https://lib.ir/fa/library/414/كتابخانه-عمومی-علامه-طباطبايی-ره/search/
كتابخانه عمومی علامه طباطبایی شهرضا,اصفهان,شهرضا,شهرضا - خیابان شهید بهشتی - روبروی اداره پست.,32227416-031 ( داخلی  ),http://isfahanpl.ir,https://lib.ir/fa/library/205/كتابخانه-عمومی-علامه-طباطبایی-شهرضا/search/
كتابخانه عمومی علامه فاضل شربيانى,آذربایجان شرقی,سراب,سراب - بخش مهربان - شربيان - خيابان كمربندى.,43152736-041 ( داخلی  ),http://tabrizpl.ir,https://lib.ir/fa/library/333/كتابخانه-عمومی-علامه-فاضل-شربيانى/search/
كتابخانه عمومی علامه نايينى,اصفهان,اصفهان,اصفهان - خيابان آيت الله غفاري - شهرك امام خميني (ره) - جنب مسجد قدس.,35520400-031 ( داخلی  ),http://isfahanpl.ir,https://lib.ir/fa/library/240/كتابخانه-عمومی-علامه-نايينى/search/
کتابخانه عمومی علی بن موسی الرضا علیه السلام,قم,قم,قم- شهرک قدس- خیابان هدایت- نبش کوچه 23- طبقه زیرین مسجد علی ابن موسی الرضا(ع),32859918-025 ( داخلی  ),http://qompl.ir,https://lib.ir/fa/library/762/کتابخانه-عمومی-علی-بن-موسی-الرضا-علیه-السلام/search/
كتابخانه عمومی غدیر,لرستان,خرم آباد,خرم آباد - میدان 22 بهمن(كیو) - مجتمع فرهنگی هنری اداره ارشاد اسلامی.,33239608-066 ( داخلی  ),http://libghadir.persianblog.ir,https://lib.ir/fa/library/257/كتابخانه-عمومی-غدیر/search/
کتابخانه عمومی فاطمة الزهرا سلام الله علیها,قم,قم,قم- خیابان امیرکبیر- روبروی پل آهنچی- کوچه شماره 5 (آبشار)- زیر زمین مسجد فاطمه الزهرا(س),36501079-025 ( داخلی  ),http://qompl.ir,https://lib.ir/fa/library/763/کتابخانه-عمومی-فاطمة-الزهرا-سلام-الله-علیها/search/
كتابخانه عمومی فردوسی,خراسان رضوی,مشهد,مشهد مقدس - سه راه محسن كاشانی - داخل پارك كودك.,37253980-051 ( داخلی  ),http://mashadpl.ir,https://lib.ir/fa/library/426/كتابخانه-عمومی-فردوسی/search/
كتابخانه عمومی فردوسی مینودشت,گلستان,مینودشت,مینو دشت - خیابان پاسداران ، جنب نيروي انتظامى.,35222987-017 ( داخلی  ),http://ferdosipl.blogfa.com,https://lib.ir/fa/library/322/كتابخانه-عمومی-فردوسی-مینودشت/search/
كتابخانه عمومی فلاورجان,اصفهان,فلاورجان,فلاورجان - خیابان عماریاسر شمالی روبروی حوزه علمیه -فرهنگسرا و کتابخانه امام خمینی(ره).,37428381-031 ( داخلی  ),http://isfahanpl.ir,https://lib.ir/fa/library/239/كتابخانه-عمومی-فلاورجان/search/
كتابخانه عمومی فیروز سالار,آذربایجان شرقی,آذر شهر,گوگان - روستاي فيروز سالار - خيابان ولي عصر (ع)- جنب مركز بهداشتي و درماني فيروز سالار.,34524834-041 ( داخلی  ),http://tabrizpl.ir,https://lib.ir/fa/library/338/كتابخانه-عمومی-فیروز-سالار/search/
كتابخانه عمومی فيض كاشانى,اصفهان,كاشان,كاشان-خیابان آیت الله سعیدی.,34237438-031 ( داخلی  ),http://isfahan.iplf.ir,https://lib.ir/fa/library/249/كتابخانه-عمومی-فيض-كاشانى/search/
كتابخانه عمومی قاضی جهان,آذربایجان شرقی,قاضي جهان,آذر شهر - قاضي جهان - خيابان امام خميني (ره) - جنب پايگاه شهيد مطهرى.,34566888-041 ( داخلی  ),http://tabrizpl.ir,https://lib.ir/fa/library/316/كتابخانه-عمومی-قاضی-جهان/search/
كتابخانه عمومی قائم فردوس,خراسان جنوبی,فردوس,فردوس - خيابان شهید مطهرى - جنب اداره فرهنگ و ارشاد اسلامى.,32723451-056 ( داخلی  ),http://ghaem-ferdows.blogfa.com,https://lib.ir/fa/library/222/كتابخانه-عمومی-قائم-فردوس/search/
كتابخانه عمومی گوگان,آذربایجان شرقی,آذر شهر,آذر شهر - گوگان - خيابان سعدي - جنب آموزش و پرورش .,34524200-041 ( داخلی  ),http://tabrizpl.ir,https://lib.ir/fa/library/275/كتابخانه-عمومی-گوگان/search/
كتابخانه عمومی مراغه,آذربایجان شرقی,مراغه,مراغه -  ميدان پاسداران - ابتداي خيابان معلم شمالى.,37228777-041 ( داخلی  ),http://tabrizpl.ir,https://lib.ir/fa/library/266/كتابخانه-عمومی-مراغه/search/
كتابخانه عمومی مرحوم علی اكبر عبداللهی,خراسان رضوی,تربت حیدریه,تربت حیدریه - خيابان طالقاني _ نبش چهارراه امام.,52227085-051 ( داخلی  ),http://mashadpl.ir,https://lib.ir/fa/library/420/كتابخانه-عمومی-مرحوم-علی-اكبر-عبداللهی/search/
كتابخانه عمومی مریم (س),قم,قم,قم -خيابان شهید جواد دل آذر - كوچه 15 - مجتمع فرهنگي ورزشي مريم(س).,37783834-025 ( داخلی  ),http://qompl.ir,https://lib.ir/fa/library/389/كتابخانه-عمومی-مریم-س/search/
كتابخانه عمومی ملا شفیع ارسنجانی,فارس,ارسنجان,ارسنجان - خیابان سعیدیه.,43522408-071 ( داخلی  ),http://farspl.ir,https://lib.ir/fa/library/227/كتابخانه-عمومی-ملا-شفیع-ارسنجانی/search/
كتابخانه عمومی ملاصدرا,قم,كهك,كهك - ميدان امام خمينى (ره).,34223734-025 ( داخلی  ),http://qompl.ir,https://lib.ir/fa/library/385/كتابخانه-عمومی-ملاصدرا/search/
كتابخانه عمومی ملكان,آذربایجان شرقی,ملكان,ملكان - خيابان امام خميني (ره)- روبروي بهداشت مركزي - كوچه كتابخانه.,37827799-37822154-041 ( داخلی  ),http://tabrizpl.ir,https://lib.ir/fa/library/306/كتابخانه-عمومی-ملكان/search/
كتابخانه عمومی ممقان,آذربایجان شرقی,ممقان,ممقان - بلوار شهيد باهنر - جنب شهرداري - پلاك 9 .,34422888-041 ( داخلی  ),http://tabrizpl.ir,https://lib.ir/fa/library/277/كتابخانه-عمومی-ممقان/search/
کتابخانه عمومی مؤسسه امام صادق علیه السلام,قم,قم,قم-خیابان مصلی (ساحلی)- انتهای کوچه شماره 18 .,32615676-025 ( داخلی  ),http://qompl.ir,https://lib.ir/fa/library/764/کتابخانه-عمومی-مؤسسه-امام-صادق-علیه-السلام/search/
كتابخانه عمومی مكتب الزهراء (س),تهران,تهران,تهران - خیابان پیروزی - خیابان شكوفه - میدان سراسیاب دولاب - خیابان شهید كندی - چهار راه حاج قربانی .,02133079075 ( داخلی  ),http://libmz.ir,https://lib.ir/fa/library/437/كتابخانه-عمومی-مكتب-الزهراء-س/search/
كتابخانه عمومی ميرداماد,آذربایجان شرقی,تبریز,تبريز -  شهرك زعفرانيه - كوي ميرداماد - داخل بوستان ميرداماد.,33817603-041 ( داخلی  ),http://mirdamadlib.persianblog.ir,https://lib.ir/fa/library/304/كتابخانه-عمومی-ميرداماد/search/
كتابخانه عمومی میمند,فارس,ميمند,میمند - خیابان امام خمینی (ره).,38772427-071 ( داخلی  ),http://farspl.ir,https://lib.ir/fa/library/237/كتابخانه-عمومی-میمند/search/
كتابخانه عمومی نابینایان,قم,قم,قم - خيابان شهيد لواساني ( ساحلي ) - كتابخانه عمومي آيت الله العظمي خامنه اى.,37702309-025 ( داخلی  ),http://qompl.ir,https://lib.ir/fa/library/386/كتابخانه-عمومی-نابینایان/search/
كتابخانه عمومی نائين,اصفهان,نائين,نایین – پشت مصلی – ابتدای خیابان رسالت.,46253552-031 ( داخلی  ),http://isfahanpl.ir,https://lib.ir/fa/library/215/كتابخانه-عمومی-نائين/search/
كتابخانه عمومی نبی اكرم (ص ) تبریز,آذربایجان شرقی,تبریز,تبریز - خيابان آزادي - ميدان حكيم نظامي - ابتداي كوي دانش - جنب مسجد نبي اكرم(ص).,34768863-041 ( داخلی  ),http://tabrizpl.ir,https://lib.ir/fa/library/335/كتابخانه-عمومی-نبی-اكرم-ص--تبریز/search/
كتابخانه عمومی نجف آباد,اصفهان,نجف آباد,نجف آباد - خیابان امام خمینی(ره) - روبروی قرارگاه نیروی انتظامی.,32445353-031 ( داخلی  ),http://isfahanpl.ir,https://lib.ir/fa/library/218/كتابخانه-عمومی-نجف-آباد/search/
کتابخانه عمومی نرگس,قم,قم,قم-بلوار شهید صدوقی- خیابان یاسمن- بوستان نرگس,32907571-025 ( داخلی  ),http://qompl.ir,https://lib.ir/fa/library/765/کتابخانه-عمومی-نرگس/search/
كتابخانه عمومی نطنز,اصفهان,نطنز,نطنز - خيابان امام خميني (ره)- جنب هلال احمر.,34242733-031 ( داخلی  ),http://isfahanpl.ir,https://lib.ir/fa/library/243/كتابخانه-عمومی-نطنز/search/
كتابخانه عمومی نواب صفوی,خراسان رضوی,مشهد,مشهدمقدس - بلوار مصلی - نبش مصلی 3 - پارك مصلی.,33647584-051 ( داخلی  ),http://mashadpl.ir,https://lib.ir/fa/library/352/كتابخانه-عمومی-نواب-صفوی/search/
كتابخانه عمومی هادی شهر,آذربایجان شرقی,هادي شهر,هادیشهر - خیابان امام خمینی (ره)- خیابان ولایت فقیه - جنب ثبت احوال.,42042309-041 ( داخلی  ),http://tabrizpl.ir,https://lib.ir/fa/library/290/كتابخانه-عمومی-هادی-شهر/search/
كتابخانه عمومی هرزند جديد,آذربایجان شرقی,مرند,مرند - روستاي هرزند جديد - ميدان امام حسين جنب بانك صادرات.,42373197-041 ( داخلی  ),http://tabrizpl.ir,https://lib.ir/fa/library/312/كتابخانه-عمومی-هرزند-جديد/search/
كتابخانه عمومی هريس,آذربایجان شرقی,هريس,هریس - ميدان 72 تن - خيابان انقلاب - كوچه كتابخانه.,43432189-041 ( داخلی  ),http://tabrizpl.ir,https://lib.ir/fa/library/310/كتابخانه-عمومی-هريس/search/
كتابخانه عمومی هشترود (برادران),آذربایجان شرقی,هشترود,هشترود - خيابان امام خميني - جنب بيمه ايران.,52622044-041 ( داخلی  ),http://tabrizpl.ir,https://lib.ir/fa/library/330/كتابخانه-عمومی-هشترود-برادران/search/
كتابخانه عمومی هفده شهریور,لرستان,خرم آباد,خرم آباد - پارك شهر - روبروي مخابرات.,33302421-066 ( داخلی  ),http://lorestanpl.ir,https://lib.ir/fa/library/299/كتابخانه-عمومی-هفده-شهریور/search/
كتابخانه عمومی هوراند,آذربایجان شرقی,اهر,اهر - هوراند - خيابان امام خميني - جنب گلزار شهدا.,44262699-041 ( داخلی  ),http://tabrizpl.ir,https://lib.ir/fa/library/331/كتابخانه-عمومی-هوراند/search/
كتابخانه عمومي و امانی (دفتر تبليغات اسلامی حوزه علميه قم),قم,قم,قم مقدسه - ميدان شهدا- خيابان معلّم- ساختمان كتابخانه عمومی و امانی دفتر تبليغات اسلامي .,371160-025 ( داخلی 1271 ),http://lib.isca.ac.ir,https://lib.ir/fa/library/119/كتابخانه-عمومي-و-امانی-دفتر-تبليغات-اسلامی-حوزه-علميه-قم/search/
كتابخانه عمومی ورزقان,آذربایجان شرقی,ورزقان,ورزقان –  خيابان ارشاد.,44553483-041 ( داخلی  ),http://tabrizpl.ir,https://lib.ir/fa/library/326/كتابخانه-عمومی-ورزقان/search/
كتابخانه عمومی ورزنه,اصفهان,ورزنه,ورزنه - خیابان شهید دكتر بهشتی - جنب قرض الحسنه سجاد.,36482219-031 ( داخلی  ),http://isfahanpl.ir,https://lib.ir/fa/library/253/كتابخانه-عمومی-ورزنه/search/
كتابخانه عمومی ولی عصر (ع),اصفهان,اصفهان,اصفهان – خیابان ولی عصر (ع) جنب مخابرات.,32255860-031 ( داخلی  ),http://isfahanpl.ir,https://lib.ir/fa/library/212/كتابخانه-عمومی-ولی-عصر-ع/search/
كتابخانه عمومی وليعصر (ع) تبريز,آذربایجان شرقی,تبریز,تبريز - بلوار 29 بهمن - جنب حوزه علميه - كتابخانه عمومي وليعصر (ع).,33327729-041 ( داخلی  ),http://tabrizpl.ir,https://lib.ir/fa/library/293/كتابخانه-عمومی-وليعصر-ع-تبريز/search/
كتابخانه عمومی كشكسرای,آذربایجان شرقی,کشکسرای,مرند –  كشكسراي - خيابان شهيد رجايي - جنب شهردارى.,42142049-041 ( داخلی  ),http://,https://lib.ir/fa/library/308/كتابخانه-عمومی-كشكسرای/search/
كتابخانه عمومی كوثر بناب,آذربایجان شرقی,بناب,بناب - خيابان امام خميني (ره) - كوي طالقاني - داخل پارك طالقانى.,37739030-041 ( داخلی  ),http://tabrizpl.ir,https://lib.ir/fa/library/288/كتابخانه-عمومی-كوثر-بناب/search/
كتابخانه عمومی كوثر مرند,آذربایجان شرقی,مرند,مرند -  خيابان امام خميني (ره) - روبروي بانك كشاورزى.,42260144-041 ( داخلی  ),http://.tabrizpl.ir,https://lib.ir/fa/library/276/كتابخانه-عمومی-كوثر-مرند/search/
كتابخانه عمومی يادگار امام (ره),قم,قم,قم مقدسه - بلوار شهید صدوقی - شهرك امام خميني (ره)- جنب مسجد قدس.,32705282-025 ( داخلی  ),http://qompl.ir,https://lib.ir/fa/library/256/كتابخانه-عمومی-يادگار-امام-ره/search/
كتابخانه عمومی يامچى,آذربایجان شرقی,مرند,مرند –  يامچي - بلوار ولايت - خيابان طالقاني - جنب مدرسه درخشان.,42163020-041 ( داخلی  ),http://tabrizpl.ir,https://lib.ir/fa/library/323/كتابخانه-عمومی-يامچى/search/
كتابخانه عمومی یزدانشهر,اصفهان,نجف آباد,نجف آباد - یزدانشهر - خیابان 21 شرقی.,32445535-031 ( داخلی  ),http://isfahanpl.ir,https://lib.ir/fa/library/254/كتابخانه-عمومی-یزدانشهر/search/
كتابخانه عمومی یكانكهریز,آذربایجان شرقی,مرند,روستاي يكان كهريز - خیابان اصلی - روبروي بهداشت.,42166393-041 ( داخلی  ),http://,https://lib.ir/fa/library/311/كتابخانه-عمومی-یكانكهریز/search/
کتابخانه فجر (کتابخانه های سازمان فرهنگی هنری شهرداری تهران),تهران,تهران,تهران - بلواريافت‌آباد - ابراهيم‌آباد - خيابان اسدآبادی - ‌بوستان مينا.,66817456-021 ( داخلی  ),http://tlib.ir,https://lib.ir/fa/library/581/کتابخانه-فجر-کتابخانه-های-سازمان-فرهنگی-هنری-شهرداری-تهران/search/
کتابخانه فردوس (کتابخانه های سازمان فرهنگی هنری شهرداری تهران),تهران,تهران,تهران - فلكه دوم صادقيه- بلوار فردوس- بعد از چهارراه مخابرات- فرهنگسراي فردوس.,44081043-021 ( داخلی  ),http://tlib.ir,https://lib.ir/fa/library/665/کتابخانه-فردوس-کتابخانه-های-سازمان-فرهنگی-هنری-شهرداری-تهران/search/
کتابخانه فردوسی (کتابخانه های سازمان فرهنگی هنری شهرداری تهران),تهران,تهران,تهران - خيابان شوش - خيابان ری - خيابان انبارگندم - كتابخانه فردوسي.,33562082-021 ( داخلی  ),http://tlib.ir,https://lib.ir/fa/library/615/کتابخانه-فردوسی-کتابخانه-های-سازمان-فرهنگی-هنری-شهرداری-تهران/search/
کتابخانه فرزانگان (کتابخانه های سازمان فرهنگی هنری شهرداری تهران),تهران,تهران,تهران - نارمك - انتهاي خيابان گلستان - جنب بوستان تسليحات - كوچه شهيد غلام رضاگلستاني - شماره ۱۲۸.,77818842-021 ( داخلی  ),http://tlib.ir,https://lib.ir/fa/library/614/کتابخانه-فرزانگان-کتابخانه-های-سازمان-فرهنگی-هنری-شهرداری-تهران/search/
کتابخانه فناوری اطلاعات (کتابخانه های سازمان فرهنگی هنری شهرداری تهران),تهران,تهران,تهران - ابتداي خوش جنوبي- خيابان شهيد اميرقلي- نرسيده به تقاطع ناهيد- فرهنگسرای عطار نيشابوري.,66902134-021 ( داخلی  ),http://tlib.ir,https://lib.ir/fa/library/639/کتابخانه-فناوری-اطلاعات-کتابخانه-های-سازمان-فرهنگی-هنری-شهرداری-تهران/search/
کتابخانه قائم (عج) (کتابخانه های سازمان فرهنگی هنری شهرداری تهران),تهران,تهران,تهران - بلواريافت آباد - بعدازميدان معلم - جنب مجتمع قضايي يافت آباد - بوستان قائم(عج).,66217766-021 ( داخلی  ),http://tlib.ir,https://lib.ir/fa/library/568/کتابخانه-قائم-عج--کتابخانه-های-سازمان-فرهنگی-هنری-شهرداری-تهران/search/
کتابخانه قیصر امین پور (کتابخانه های سازمان فرهنگی هنری شهرداری تهران),تهران,تهران,تهران - مهرآباد جنوبي - خيابان توكلي - كوچه شهيد ابراهيم اصفهاني - پلاك ۴۶ـ خانه فرهنگ مهرآباد.,66620163-021 ( داخلی  ),http://tlib.ir,https://lib.ir/fa/library/569/کتابخانه-قیصر-امین-پور-کتابخانه-های-سازمان-فرهنگی-هنری-شهرداری-تهران/search/
کتابخانه گروه باستان شناسی دانشکده ادبیات دانشگاه تهران,تهران,تهران,تهران - خیابان انقلاب اسلامی - دانشگاه تهران.,66913992 ( داخلی 2569 ),http://ut.ac.ir,https://lib.ir/fa/library/546/کتابخانه-گروه-باستان-شناسی-دانشکده-ادبیات-دانشگاه-تهران/search/
کتابخانه گروه تاریخ دانشگاه تهران,تهران,تهران,تهران - خیابان انقلاب اسلامی - دانشگاه تهران.,61117252 ( داخلی  ),http://ut.ac.ir,https://lib.ir/fa/library/527/کتابخانه-گروه-تاریخ-دانشگاه-تهران/search/
کتابخانه گروه زبان و ادبیات فارسی دانشگاه تهران,تهران,تهران,تهران - خیابان انقلاب اسلامی - دانشگاه تهران.,61113082 ( داخلی  ),http://ut.ac.ir,https://lib.ir/fa/library/529/کتابخانه-گروه-زبان-و-ادبیات-فارسی-دانشگاه-تهران/search/
کتابخانه گلستان (کتابخانه های سازمان فرهنگی هنری شهرداری تهران),تهران,تهران,تهران - نارمك - ميدان هلال احمر - خيابان گلستان - ضلع شمالي بوستان فدك - فرهنگسراي گلستان.,77827730-021 ( داخلی  ),http://tlib.ir,https://lib.ir/fa/library/589/کتابخانه-گلستان-کتابخانه-های-سازمان-فرهنگی-هنری-شهرداری-تهران/search/
كتابخانه گنجینه نور (مركز حفظ و نگهداری پژوهش ها و پایان نامه های قرآنی) مؤسسه معارف اسلامی امام رضا (ع),قم,قم,قم مقدسه- بلوار شهید محمد منتظری - كوچه شماره 8 - پلاك 12 .,377422010-37740559-025 ( داخلی  ),http://maaref.ir,https://lib.ir/fa/library/443/كتابخانه-گنجینه-نور-مركز-حفظ-و-نگهداری-پژوهش-ها-و-پایان-نامه-های-قرآنی-مؤسسه-معارف-اسلامی-امام-رضا-ع/search/
کتابخانه لویزان (کتابخانه های سازمان فرهنگی هنری شهرداری تهران),تهران,تهران,تهران - لویزان - خیابان جوانشیر- سه راه لویزان-خیابان شعبانلو- روبروی مخابرات شهیدلطیفی-  بوستان سخندان- کتابخانه عمومی لویزان.,22956644-021 ( داخلی  ),http://tlib.ir,https://lib.ir/fa/library/638/کتابخانه-لویزان-کتابخانه-های-سازمان-فرهنگی-هنری-شهرداری-تهران/search/
کتابخانه مجازی (دیجیتالی) الفبا,تهران,تهران,تهران- خیابان شهید بهشتی- بعد از تقاطع سهروردی- جنب بانک تجارت- پلاک 146- طبقه2,95119260-021 ( داخلی  ),http://alefbalib.com/?pid=29,https://lib.ir/fa/library/454/کتابخانه-مجازی-دیجیتالی-الفبا/search/
كتابخانه مجتمع فرهنگی امام خمينی (ره) (آستان قدس رضوی ع),خراسان رضوی,مشهد,خیابان خواجه ربیع 23,37411100-051 ( داخلی 37414621 - 051 ),https://library.razavi.ir/aqlibraries,https://lib.ir/fa/library/153/كتابخانه-مجتمع-فرهنگی-امام-خمينی-ره--آستان-قدس-رضوی-ع/search/
كتابخانه مجلس شورای اسلامى,تهران,تهران,تهران - ضلع جنوب شرقي ميدان بهارستان - كتابخانه مجلس شوراي اسلامى.,33130911-021 ( داخلی  ),http://ical.ir,https://lib.ir/fa/library/178/كتابخانه-مجلس-شورای-اسلامى/search/
كتابخانه مجمع عالی حكمت اسلامی,قم,قم,قم - خیابان 19 دی- كوچه 10- فرعی اول سمت چپ- پلاك 5 .,11-37757610-025 ( داخلی  ),http://hekmateislami.com,https://lib.ir/fa/library/440/كتابخانه-مجمع-عالی-حكمت-اسلامی/search/
كتابخانه مدرسه اسلامی هنر,قم,قم,قم مقدسه - بلوار بسیج (سی متری هنرستان) - بین کوچه 20 و 22.,02537830782 ( داخلی  ),http://Itaihe.ac.ir,https://lib.ir/fa/library/367/كتابخانه-مدرسه-اسلامی-هنر/search/
كتابخانه مدرسه عالی شهيد مطهری (ره),تهران,تهران,تهران - میدان بهارستان – مدرسه عالی شهید مطهری.,33124472-021 ( داخلی  ),http://motahari.ac.ir/web/guest/library,https://lib.ir/fa/library/179/كتابخانه-مدرسه-عالی-شهيد-مطهری-ره/search/
كتابخانه مدرسه عالی فقه و معارف اسلامی (حجتيه),قم,قم,قم مقدسه- ميدان شهداء - خيابان حجتيه- مدرسه مباركه حجتيه.,37742086-025 ( داخلی  ),http://feqh.miu.ac.ir,https://lib.ir/fa/library/186/كتابخانه-مدرسه-عالی-فقه-و-معارف-اسلامی-حجتيه/search/
کتابخانه مدرسه علمیه الزهراء (س) آباده طشک,فارس,آباده طشک,آباده طشك- خیابان امام حسین(ع)- جنب بنیاد شهید,07153894322 ( داخلی  ),http://,https://lib.ir/fa/library/722/کتابخانه-مدرسه-علمیه-الزهراء-س-آباده-طشک/search/
کتابخانه مدرسه علمیه الزهراء (س) مینودشت,گلستان,مینودشت,مینودشت- خیابان دار الولایت- جنب مسكن مهر- پشت بیمارستان تأمین اجتماعی,01735280500 ( داخلی  ),http://,https://lib.ir/fa/library/700/کتابخانه-مدرسه-علمیه-الزهراء-س-مینودشت/search/
كتابخانه مدرسه علمیه پیروان حضرت زهرا (س),خراسان رضوی,مشهد,مشهد مقدس - خیابان امام رضا علیه السلام- ك 60.,33411210-051 ( داخلی  ),http://peyrovan-zahra.com,https://lib.ir/fa/library/503/كتابخانه-مدرسه-علمیه-پیروان-حضرت-زهرا-س/search/
کتابخانه مدرسه علمیه خواهران الزهرا (س) شهر بابک,کرمان,شهربابک,شهربابک- خیابان پاسداران-  انتهای بلوار کوثر- کوی پرستار2,03434131865 ( داخلی  ),http://,https://lib.ir/fa/library/710/کتابخانه-مدرسه-علمیه-خواهران-الزهرا-س-شهر-بابک/search/
کتابخانه مدرسه علمیه خواهران الزهراء المرضیه (س) اصفهان,اصفهان,اصفهان,اصفهان- خیابان هاتف- جنب بانك ملی- كوی 9- كوی حیدر میرزا- بن بست جلو خانه- انتهای بن بست,03132241332 ( داخلی  ),http://,https://lib.ir/fa/library/750/کتابخانه-مدرسه-علمیه-خواهران-الزهراء-المرضیه-س-اصفهان/search/
كتابخانه مدرسه علمیه خواهران الزهراء (س),کردستان,قروه,قروه - شهرك فرهنگیان -ابتدای شهرك - جنب مسجد الزهرا (س).,35226140-087 ( داخلی  ),http://lib.whc.ir,https://lib.ir/fa/library/485/كتابخانه-مدرسه-علمیه-خواهران-الزهراء-س/search/
كتابخانه مدرسه علمیه خواهران الزهراء (س),مازندران,جویبار,جویبار - میدان معلم - خیابان گلاگر محله.,42531091-011 ( داخلی  ),http://lib.whc.ir,https://lib.ir/fa/library/487/كتابخانه-مدرسه-علمیه-خواهران-الزهراء-س/search/
كتابخانه مدرسه علمیه خواهران الزهراء (س),آذربایجان غربی,شاهین دژ,شاهین دژ - بلوار غدیر خم - خیابان 9 دی - بالاتر از دانشگاه آزاد.,2-46334710-044 ( داخلی  ),http://lib.whc.ir,https://lib.ir/fa/library/471/كتابخانه-مدرسه-علمیه-خواهران-الزهراء-س/search/
كتابخانه مدرسه علمیه خواهران الزهراء (س),اصفهان,خميني شهر,خمینی شهر - خیابان شریعتی جنوبی - كوچه پنچشنبه بازار.,1-33677910-031 ( داخلی  ),http://lib.whc.ir,https://lib.ir/fa/library/472/كتابخانه-مدرسه-علمیه-خواهران-الزهراء-س/search/
كتابخانه مدرسه علمیه خواهران الزهراء (س),اصفهان,دهاقان,دهاقان - خیابان آزادگان - مجتمع مسكونی امام صادق (ع) روبروی دبستان غیر انتفاعی سماء.,32623040-031 ( داخلی  ),http://lib.whc.ir,https://lib.ir/fa/library/473/كتابخانه-مدرسه-علمیه-خواهران-الزهراء-س/search/
كتابخانه مدرسه علمیه خواهران الزهراء (س),اصفهان,مباركه,مباركه - خیابان بسیج جنوبی - كوچه شهید عبدیان - مجتمع فرهنگی الزهرا (س).,35267701-031 ( داخلی  ),http://lib.whc.ir,https://lib.ir/fa/library/474/كتابخانه-مدرسه-علمیه-خواهران-الزهراء-س/search/
كتابخانه مدرسه علمیه خواهران الزهراء (س),فارس,گراش,گراش - بلورا سرداران - انتهای خیابان شهید مطهری.,52446176-071 ( داخلی  ),http://lib.whc.ir,https://lib.ir/fa/library/477/كتابخانه-مدرسه-علمیه-خواهران-الزهراء-س/search/
كتابخانه مدرسه علمیه خواهران الزهراء (س),تهران,شهر رى,شهر ری - خیابان قم - بالاتر از فرمانداری - جنب بهزیستی.,55909694-021 ( داخلی  ),http://lib.whc.ir,https://lib.ir/fa/library/459/كتابخانه-مدرسه-علمیه-خواهران-الزهراء-س/search/
كتابخانه مدرسه علمیه خواهران الزهراء (س),تهران,تهران,تهران - كوی نصر - نبش كانال فاضل شرقی - پلاك 1/2 .,88252149-021 ( داخلی  ),http://lib.whc.ir,https://lib.ir/fa/library/460/كتابخانه-مدرسه-علمیه-خواهران-الزهراء-س/search/
كتابخانه مدرسه علمیه خواهران الزهراء (س),تهران,واوان,واوان - فاز 2 - خیابان شهید رجایی - نبش كوچه 50 شرقی - پلاك 47.,56173232-021 ( داخلی  ),http://lib.whc.ir,https://lib.ir/fa/library/461/كتابخانه-مدرسه-علمیه-خواهران-الزهراء-س/search/
كتابخانه مدرسه علمیه خواهران الزهراء (س),مرکزی,اراک,اراك - خیابان امام خمینی(ره)- پشت كانون بسیج جوانان- خیابان شورا- سه راه ابوذر- مقابل شركت- حوزه علمیه الزهرا(س),32247910-086 ( داخلی  ),http://,https://lib.ir/fa/library/342/كتابخانه-مدرسه-علمیه-خواهران-الزهراء-س/search/
كتابخانه مدرسه علمیه خواهران الزهراء (س),همدان,همدان,همدان - خیابان شهدا- كوچه مرحوم آخوند - روبروی مدرسه علمیه آخوند - حوزه علمیه الزهرا(س).,32525668-081 ( داخلی  ),http://alzahra-hamedan.womenhc.com,https://lib.ir/fa/library/344/كتابخانه-مدرسه-علمیه-خواهران-الزهراء-س/search/
كتابخانه مدرسه علمیه خواهران الزهراء (س),مازندران,ساری,ساری – خیابان جمهوری اسلامی - كوچه مقداد - جنب مسجد رانندگان - حوزه علمیه الزهرا(س).,33327486-011 ( داخلی  ),http://,https://lib.ir/fa/library/347/كتابخانه-مدرسه-علمیه-خواهران-الزهراء-س/search/
كتابخانه مدرسه علمیه خواهران الزهراء (س ),زنجان,زنـجان,زنجان – سعدی وسط- جنب مسجد عباس قلی خان- حوزه علمیه الزهرا(س).,33360030-024 ( داخلی  ),http://,https://lib.ir/fa/library/348/كتابخانه-مدرسه-علمیه-خواهران-الزهراء-س/search/
کتابخانه مدرسه علمیه خواهران الزهراء (س) ارومیه,آذربایجان غربی,اروميه,ارومیه- بلوار شهید دستغیب (خیابان مافی)- خیابان مدیریت- جنب دانشگاه الزهرا (س),04432233490 ( داخلی  ),http://,https://lib.ir/fa/library/756/کتابخانه-مدرسه-علمیه-خواهران-الزهراء-س-ارومیه/search/
کتابخانه مدرسه علمیه خواهران الزهراء (س) آزادشهر,گلستان,آزاد شهر,آزادشهر- خیابان شهید رجایی- كوچه مكتب الزهرا (س)- بوستان3,01746726400 ( داخلی  ),http://,https://lib.ir/fa/library/705/کتابخانه-مدرسه-علمیه-خواهران-الزهراء-س-آزادشهر/search/
کتابخانه مدرسه علمیه خواهران الزهراء (س) استهبان,فارس,استهبان,استهبان- خیابان شهید فقیهی- كوچه شهید فقیهی13,07153233929 ( داخلی  ),http://lib.whc.ir,https://lib.ir/fa/library/357/کتابخانه-مدرسه-علمیه-خواهران-الزهراء-س-استهبان/search/
کتابخانه مدرسه علمیه خواهران الزهراء (س) بابل,مازندران,بابل,بابل- خیابان مدرس- خیابان هجدهم- كوچه شهید رسولی24 (ضرابپوری)- جنب بنیاد علمی مدیری,01132360076 ( داخلی  ),http://,https://lib.ir/fa/library/694/کتابخانه-مدرسه-علمیه-خواهران-الزهراء-س-بابل/search/
کتابخانه مدرسه علمیه خواهران الزهراء (س) بندر عباس,هرمزگان,بندر عباس,بندرعباس- خیابان آیت اله غفاری- روبروی فرهنگسرای طوبی,07633339460 ( داخلی  ),http://,https://lib.ir/fa/library/689/کتابخانه-مدرسه-علمیه-خواهران-الزهراء-س-بندر-عباس/search/
کتابخانه مدرسه علمیه خواهران الزهراء (س) پلدختر,لرستان,پلدختر,پلدختر- كوی بسیجیان- خیابان شریعتی- روبروی مسكن مهر,06632227042 ( داخلی  ),http://,https://lib.ir/fa/library/681/کتابخانه-مدرسه-علمیه-خواهران-الزهراء-س-پلدختر/search/
کتابخانه مدرسه علمیه خواهران الزهراء (س) خوی,آذربایجان غربی,خوی,خوی- خیابان شریعتی- خیابان مصلی- جنب مصلی,04436220934 ( داخلی  ),http://,https://lib.ir/fa/library/755/کتابخانه-مدرسه-علمیه-خواهران-الزهراء-س-خوی/search/
کتابخانه مدرسه علمیه خواهران الزهراء (س) داران,اصفهان,داران,داران (فریدن) - میدان شهرداری- خیابان شهید مطهری- بالاتر از فلكه پنج تن,03157225611 ( داخلی  ),http://,https://lib.ir/fa/library/745/کتابخانه-مدرسه-علمیه-خواهران-الزهراء-س-داران/search/
کتابخانه مدرسه علمیه خواهران الزهراء (س) دزفول,خوزستان,دزفول,دزفول- كوی آزادگان- ابتدای جاده مهرشهر- خیابان بهزیستی پردیس دانشگاهی.,06142425291 ( داخلی  ),http://,https://lib.ir/fa/library/729/کتابخانه-مدرسه-علمیه-خواهران-الزهراء-س-دزفول/search/
کتابخانه مدرسه علمیه خواهران الزهراء (س) شوش,خوزستان,شوش,شوش دانیال- خیابان امام خمینی(ره)- روبروی اداره آموزش و پرورش,06142824838 ( داخلی  ),http://,https://lib.ir/fa/library/727/کتابخانه-مدرسه-علمیه-خواهران-الزهراء-س-شوش/search/
کتابخانه مدرسه علمیه خواهران الزهراء (س) شیراز,فارس,شیراز,شیراز- خیابان قاآنی شمالی- روبروی بانك تجارت,07137393443 ( داخلی  ),http://,https://lib.ir/fa/library/721/کتابخانه-مدرسه-علمیه-خواهران-الزهراء-س-شیراز/search/
کتابخانه مدرسه علمیه خواهران الزهراء (س) صحنه,کرمانشاه,صحنه,صحنه- شهرك امام خمینی (ره)- جنب مسجد- انتهای خیابان چهل متری- جنب مسجد امام حسین(ع)- مدرسه علمیه الزهرا(س),08383226898 ( داخلی  ),http://,https://lib.ir/fa/library/706/کتابخانه-مدرسه-علمیه-خواهران-الزهراء-س-صحنه/search/
کتابخانه مدرسه علمیه خواهران الزهراء (س) گرگان,گلستان,گرگان,گرگان- میدان شهید مفتح- بلوار شهید مفتح- خیابان حوزه,01714432470 ( داخلی  ),http://,https://lib.ir/fa/library/701/کتابخانه-مدرسه-علمیه-خواهران-الزهراء-س-گرگان/search/
کتابخانه مدرسه علمیه خواهران الزهراء (س) لردگان,چهار محال و بختیاری,لردگان,لردگان- فلكه معلم- بلوار شهداء- خیابان امام خمینی- كوچه25,03834443560 ( داخلی  ),http://,https://lib.ir/fa/library/733/کتابخانه-مدرسه-علمیه-خواهران-الزهراء-س-لردگان/search/
کتابخانه مدرسه علمیه خواهران الزهراء (س) کازرون,فارس,كازرون,کازرون- بلوارعلامه دوانی- ابتدای خیابان دوانی,07142221229 ( داخلی  ),http://,https://lib.ir/fa/library/720/کتابخانه-مدرسه-علمیه-خواهران-الزهراء-س-کازرون/search/
كتابخانه مدرسه علمیه خواهران الغدیر,تهران,تهران,تهران - خیابان هفده شهریور - خیابان عبدالرضا شیرازی(آبشار)- كوچه لواسانی - پلاك 8 .,33552110-021 ( داخلی  ),http://lib.whc.ir,https://lib.ir/fa/library/458/كتابخانه-مدرسه-علمیه-خواهران-الغدیر/search/
كتابخانه مدرسه علمیه خواهران امام جعفر صادق (ع),سمنان,شاهرود,شاهرود - خیابان هفده شهریور -ساختمان پنج طبقه -مؤسسه امام صادق (ع).,32223637-023 ( داخلی  ),http://lib.whc.ir,https://lib.ir/fa/library/492/كتابخانه-مدرسه-علمیه-خواهران-امام-جعفر-صادق-ع/search/
كتابخانه مدرسه علمیه خواهران امام حسن مجتبی (ع),تهران,تهران,تهران - بزرگراه آیت الله سعیدی - جنب درب جنوبی امامزاده زید (ع).,66321186-021 ( داخلی  ),http://,https://lib.ir/fa/library/351/كتابخانه-مدرسه-علمیه-خواهران-امام-حسن-مجتبی-ع/search/
كتابخانه مدرسه علمیه خواهران امام حسین (ع),مازندران,چالوس,چالوس - خیابان هفده شهریور - روبروی دانشگاه آزاد - جنب مسجد امام حسین (ع).,52228398-011 ( داخلی  ),http://lib.whc.ir,https://lib.ir/fa/library/488/كتابخانه-مدرسه-علمیه-خواهران-امام-حسین-ع/search/
کتابخانه مدرسه علمیه خواهران امام خامنه ای کرمانشاه,کرمانشاه,كرمانشاه,کرمانشاه- ۲۲بهمن- سی متری دوم- کوی تعزیرات- کوچه23,08338395843 ( داخلی  ),http://,https://lib.ir/fa/library/674/کتابخانه-مدرسه-علمیه-خواهران-امام-خامنه-ای-کرمانشاه/search/
كتابخانه مدرسه علمیه خواهران امام خمینی (ره),کرمانشاه,كرمانشاه,كرمانشاه - میدان گلستان - جنب درمانگاه حاج دایی - بلوار گل سرخ - پلاك 51.,6-38383785-083 ( داخلی  ),http://lib.whc.ir,https://lib.ir/fa/library/483/كتابخانه-مدرسه-علمیه-خواهران-امام-خمینی-ره/search/
کتابخانه مدرسه علمیه خواهران امام صادق علیه السلام بوئین زهرا,قزوین,بوئین زهرا,بویین زهرا- میدان امام حسین (ع)- بلوار آیت الله طالقانی- جنب نانوایی,02834222359 ( داخلی  ),http://,https://lib.ir/fa/library/718/کتابخانه-مدرسه-علمیه-خواهران-امام-صادق-علیه-السلام-بوئین-زهرا/search/
كتابخانه مدرسه علمیه خواهران بانو امین,تهران,تهران,تهران - اول جاده لشكرك - مینی سیتی - شهرك شهید محلاتی - فاز یك - خیابان شهدای گمنام - سر ایثار - حسینیه امام خمینی (ره).,22452858-021 ( داخلی  ),http://lib.whc.ir,https://lib.ir/fa/library/462/كتابخانه-مدرسه-علمیه-خواهران-بانو-امین/search/
كتابخانه مدرسه علمیه خواهران بقیع,البرز,كرج,كرج - چهلو پنج متری گلشهر - خیابان ارغوان غربی - پلاك52.,33514903-026 ( داخلی  ),http://baghi-karaj.womenhc.com,https://lib.ir/fa/library/350/كتابخانه-مدرسه-علمیه-خواهران-بقیع/search/
کتابخانه مدرسه علمیه خواهران ثامن الحجج علیه السلام پارس آباد,اردبیل,پارس آباد,پارس آباد- خیابان امام خمینی (ره)- میدان سپاه- جنب دارالقرآن مهدی,04532724400 ( داخلی  ),http://,https://lib.ir/fa/library/752/کتابخانه-مدرسه-علمیه-خواهران-ثامن-الحجج-علیه-السلام-پارس-آباد/search/
کتابخانه مدرسه علمیه خواهران جامعة النور اصفهان,اصفهان,اصفهان,اصفهان- بلوار كشاورز- گلزار هفتم- انتهای بن بست گلدسته,10107819511 ( داخلی  ),http://,https://lib.ir/fa/library/749/کتابخانه-مدرسه-علمیه-خواهران-جامعة-النور-اصفهان/search/
كتابخانه مدرسه علمیه خواهران حجت (عج),تهران,تهران,تهران - انتهای خیابان جیهون - خیابان حسام الدین - جنب مسجد حضرت حجت(عج) - پلاك 262 .,55765533-55765522-021 ( داخلی  ),http://lib.whc.ir,https://lib.ir/fa/library/465/كتابخانه-مدرسه-علمیه-خواهران-حجت-عج/search/
كتابخانه مدرسه علمیه خواهران حضرت خدیجه (س),تهران,تهران,تهران - خیابان شریعتی - بالاتر از چهارراه قصر - خیابان محبی - پلاك 1.,88762877-021 ( داخلی  ),http://blog96.womenhc.com,https://lib.ir/fa/library/358/كتابخانه-مدرسه-علمیه-خواهران-حضرت-خدیجه-س/search/
کتابخانه مدرسه علمیه خواهران حضرت رقیه (س) رامهرمز,خوزستان,رامهرمز,رامهرمز- خیابان ولیعصر(عج)- جنب مسجد جامع,06143538230 ( داخلی  ),http://,https://lib.ir/fa/library/728/کتابخانه-مدرسه-علمیه-خواهران-حضرت-رقیه-س-رامهرمز/search/
كتابخانه مدرسه علمیه خواهران حضرت زهرا (س),کرمانشاه,كنگاور,كنگاور - میدان امام خمینی (ره) خیابان شهید مطهری - كوچه شهید چمران - پلاك 3.,48622581-083 ( داخلی  ),http://lib.whc.ir,https://lib.ir/fa/library/484/كتابخانه-مدرسه-علمیه-خواهران-حضرت-زهرا-س/search/
كتابخانه مدرسه علمیه خواهران حضرت زهرا (س),اصفهان,خميني شهر,خمینی شهر - میدان 22 بهمن - بلوار توحید - بن بست شماره 13.,4-33632851-031 ( داخلی  ),http://lib.whc.ir,https://lib.ir/fa/library/476/كتابخانه-مدرسه-علمیه-خواهران-حضرت-زهرا-س/search/
کتابخانه مدرسه علمیه خواهران حضرت زهرا (س) دورود,لرستان,دو رود,,( داخلی  ),http://,https://lib.ir/fa/library/696/کتابخانه-مدرسه-علمیه-خواهران-حضرت-زهرا-س-دورود/search/
كتابخانه مدرسه علمیه خواهران حضرت زینب (س),هرمزگان,میناب,میناب - بلوار امام خمینی (ره) - كوچه 94 - سمت چپ - كوچه چهارم.,6-42228205-076 ( داخلی  ),http://lib.whc.ir,https://lib.ir/fa/library/481/كتابخانه-مدرسه-علمیه-خواهران-حضرت-زینب-س/search/
كتابخانه مدرسه علمیه خواهران حضرت زینب (س),کرمان,كرمان,كرمان - انتهای خیابان شهید رجایی - بعد از پل - حد فاصل شهرك ولایت و افضلی پور .,33412727-034 ( داخلی  ),http://lib.whc.ir,https://lib.ir/fa/library/482/كتابخانه-مدرسه-علمیه-خواهران-حضرت-زینب-س/search/
كتابخانه مدرسه علمیه خواهران حضرت زینب (س),یزد,يزد,یزد - میدان حضرت ابوالفضل - بلوار آزادگان - اولین بریدگی - کوچه شهید موحدین.,37230881-035 ( داخلی  ),http://,https://lib.ir/fa/library/363/كتابخانه-مدرسه-علمیه-خواهران-حضرت-زینب-س/search/
كتابخانه مدرسه علمیه خواهران حضرت زينب (س),اصفهان,آران و بيدگل,آران و بیدگل _ میدان ولی عصر(عج) _ بلوار شهید قاسمپور _ مدرسه علمیه حضرت زینب (س).,54724202-031 ( داخلی  ),http://h-zeynabqom.whc.ir,https://lib.ir/fa/library/297/كتابخانه-مدرسه-علمیه-خواهران-حضرت-زينب-س/search/
کتابخانه مدرسه علمیه خواهران حضرت زینب (س) امیدیه,خوزستان,امیدیه,امیدیه- پشت بازارمهاجرین- كوچه زینبیه-  روبروی خوابگاه دانشجویی.,061526520330 ( داخلی  ),http://,https://lib.ir/fa/library/732/کتابخانه-مدرسه-علمیه-خواهران-حضرت-زینب-س-امیدیه/search/
كتابخانه مدرسه علمیه خواهران حضرت عبدالعظیم (ع),تهران,شهر رى,تهران - میدان مدرس - انتهای خیابان هلال احمر - ضلع جنوبی حرم مطهر حضرت عبدالعظیم(ع).,51223325-021 ( داخلی  ),http://lib.whc.ir,https://lib.ir/fa/library/464/كتابخانه-مدرسه-علمیه-خواهران-حضرت-عبدالعظیم-ع/search/
كتابخانه مدرسه علمیه خواهران حضرت فاطمه (س),تهران,تهران,تهران - خیابان پیروزی - خیابان مقداد - فلكه دوم مقداد- پلاك 38 .,33051213-021 ( داخلی  ),http://lib.whc.ir,https://lib.ir/fa/library/466/كتابخانه-مدرسه-علمیه-خواهران-حضرت-فاطمه-س/search/
کتابخانه مدرسه علمیه خواهران حضرت فاطمه (س) رفسنجان,کرمان,رفسنجان,رفسنجان- خیابان شهید مطهری- کوچه 17- خیابان شهید وجدانی- روبروی آهن فروشی مقصودی,03434325561 ( داخلی  ),http://,https://lib.ir/fa/library/712/کتابخانه-مدرسه-علمیه-خواهران-حضرت-فاطمه-س-رفسنجان/search/
کتابخانه مدرسه علمیه خواهران حضرت معصومه (س) جعفریه,قم,جعفریه,جعفریه- خیابان امام خمینی (ره)- جنب مسجد خاتم الانبیا,02536223444 ( داخلی  ),http://,https://lib.ir/fa/library/717/کتابخانه-مدرسه-علمیه-خواهران-حضرت-معصومه-س-جعفریه/search/
کتابخانه مدرسه علمیه خواهران حضرت نرجس (س) ساری,مازندران,ساری,ساری- میدان خزر- كمر بندی شرقی- ضلع شرقی- سپاه كربلا,01133701690 ( داخلی  ),http://,https://lib.ir/fa/library/676/کتابخانه-مدرسه-علمیه-خواهران-حضرت-نرجس-س-ساری/search/
کتابخانه مدرسه علمیه خواهران حضرت نرجس (س) نجف آباد (یزدانشهر),اصفهان,نجف آباد,یزدانشهر- بلوار آیت الله مطهری- نبش خیابان ششم شرقی- پلاك 2,03142450672 ( داخلی  ),http://,https://lib.ir/fa/library/678/کتابخانه-مدرسه-علمیه-خواهران-حضرت-نرجس-س-نجف-آباد-یزدانشهر/search/
كتابخانه مدرسه علمیه خواهران حضرت ولی عصر (عج),تهران,تهران,تهران - خیابان جمهوری اسلامی - خیابان جمالزاده جنوبی - کوچه آیرم - پ 19 .,66928251-021 ( داخلی  ),http://Valiasr.whc.ir,https://lib.ir/fa/library/596/كتابخانه-مدرسه-علمیه-خواهران-حضرت-ولی-عصر-عج/search/
کتابخانه مدرسه علمیه خواهران حضرت ولیعصر (ع) گرمی,اردبیل,گرمی,گرمی- محله هلال احمر- خیابان دكتر بهشتی- سه راه جهاد- جنب مسجد امام حسین (ع),04532641200 ( داخلی  ),http://,https://lib.ir/fa/library/751/کتابخانه-مدرسه-علمیه-خواهران-حضرت-ولیعصر-ع-گرمی/search/
کتابخانه مدرسه علمیه خواهران خاتم الاوصیاء (ع) فاضل آباد,گلستان,فاضل آباد,فاضل آباد- خیابان ولیعصر(عج)- بالاتر از مسجد جامع- جنب سازمان تبلیغات,01734263660 ( داخلی  ),http://,https://lib.ir/fa/library/703/کتابخانه-مدرسه-علمیه-خواهران-خاتم-الاوصیاء-ع-فاضل-آباد/search/
كتابخانه مدرسه علمیه خواهران رضویه (ع),خراسان رضوی,مشهد,مشهد مقدس - چهارراه شهدا - خیابان شیرازی - کوی 19 - پلاک 19 - مدرسه علمیه رضویه.,05132222844 ( داخلی  ),http://mrazavieh.org,https://lib.ir/fa/library/554/كتابخانه-مدرسه-علمیه-خواهران-رضویه-ع/search/
کتابخانه مدرسه علمیه خواهران ریحانة النبی (ص) تهران,تهران,تهران,تهران- ولنجك- بلوار دانشجو- میدان یاسمن- ابتدای یاسمن هفتم- پلاك1,02122400780 ( داخلی  ),http://,https://lib.ir/fa/library/671/کتابخانه-مدرسه-علمیه-خواهران-ریحانة-النبی-ص-تهران/search/
كتابخانه مدرسه علمیه خواهران زهرای اطهر (س),تهران,تهران,تهران - خیابان وحدت اسلامی - پایین تر از چهار راه وحدت اسلامی - روبروی اداره آگاهی - خیابان شهید پهلوان حسن - پلاك 59 .,55890777-55156655-021 ( داخلی  ),http://lib.whc.ir,https://lib.ir/fa/library/468/كتابخانه-مدرسه-علمیه-خواهران-زهرای-اطهر-س/search/
کتابخانه مدرسه علمیه خواهران زهرائیه (س) نجف آباد,اصفهان,نجف آباد,نجف آباد- خیابان منتظری شمالی- كوچه شهید فقهی- پلاك 2,03142611995 ( داخلی  ),http://,https://lib.ir/fa/library/744/کتابخانه-مدرسه-علمیه-خواهران-زهرائیه-س-نجف-آباد/search/
كتابخانه مدرسه علمیه خواهران زینب كبری (س),تهران,تهران,تهران - پاسداران - خیابان گیلان - خیابان شهید مجید افشاری - جنب تالار ساقدوش - كوچه شهید جعفری - پلاك 7 .,7-22978296-021 ( داخلی  ),http://lib.whc.ir,https://lib.ir/fa/library/469/كتابخانه-مدرسه-علمیه-خواهران-زینب-كبری-س/search/
کتابخانه مدرسه علمیه خواهران زینب کبری (س) رفسنجان,کرمان,رفسنجان,رفسنجان- خیابان شهدا 4 - کوچه مسجد جامع,03434257400 ( داخلی  ),http://,https://lib.ir/fa/library/711/کتابخانه-مدرسه-علمیه-خواهران-زینب-کبری-س-رفسنجان/search/
کتابخانه مدرسه علمیه خواهران زینبیه (س) فارسان,چهار محال و بختیاری,فارسان,فارسان- میدان دفاع مقدس- بلوار آیت الله خامنه ای- حد فاصل بیمارستان و پاسگاه,03833227343 ( داخلی  ),http://,https://lib.ir/fa/library/734/کتابخانه-مدرسه-علمیه-خواهران-زینبیه-س-فارسان/search/
کتابخانه مدرسه علمیه خواهران زینبیه (س) کرج,البرز,كرج,كرج- خیابان كمربندی- چهارراه مصباح- خیابان شهید نجاری,02632706128 ( داخلی  ),http://,https://lib.ir/fa/library/737/کتابخانه-مدرسه-علمیه-خواهران-زینبیه-س-کرج/search/
كتابخانه مدرسه علمیه خواهران شهید مطهری,مازندران,تنكابن,تنكابن - پایین مصلی - خیابان ورزش -مقابل اداره تربیت بدنی.,54230561-011 ( داخلی  ),http://lib.whc.ir,https://lib.ir/fa/library/491/كتابخانه-مدرسه-علمیه-خواهران-شهید-مطهری/search/
کتابخانه مدرسه علمیه خواهران شهیده بنت الهدی صدر علی آباد کتول,گلستان,علی آباد كتول,علی آبادکتول- خیابان خضر- كوی مطهر,01734222835 ( داخلی  ),http://,https://lib.ir/fa/library/702/کتابخانه-مدرسه-علمیه-خواهران-شهیده-بنت-الهدی-صدر-علی-آباد-کتول/search/
كتابخانه مدرسه علمیه خواهران صدیقه فاطمه (س),گلستان,گرگان,گركان - خیابان امام خمینی (ره) - كوچه آفتاب 15 - فرعی اول سمت چپ - پشت مدرسه علمیه امام صادق (ع).,32234339-017 ( داخلی  ),http://lib.whc.ir,https://lib.ir/fa/library/480/كتابخانه-مدرسه-علمیه-خواهران-صدیقه-فاطمه-س/search/
کتابخانه مدرسه علمیه خواهران صدیقه کبری (س) بهار,همدان,بهار,بهار- میدان امام خمینی(ره)- فلكه حر- انتهای خیابان فداییان اسلام,08134503740 ( داخلی  ),http://,https://lib.ir/fa/library/688/کتابخانه-مدرسه-علمیه-خواهران-صدیقه-کبری-س-بهار/search/
کتابخانه مدرسه علمیه خواهران صدیقه کبری (س) گلپایگان,اصفهان,گلپایگان,گلپایگان- بعد از میدان معلم- جنب پمپCNG,03157471044 ( داخلی  ),http://,https://lib.ir/fa/library/677/کتابخانه-مدرسه-علمیه-خواهران-صدیقه-کبری-س-گلپایگان/search/
کتابخانه مدرسه علمیه خواهران عصمتیه سمنان,سمنان,سمنان,سمنان- شهرك مدیران- بالاتر از میدان پدران آسمانی- تقاطع چهار فصل,02333433412 ( داخلی  ),http://,https://lib.ir/fa/library/723/کتابخانه-مدرسه-علمیه-خواهران-عصمتیه-سمنان/search/
کتابخانه مدرسه علمیه خواهران فاطمة الزهرا (س) اراک,مرکزی,اراک,اراك- شهر صنعتی- میدان بنفشه- کانون امام جعفر صادق(ع),08633123554 ( داخلی  ),http://,https://lib.ir/fa/library/673/کتابخانه-مدرسه-علمیه-خواهران-فاطمة-الزهرا-س-اراک/search/
کتابخانه مدرسه علمیه خواهران فاطمة الزهرا (س) اهر,آذربایجان شرقی,اهر,اهر- میدان دفاع مقدس- روبروی كلانتری- طبقه دوم ساختمان سابق هلال احمر,04144240105 ( داخلی  ),http://,https://lib.ir/fa/library/672/کتابخانه-مدرسه-علمیه-خواهران-فاطمة-الزهرا-س-اهر/search/
كتابخانه مدرسه علمیه خواهران فاطمة الزهراء (س),یزد,اردكان,اردكان - بلوار شهید بهشتی - نرسیده به میدان چادرملو - پشت قنادی قدیر.,23229748-035 ( داخلی  ),http://lib.whc.ir,https://lib.ir/fa/library/493/كتابخانه-مدرسه-علمیه-خواهران-فاطمة-الزهراء-س/search/
كتابخانه مدرسه علمیه خواهران فاطمة الزهراء (س),مازندران,تنكابن,تنكابن - جنب امامزاده سید حسین (ع) - خیابان شهید بزرگی - كوچه امامزاده قاسم.,54375406-011 ( داخلی  ),http://lib.whc.ir,https://lib.ir/fa/library/489/كتابخانه-مدرسه-علمیه-خواهران-فاطمة-الزهراء-س/search/
كتابخانه مدرسه علمیه خواهران فاطمة الزهراء (س),اصفهان,خميني شهر,خمینی شهر - میدان آزادی - خیابان آیت الله جبل عاملی - كوچه گلشن - شماره 24 .,33640250-031 ( داخلی  ),http://lib.whc.ir,https://lib.ir/fa/library/475/كتابخانه-مدرسه-علمیه-خواهران-فاطمة-الزهراء-س/search/
كتابخانه مدرسه علمیه خواهران فاطمة الزهراء (س),فارس,داراب,داراب - بلورا جمهوری اسلامی - جنب امور عشایری.,53564460-071 ( داخلی  ),http://lib.whc.ir,https://lib.ir/fa/library/478/كتابخانه-مدرسه-علمیه-خواهران-فاطمة-الزهراء-س/search/
كتابخانه مدرسه علمیه خواهران فاطمة الزهراء (س),فارس,شیراز,شیراز - بلوار مدرس - بلوار فضیلت جنوبی - نرسیده به چهار را فضیلت - سمت راست - خیابان فیض.,2-37337440-071 ( داخلی  ),http://lib.whc.ir,https://lib.ir/fa/library/479/كتابخانه-مدرسه-علمیه-خواهران-فاطمة-الزهراء-س/search/
كتابخانه مدرسه علمیه خواهران فاطمه الزهراء (س),البرز,كرج,کرج - فاز ۴ مهرشهر - بلوارگلها - خیابان ۴۰۵ شرقی - مدرسه علمیه فاطمه الزهرا(س).,33554101-026 ( داخلی  ),http://,https://lib.ir/fa/library/345/كتابخانه-مدرسه-علمیه-خواهران-فاطمه-الزهراء-س/search/
کتابخانه مدرسه علمیه خواهران فاطمة الزهراء (س) اسلام آباد غرب,کرمانشاه,اسلام آباد غرب,اسلام آباد غرب- میدان شهید بهشتی- بلوار یادگار امام- روبروی CNG,08345244645 ( داخلی  ),http://,https://lib.ir/fa/library/708/کتابخانه-مدرسه-علمیه-خواهران-فاطمة-الزهراء-س-اسلام-آباد-غرب/search/
کتابخانه مدرسه علمیه خواهران فاطمة الزهراء (س) آمل,مازندران,آمل,آمل- دریایی16- خیابان شهید اسدی- ساختمان شهید اسدی,01144224434 ( داخلی  ),http://,https://lib.ir/fa/library/695/کتابخانه-مدرسه-علمیه-خواهران-فاطمة-الزهراء-س-آمل/search/
کتابخانه مدرسه علمیه خواهران فاطمة الزهراء (س) بم,کرمان,بم,بم- میدان امام خمینی ره- خیابان امام خمینی(ره)- کوچه شماره 12,03434220843 ( داخلی  ),http://,https://lib.ir/fa/library/713/کتابخانه-مدرسه-علمیه-خواهران-فاطمة-الزهراء-س-بم/search/
کتابخانه مدرسه علمیه خواهران فاطمة الزهراء (س) بندر ترکمن,گلستان,بندر ترکمن,بندرتركمن- خیابان آزادی- خیابان شهیدنیازی- جنب مخابرات جدید,01734422235 ( داخلی  ),http://,https://lib.ir/fa/library/704/کتابخانه-مدرسه-علمیه-خواهران-فاطمة-الزهراء-س-بندر-ترکمن/search/
کتابخانه مدرسه علمیه خواهران فاطمة الزهراء (س) بیجار,کردستان,بیجار,بیجار- بلوار امام- بلوار شهید رجائی- نبش کوچه کوثر,08738232030 ( داخلی  ),http://,https://lib.ir/fa/library/716/کتابخانه-مدرسه-علمیه-خواهران-فاطمة-الزهراء-س-بیجار/search/
کتابخانه مدرسه علمیه خواهران فاطمة الزهراء (س) تهران,تهران,تهران,تهران- بزرگراه اشرفی اصفهانی- پائین تر از میدان پونك- كوچه گلزار یكم- پلاك34,02144452510 ( داخلی  ),http://,https://lib.ir/fa/library/739/کتابخانه-مدرسه-علمیه-خواهران-فاطمة-الزهراء-س-تهران/search/
کتابخانه مدرسه علمیه خواهران فاطمة الزهراء (س) ساوه,مرکزی,ساوه,,( داخلی  ),http://,https://lib.ir/fa/library/690/کتابخانه-مدرسه-علمیه-خواهران-فاطمة-الزهراء-س-ساوه/search/
کتابخانه مدرسه علمیه خواهران فاطمة الزهراء (س) گله دار,فارس,گله دار,گله دار- بخش گله دار- جنب بانك انصارالمجاهدین,07152854405 ( داخلی  ),http://,https://lib.ir/fa/library/719/کتابخانه-مدرسه-علمیه-خواهران-فاطمة-الزهراء-س-گله-دار/search/
کتابخانه مدرسه علمیه خواهران فاطمه الزهراء (س) مرند,آذربایجان شرقی,مرند,مرند- شهرك میلاد- مدرسه علمیه فاطمه الزهرا(س),04142284044 ( داخلی  ),http://,https://lib.ir/fa/library/669/کتابخانه-مدرسه-علمیه-خواهران-فاطمه-الزهراء-س-مرند/search/
کتابخانه مدرسه علمیه خواهران فاطمه بنت اسد (س) بسطام,سمنان,بسطام,بسطام- انتهای خیابان مهدیه- نرسیده به پمپ بنزین,02332525138 ( داخلی  ),http://,https://lib.ir/fa/library/725/کتابخانه-مدرسه-علمیه-خواهران-فاطمه-بنت-اسد-س-بسطام/search/
کتابخانه مدرسه علمیه خواهران فاطمه (س) سقز,کردستان,سقز,سقز- شهرك دانشگاه- خیابان شهید مظهر- روبه روی خانه سالمندان مهر,08736224508 ( داخلی  ),http://,https://lib.ir/fa/library/715/کتابخانه-مدرسه-علمیه-خواهران-فاطمه-س-سقز/search/
كتابخانه مدرسه علمیه خواهران فاطمیه (س),تهران,پاكدشت,پاكدشت - خیابان شهید مطهری - جنب دانشگاه ابوریحان - بلوار شهدای گمنام - مصلای امام خمینی (ره).,33022670-021 ( داخلی  ),http://lib.whc.ir,https://lib.ir/fa/library/463/كتابخانه-مدرسه-علمیه-خواهران-فاطمیه-س/search/
كتابخانه مدرسه علمیه خواهران فاطمیه (س),اصفهان,اندان,خمینی شهر-خمینی شهر- میدان شهدا- خ مدرس- ک مدرسه علمیه فاطمیه- حوزه علمیه فاطمیه س.,33677295-031 ( داخلی  ),http://,https://lib.ir/fa/library/354/كتابخانه-مدرسه-علمیه-خواهران-فاطمیه-س/search/
كتابخانه مدرسه علمیه خواهران فاطمیه (س),البرز,كرج,كرج - میدان امام(ره) - خیابان چالوس - مسجد جامع - مدرسه علمیه فاطمیه(س).,32230492-026 ( داخلی  ),http://whc.net,https://lib.ir/fa/library/355/كتابخانه-مدرسه-علمیه-خواهران-فاطمیه-س/search/
كتابخانه مدرسه علمیه خواهران فاطمیه (س),کرمان,كرمان,كرمان - میدان شهدا(مشتاق)- جنب مسجد جامع- حوزه علمیه فاطمیه (س).,32267932-034 ( داخلی  ),http://blog114.womenhc.com,https://lib.ir/fa/library/356/كتابخانه-مدرسه-علمیه-خواهران-فاطمیه-س/search/
کتابخانه مدرسه علمیه خواهران فاطمیه (س) پیشوا,تهران,پیشوا,پیشوا- خیابان امام- خیابان كارگر- روبروی تربیت معلم,021367269559 ( داخلی  ),http://,https://lib.ir/fa/library/740/کتابخانه-مدرسه-علمیه-خواهران-فاطمیه-س-پیشوا/search/
کتابخانه مدرسه علمیه خواهران فاطمیه (س) تهران,تهران,تهران,تهران- پاسداران- بوستان نهم- پلاك129- روبروی درمانگاه لبافی نژاد,02122598047 ( داخلی  ),http://,https://lib.ir/fa/library/738/کتابخانه-مدرسه-علمیه-خواهران-فاطمیه-س-تهران/search/
کتابخانه مدرسه علمیه خواهران فاطمیه (س) خمینی شهر,اصفهان,خميني شهر,خمینی شهر- میدان شهدا- خیابان مدرس- كوچه فاطمیه,03133677295 ( داخلی  ),http://,https://lib.ir/fa/library/747/کتابخانه-مدرسه-علمیه-خواهران-فاطمیه-س-خمینی-شهر/search/
کتابخانه مدرسه علمیه خواهران فاطمیه (س) دامغان,سمنان,دامغان,دامغان- كمربندی سابق- شهرك بوستان- خیابان سنایی- جنب آموزشگاه ارمغان تربیت,02335263811 ( داخلی  ),http://,https://lib.ir/fa/library/724/کتابخانه-مدرسه-علمیه-خواهران-فاطمیه-س-دامغان/search/
کتابخانه مدرسه علمیه خواهران فاطمیه (س) شهرکرد,چهار محال و بختیاری,شهر كرد,شهركرد- میدان انقلاب- بلوار17شهریور- نبش كوچه35- پلاك2,03833335750 ( داخلی  ),http://,https://lib.ir/fa/library/735/کتابخانه-مدرسه-علمیه-خواهران-فاطمیه-س-شهرکرد/search/
کتابخانه مدرسه علمیه خواهران فاطمیه (س) شیراز,فارس,شیراز,شیراز- خیابان قصر الدشت- كوچه63- کنار امامزاده شاه قیس- حوزه فاطمیه (س),07136291725 ( داخلی  ),http://,https://lib.ir/fa/library/679/کتابخانه-مدرسه-علمیه-خواهران-فاطمیه-س-شیراز/search/
کتابخانه مدرسه علمیه خواهران فاطمیه (س) صومعه سرا,گیلان,صومعه سرا,صومعه سرا- خیاباى آیت الله طالقانی- روبروی فلکه عربان,01344323350 ( داخلی  ),http://,https://lib.ir/fa/library/698/کتابخانه-مدرسه-علمیه-خواهران-فاطمیه-س-صومعه-سرا/search/
کتابخانه مدرسه علمیه خواهران فاطمیه (س) نجف آباد,اصفهان,نجف آباد,نجف آباد- خیابان امام (ضلع غربی)- جنب مسجد جامع- بن بست حجاب(مركز شهر),03142639229 ( داخلی  ),http://,https://lib.ir/fa/library/743/کتابخانه-مدرسه-علمیه-خواهران-فاطمیه-س-نجف-آباد/search/
کتابخانه مدرسه علمیه خواهران فاطمیه (س) نقده,آذربایجان غربی,نقده,نقده- زمین های 53 هکتاری- خیابان مرصاد- جنب مسجد نبی اکرم (ص),0445677771 ( داخلی  ),http://,https://lib.ir/fa/library/753/کتابخانه-مدرسه-علمیه-خواهران-فاطمیه-س-نقده/search/
کتابخانه مدرسه علمیه خواهران فاطمیه (س) هادیشهر,آذربایجان شرقی,هادي شهر,جلفا- ابتدای بلوار رسالت- خیابان شهید تیمسار فلاحی,04142014740 ( داخلی  ),http://,https://lib.ir/fa/library/757/کتابخانه-مدرسه-علمیه-خواهران-فاطمیه-س-هادیشهر/search/
كتابخانه مدرسه علمیه خواهران محدثه (س),لرستان,بروجرد,بروجرد - خیابان شریعتی - كوچه ناصر خسرو (شهید محمد حسین عسگرپور) پلاك 14.,42446902-066 ( داخلی  ),http://lib.whc.ir,https://lib.ir/fa/library/486/كتابخانه-مدرسه-علمیه-خواهران-محدثه-س/search/
كتابخانه مدرسه علمیه خواهران مشكات اندیشه,تهران,تهران,تهران - خیابان خاوران - بعد از میدان ثامن الحجج(ع) - سمت راست - خیابان جنب مسجد سید الشهدا(ع)(8 متری سید الشهدا(ع).,33862500-021 ( داخلی  ),http://lib.whc.ir,https://lib.ir/fa/library/467/كتابخانه-مدرسه-علمیه-خواهران-مشكات-اندیشه/search/
کتابخانه مدرسه علمیه خواهران معصومیه (س) نهاوند,همدان,نهاوند,نهاوند- میدان امام-  انتهای مصلی,08133223367 ( داخلی  ),http://,https://lib.ir/fa/library/685/کتابخانه-مدرسه-علمیه-خواهران-معصومیه-س-نهاوند/search/
کتابخانه مدرسه علمیه خواهران معصومیه فهرج,کرمان,فهرج,,( داخلی  ),http://,https://lib.ir/fa/library/709/کتابخانه-مدرسه-علمیه-خواهران-معصومیه-فهرج/search/
کتابخانه مدرسه علمیه خواهران نرجسیه (س) سنقر,کرمانشاه,سنقر,سنقر- ضلع غربی- میدان امام خمینی(ره),08348421044 ( داخلی  ),http://,https://lib.ir/fa/library/707/کتابخانه-مدرسه-علمیه-خواهران-نرجسیه-س-سنقر/search/
کتابخانه مدرسه علمیه خواهران کریمه اهلبیت (س) خوانسار,اصفهان,خوانسار,خوانسار- بلوار معلم- پشت اداره اوقاف و امور خیریه- كوچه گلشن,03157233771 ( داخلی  ),http://,https://lib.ir/fa/library/746/کتابخانه-مدرسه-علمیه-خواهران-کریمه-اهلبیت-س-خوانسار/search/
كتابخانه مدرسه علمیه خواهران كوثر,اصفهان,كاشان,خيابان امام خمينى، جنب گلابچى، مدرسه علميه كوثر (س).,34442357-031 ( داخلی  ),http://kosar-kashan.womenhc.com,https://lib.ir/fa/library/359/كتابخانه-مدرسه-علمیه-خواهران-كوثر/search/
كتابخانه مدرسه علمیه خواهران كوثر,همدان,تویسرکان,تویسركان - میدان دفاع مقدس - جنب دفتر امام جمعه – روبروی پارك نبوت - مدرسه علمیه كوثر.,34923101-081 ( داخلی  ),http://kosar-toysarkan.womenhc.com,https://lib.ir/fa/library/361/كتابخانه-مدرسه-علمیه-خواهران-كوثر/search/
کتابخانه مدرسه علمیه خواهران کوثر (س) اصفهان,اصفهان,اصفهان,اصفهان- خیابان آیت الله كاشانی- روبروی امامزاده سید موسی - جنب خیابان میرداماد- بن بست مهر,10105029052 ( داخلی  ),http://,https://lib.ir/fa/library/748/کتابخانه-مدرسه-علمیه-خواهران-کوثر-س-اصفهان/search/
کتابخانه مدرسه علمیه خواهران کوثر (س) خرمشهر,خوزستان,خرمشهر,خرمشهر- كوی شاه عباس-  روبروی دانشگاه آزاد- مسجد آیت الله خامنه ای,06153543431 ( داخلی  ),http://,https://lib.ir/fa/library/730/کتابخانه-مدرسه-علمیه-خواهران-کوثر-س-خرمشهر/search/
کتابخانه مدرسه علمیه خواهران کوثر (س) زاویه,مرکزی,زاویه,زاویه- خیابان آسیا بك- خیابان بسیج- کوی شهید محمد رستگاری,08645228088 ( داخلی  ),http://,https://lib.ir/fa/library/691/کتابخانه-مدرسه-علمیه-خواهران-کوثر-س-زاویه/search/
كتابخانه مدرسه علمیه خواهران كوثریه,تهران,تهران,تهران - خیابان وحدت اسلامی - پائین تر از بیمارستان رازی - كوچه سید حسن خندان - انتهای كوچه مسجد علی بن ابیطالب (ع).,55603134-021 ( داخلی  ),http://lib.whc.ir,https://lib.ir/fa/library/457/كتابخانه-مدرسه-علمیه-خواهران-كوثریه/search/
كتابخانه مدرسه علمیه شهید آیت الله صدوقی,خراسان رضوی,مشهد,مشهد مقدس - میدان شهدا – خیابان آیت الله عبادی – بین عبادی 6 و 8 – مدرسه علمیه آیت الله شهید صدوقی,37251196-051 ( داخلی  ),http://,https://lib.ir/fa/library/777/كتابخانه-مدرسه-علمیه-شهید-آیت-الله-صدوقی/search/
کتابخانه مدرسه علمیه عالی نواب,خراسان رضوی,مشهد,خراسان رضوی - مشهد - حرم مطهر، اول خیابان شیرازی مدرسه علمیه عالی نواب,05132259559 ( داخلی 229 ),http://h-navvab.ir,https://lib.ir/fa/library/444/کتابخانه-مدرسه-علمیه-عالی-نواب/search/
کتابخانه مدرسه علمیه عصمتیه بابل,مازندران,بابل,بابل- خیابان امام خمینی(ره)- چهارسوق- پشت مسجد كاظم بیك- محله باقرناظر- فاضل استرآبادی6- مقابل تكیه,01132295097 ( داخلی  ),http://,https://lib.ir/fa/library/693/کتابخانه-مدرسه-علمیه-عصمتیه-بابل/search/
کتابخانه مدرسه علمیه فاطمة الزهراء (س) سلماس,آذربایجان غربی,سلماس,سلماس- خیابان شهید چمران- پشت اداره دادگستری- جنب آپارتمان های سپهر,04435247565 ( داخلی  ),http://,https://lib.ir/fa/library/754/کتابخانه-مدرسه-علمیه-فاطمة-الزهراء-س-سلماس/search/
کتابخانه مدرسه علمیه فاطمة الزهراء (س) نجف آباد (ویلاشهر),اصفهان,نجف آباد,ویلاشهر- خیابان بهاران- خیابان 119- پلاك3,03142251800 ( داخلی  ),http://,https://lib.ir/fa/library/742/کتابخانه-مدرسه-علمیه-فاطمة-الزهراء-س-نجف-آباد-ویلاشهر/search/
کتابخانه مدرسه علمیه فاطمیه (س) الیگودرز,لرستان,اليگودرز,الیگودرز- شهرك الغدیر- روبروی ترمینال شهرستان,06643331460 ( داخلی  ),http://,https://lib.ir/fa/library/697/کتابخانه-مدرسه-علمیه-فاطمیه-س-الیگودرز/search/
کتابخانه مدرسه علمیه فاطمیه (س) بردسیر,کرمان,بردسیر,بردسیر- خیابان امام- کوچه برق- فرعی9,03433525030 ( داخلی  ),http://,https://lib.ir/fa/library/714/کتابخانه-مدرسه-علمیه-فاطمیه-س-بردسیر/search/
کتابخانه مدرسه علمیه فاطمیه (س) رودسر,گیلان,رودسر,رودسر- شهرک شهید انصاری- خیابان برقزان- جنب مسجد امام خمینی (ره),01342629007 ( داخلی  ),http://,https://lib.ir/fa/library/699/کتابخانه-مدرسه-علمیه-فاطمیه-س-رودسر/search/
كتابخانه مدرسه علمیه نرجس,خراسان رضوی,مشهد,مشهد مقدس - انتهاي خيابان دانش غربي - مدرسه علميه نرجس.,38544677-38595040-051 ( داخلی  ),http://m-narjes.com,https://lib.ir/fa/library/340/كتابخانه-مدرسه-علمیه-نرجس/search/
كتابخانه مدرسه فرزانگان قم,قم,قم,قم - شهرك امام خمینی (ره) - خیابان شهید مطهری.,32700246-025 ( داخلی  ),http://farzaneganqom.ir,https://lib.ir/fa/library/372/كتابخانه-مدرسه-فرزانگان-قم/search/
كتابخانه مدرسه فقهی امام باقر (ع),قم,قم,قم - خیابان شهدا - انتهای كوچه 19 - سمت راست - مدرسه فقهی امام محمد باقر علیه السلام.,37741514-025 ( داخلی  ),http://mfeb.ir,https://lib.ir/fa/library/370/كتابخانه-مدرسه-فقهی-امام-باقر-ع/search/
کتابخانه مدیریت بحران (کتابخانه های سازمان فرهنگی هنری شهرداری تهران),تهران,تهران,تهران - انتهای بزرگراه جلال آل احمد- نرسیده به بزرگراه آیت اله اشرفی اصفهانی- نبش خیابان نهم شمالی- سازمان پیشگیری و مدیریت بحران شهر تهران.,44244040-021 ( داخلی  ),http://tlib.ir,https://lib.ir/fa/library/637/کتابخانه-مدیریت-بحران-کتابخانه-های-سازمان-فرهنگی-هنری-شهرداری-تهران/search/
كتابخانه مرتضوى (آستان قدس رضوی ع),کرمان,رفسنجان,رفسنجان - بلوار آیت الله طالقاني - چهارراه اميركبير.,34259751-034 ( داخلی  ),http://aqlibrary.org/libraries/lib30.aspx,https://lib.ir/fa/library/165/كتابخانه-مرتضوى-آستان-قدس-رضوی-ع/search/
كتابخانه مروج (آستان قدس رضوی ع),یزد,يزد,يزد - خيابان شهيد چمران - كتابخانه مروج.,36231112-035 ( داخلی  ),http://aqlibrary.org/libraries/lib29.aspx,https://lib.ir/fa/library/146/كتابخانه-مروج-آستان-قدس-رضوی-ع/search/
کتابخانه، مرکز اسناد و مدارک علمی پژوهشگاه حوزه و دانشگاه,قم,قم,دفتر قم مقدسه - شهرك پرديسان - بلوار دانشگاه - جنب دانشگاه آزاد اسلامى. دفتر تهران - خيابان انقلاب اسلامی - نرسيده به وصال شيرازی - كوچه اسكو - پلاك4 .,02532111301 ( داخلی  ),http://www.lib.rihu.ac.ir,https://lib.ir/fa/library/120/کتابخانه-مرکز-اسناد-و-مدارک-علمی-پژوهشگاه-حوزه-و-دانشگاه/search/
كتابخانه مركز اسناد و مركز دائرة المعارف بزرگ اسلامى,تهران,تهران,تهران - خيابان نياوران- كاشانك نرسيده به خيابان آجودانيه.,22297626-021 ( داخلی  ),http://cgie.org.ir,https://lib.ir/fa/library/184/كتابخانه-مركز-اسناد-و-مركز-دائرة-المعارف-بزرگ-اسلامى/search/
كتابخانه مركز آموزش عالی ثامن الحجج (ع),خراسان رضوی,مشهد,مشهد مقدس- بلوار دانشجو - نبش دانشجوی 33 - مركز آموزش عالی ثامن الحجج (ع),38924330-051 ( داخلی  ),http://samen.te.cfu.ac.ir,https://lib.ir/fa/library/495/كتابخانه-مركز-آموزش-عالی-ثامن-الحجج-ع/search/
كتابخانه مركز آموزش عالی دانشور نيشابور (دانشگاه فرهنگيان),خراسان رضوی,نيشابور,نیشابور- بلوار جمهوری اسلامی – مركز آموزش عالی دانشور.,42226068-42217550-42226209-051 ( داخلی  ),http://tmd.te.cfu.ac.ir,https://lib.ir/fa/library/296/كتابخانه-مركز-آموزش-عالی-دانشور-نيشابور-دانشگاه-فرهنگيان/search/
كتابخانه مركز آموزشی، درمانی، روانپزشكی رازی,تهران,تهران,شهرری – امین آباد- مركز آموزشی، درمانی،روانپزشكی رازی.,33401603-021 ( داخلی  ),http://razi.uswr.ac.ir,https://lib.ir/fa/library/441/كتابخانه-مركز-آموزشی-درمانی-روانپزشكی-رازی/search/
کتابخانه مرکز بررسی های اسلامی قم,قم,قم,قم مقدسه - شهرک پردیسان - بلوار دانشگاه - بلوار سلمان – خیابان شهید کوچکی زاده – خیابان شهید مخلصی - کتابخانه مرکز بررسی های اسلامی,37741423-025 ( داخلی  ),http://iscq.ir,https://lib.ir/fa/library/578/کتابخانه-مرکز-بررسی-های-اسلامی-قم/search/
کتابخانه مرکز بین المللی آموزش زبان فارسی دانشگاه تهران,تهران,تهران,تهران- خیابان ولی عصر- ایستگاه پسیان- موسسه لغتنامه دهخدا و مرکز بین المللی آموزش زبان فارسی- شماره 3011 .,22719495 ( داخلی  ),http://icps.ut.ac.ir/shahidi%20library.html,https://lib.ir/fa/library/533/کتابخانه-مرکز-بین-المللی-آموزش-زبان-فارسی-دانشگاه-تهران/search/
کتابخانه مرکز پژوهش متالورژی رازی,تهران,تهران,تهران - كیلومتر ۲۱ جاده مخصوص كرج - ورودی شهر قدس - خیابان فرنان - انتهای خیابان - پلاک ۸ - مركز پژوهش متالورژی رازی.,46831570-021 ( داخلی 371 ),http://lib.razi-center.net/simwebclt/WebAccess/SimwebPortal.dll,https://lib.ir/fa/library/600/کتابخانه-مرکز-پژوهش-متالورژی-رازی/search/
کتابخانه مركز پژوهش های اسلامی و دانشكده صدا و سيما,قم,قم,قم مقدسه – بلوار امین (ص) – صدا و سیما – مركز پژوهشهای اسلامی صدا و سیما.,32920077-025 ( داخلی  ),http://lib.iriblib.ir,https://lib.ir/fa/library/104/کتابخانه-مركز-پژوهش-های-اسلامی-و-دانشكده-صدا-و-سيما/search/
كتابخانه مركز پژوهشی دائرة المعارف علوم عقلی اسلامى,قم,قم,قم مقدسه - شهرك پرديسان - شعبه 2 موسسه آموزشي و پژوهشي امام خميني (ره)- مركز پژوهشي دائرةالمعارف علوم عقلي اسلامى.,02532113739 ( داخلی  ),http://dmaaref.iki.ac.ir,https://lib.ir/fa/library/318/كتابخانه-مركز-پژوهشی-دائرة-المعارف-علوم-عقلی-اسلامى/search/
كتابخانه مركز تحقيقات امام علی علیه السلام,تهران,تهران,تهران - خیابان کریمخان - بین خیابان شهید قرنی و ایرانشهر - پلاک 178 .,88317196-021 ( داخلی  ),http://imamali.ac.ir,https://lib.ir/fa/library/109/كتابخانه-مركز-تحقيقات-امام-علی-علیه-السلام/search/
كتابخانه مركز تحقيقات آموزش و پرورش,قم,قم,قم مقدسه - گلزار شهدا – جنب هنرستان شهيد رجايى- مركز تحقيقات آموزش و پرورش.,37737766-025 ( داخلی  ),http://,https://lib.ir/fa/library/180/كتابخانه-مركز-تحقيقات-آموزش-و-پرورش/search/
کتابخانه مرکز تحقیقات بین المللی بیابان دانشگاه تهران,تهران,تهران,تهران- بلوار کشاورز- خیابان قدس- نبش کوچه شاهد- پلاک37- طبقه چهارم- مرکز تحقیقات بین المللی بیابان.,88971717-88973295 ( داخلی  ),http://desert.ut.ac.ir,https://lib.ir/fa/library/540/کتابخانه-مرکز-تحقیقات-بین-المللی-بیابان-دانشگاه-تهران/search/
کتابخانه مرکز تحقیقات‌ بیوشیمی‌- بیوفیزیک‌ دانشگاه تهران,تهران,تهران,تهران - دانشگاه تهران - ساختمان مركز تحقيقات بيوشيمي - بيوفيزيك.,66491147، 61113375 ( داخلی  ),http://ibb.ut.ac.ir,https://lib.ir/fa/library/538/کتابخانه-مرکز-تحقیقات-بیوشیمی--بیوفیزیک-دانشگاه-تهران/search/
کتابخانه مرکز تحقیقات رایانه ای حوزه علمیه اصفهان,اصفهان,اصفهان,اصفهان - خیابان شهید مطهری-ابتدای خیابان اردیبهشت جنوبی - مرکز تحقیقات رایانه ای حوزه علمیه اصفهان.,38137-031 ( داخلی 114 ),http://hozeh.org,https://lib.ir/fa/library/334/کتابخانه-مرکز-تحقیقات-رایانه-ای-حوزه-علمیه-اصفهان/search/
كتابخانه مرکز تحقیقات و آموزش كشاورزی و منابع طبیعی,قم,قم,قم - بلوار غدیر- جنب بوستان علوی - ساختمام سازمان جهاد کشاورزی - طبقه اول.,32126699-025 ( داخلی  ),http://qom.areo.ir,https://lib.ir/fa/library/390/كتابخانه-مرکز-تحقیقات-و-آموزش-كشاورزی-و-منابع-طبیعی/search/
کتابخانه مرکز علمی کاربردی معماری و شهرسازی شیخ بهایی (کتابخانه های سازمان فرهنگی هنری شهرداری تهران),تهران,تهران,تهران - بزرگراه نواب صفوی- بالاتر از میدان حق شناس- نبش خیابان جوانمرد- ساختمان دماوند۹,55433257-021 ( داخلی  ),http://tlib.ir,https://lib.ir/fa/library/636/کتابخانه-مرکز-علمی-کاربردی-معماری-و-شهرسازی-شیخ-بهایی-کتابخانه-های-سازمان-فرهنگی-هنری-شهرداری-تهران/search/
كتابخانه مركز ملی جهانی شدن,تهران,تهران,تهران ـ خیابان سعادت آباد ـ خیابان هجدهم غربي ـ پلاك 17 .,22073024-021 ( داخلی  ),http://globalization.ir,https://lib.ir/fa/library/402/كتابخانه-مركز-ملی-جهانی-شدن/search/
کتابخانه مرکزی آستان قدس رضوی,خراسان رضوی,مشهد,حرم مطهر ، بست شیخ طوسی کتابخانه مرکزی,05132210018 ( داخلی 3370 ),http://www.razavi.aqr.ir,https://lib.ir/fa/library/122/کتابخانه-مرکزی-آستان-قدس-رضوی/search/
كتابخانه مركزی آستان قدس رضوی (ع) - تالار جوانان پسر,خراسان رضوی,مشهد,مشهد مقدس - حرم مطهر امام رضا علیه السلام - بست شيخ طوسی - سازمان كتابخانه ها، موزه ها و مركز اسناد آستان قدس رضوی (ع).,8-32232004-051 ( داخلی  ),http://aqlibrary.org/about/centerlib.aspx,https://lib.ir/fa/library/128/كتابخانه-مركزی-آستان-قدس-رضوی-ع--تالار-جوانان-پسر/search/
كتابخانه مركزی آستان قدس رضوی (ع) - تالار جوانان دختر,خراسان رضوی,مشهد,مشهد مقدس - حرم مطهر امام رضا علیه السلام - بست شيخ طوسی - سازمان كتابخانه ها، موزه ها و مركز اسناد آستان قدس رضوی (ع).,8-32232004-051 ( داخلی  ),http://aqlibrary.org/about/centerlib.aspx,https://lib.ir/fa/library/127/كتابخانه-مركزی-آستان-قدس-رضوی-ع--تالار-جوانان-دختر/search/
كتابخانه مركزی آستان قدس رضوی (ع) - تالار قفسه باز آقايان,خراسان رضوی,مشهد,مشهد مقدس - حرم مطهر امام رضا علیه السلام - بست شيخ طوسي - سازمان كتابخانه ها، موزه ها و مركز اسناد آستان قدس رضوي (ع).,8-32232004-051 ( داخلی  ),http://aqlibrary.org/about/centerlib.aspx,https://lib.ir/fa/library/130/كتابخانه-مركزی-آستان-قدس-رضوی-ع--تالار-قفسه-باز-آقايان/search/
كتابخانه مركزی آستان قدس رضوی (ع) - تالار قفسه باز بانوان,خراسان رضوی,مشهد,مشهد مقدس - حرم مطهر امام رضا علیه السلام - بست شيخ طوسي - سازمان كتابخانه ها، موزه ها و مركز اسناد آستان قدس رضوي (ع).,8-32232004-051 ( داخلی  ),http://aqlibrary.org/about/centerlib.aspx,https://lib.ir/fa/library/131/كتابخانه-مركزی-آستان-قدس-رضوی-ع--تالار-قفسه-باز-بانوان/search/
كتابخانه مركزی آستان قدس رضوی (ع) - تالار نوجوان پسر,خراسان رضوی,مشهد,مشهد مقدس - حرم مطهر امام رضا علیه السلام - بست شيخ طوسي - سازمان كتابخانه ها، موزه ها و مركز اسناد آستان قدس رضوى.,8-32232004-051 ( داخلی  ),http://aqlibrary.org/about/centerlib.aspx,https://lib.ir/fa/library/134/كتابخانه-مركزی-آستان-قدس-رضوی-ع--تالار-نوجوان-پسر/search/
كتابخانه مركزی آستان قدس رضوی (ع) - تالار نوجوان دختر,خراسان رضوی,مشهد,مشهد مقدس - حرم مطهر امام رضا علیه السلام - بست شيخ طوسي - سازمان كتابخانه ها، موزه ها و مركز اسناد آستان قدس رضوى (ع).,8-32232004-051 ( داخلی  ),http://aqlibrary.org/about/centerlib.aspx,https://lib.ir/fa/library/135/كتابخانه-مركزی-آستان-قدس-رضوی-ع--تالار-نوجوان-دختر/search/
كتابخانه مركزی آستان قدس رضوی (ع) - گردش و امانت آقايان,خراسان رضوی,مشهد,مشهد مقدس - حرم مطهر امام رضا علیه السلام - بست شيخ طوسي - سازمان كتابخانه ها، موزه ها و مركز اسناد آستان قدس رضوي (ع).,8-32232004-051 ( داخلی  ),http://aqlibrary.org/about/centerlib.aspx,https://lib.ir/fa/library/132/كتابخانه-مركزی-آستان-قدس-رضوی-ع--گردش-و-امانت-آقايان/search/
كتابخانه مركزی آستان قدس رضوی (ع) - گردش و امانت بانوان,خراسان رضوی,مشهد,مشهد مقدس - حرم مطهر امام رضا علیه السلام - بست شيخ طوسي - سازمان كتابخانه ها، موزه ها و مركز اسناد آستان قدس رضوي (ع ).,8-32232004-051 ( داخلی  ),http://aqlibrary.org/about/centerlib.aspx,https://lib.ir/fa/library/133/كتابخانه-مركزی-آستان-قدس-رضوی-ع--گردش-و-امانت-بانوان/search/
كتابخانه مركزی امام جعفر صادق (ع),سیستان و بلوچستان,زاهدان,زاهدان - خیابان آزادی - جنب دفتر امام جمعه - حوزه علمیه امام جعفر صادق(ع).,33322711-054 ( داخلی  ),http://,https://lib.ir/fa/library/497/كتابخانه-مركزی-امام-جعفر-صادق-ع/search/
كتابخانه مركزی امور تربيتي قزوين,قزوین,قزوين,قزوین - خیابان آیت الله طالقانی - خیابان دارایی - ساختمان شهید چگینی - جنب دارالقرآن عترت.,33222314-028 ( داخلی  ),http://,https://lib.ir/fa/library/283/كتابخانه-مركزی-امور-تربيتي-قزوين/search/
کتابخانه مرکزی پردیس 1 فنی دانشگاه تهران,تهران,تهران,تهران-خیابان انقلاب- خیابان 16 آذر- دانشگاه تهران- پردیس دانشکده های فنی- کتابخانه پردیس مرکزی,61112227، 61112854 ، 61113031 ( داخلی  ),http://ut.ac.ir,https://lib.ir/fa/library/545/کتابخانه-مرکزی-پردیس-1-فنی-دانشگاه-تهران/search/
كتابخانه مركزی حوزه علميه احناف خواف,خراسان رضوی,خواف,خواف – خيابان پيراحمد – كتابخانه حوزه علميه احناف خواف,05154224293 ( داخلی  ),http://sunnatlib.blogfa.com,https://lib.ir/fa/library/778/كتابخانه-مركزی-حوزه-علميه-احناف-خواف/search/
كتابخانه مركزی حوزه های علميه خواهران (کوثر),قم,قم,قم مقدسه - بلوار امين (ص) - ميدان ارتش(ايران مرينوس)- كوچه الغدیر 1 (آتش نشانی) - مركز مديريت حوزه علميه خواهران.,32603373-32144353-025 ( داخلی  ),http://lib.whc.ir,https://lib.ir/fa/library/193/كتابخانه-مركزی-حوزه-های-علميه-خواهران-کوثر/search/
كتابخانه مركزی دارالعلوم زاهدان,سیستان و بلوچستان,زاهدان,زاهدان-خیابان خیام - خیابان توحید - جنب مسجد مكی.,33437740-054 ( داخلی  ),http://ketabmakki.mihanblog.com,https://lib.ir/fa/library/365/كتابخانه-مركزی-دارالعلوم-زاهدان/search/
کتابخانه مرکزی دانشگاه ایلام,ایلام,ايلام,ایلام – بلوار پژوهش –دانشگاه ایلام,08432221937 ( داخلی 238 ),http://Lib.ilam.ac.ir,https://lib.ir/fa/library/278/کتابخانه-مرکزی-دانشگاه-ایلام/search/
كتابخانه مركزی دانشگاه بين المللی امام خمينی (ره) قزوين,قزوین,قزوين,قزوين - بلوار دانشگاه - دانشگاه بين المللي امام خمينى (ره)- ساختمان كتابخانه مركزى.,33780050-028 ( داخلی  ),http://ikiu.ac.ir/farsi/research/library,https://lib.ir/fa/library/221/كتابخانه-مركزی-دانشگاه-بين-المللی-امام-خمينی-ره-قزوين/search/
كتابخانه مركزی دانشگاه حضرت معصومه (س),قم,قم,قم مقدسه - بلوار شهيد خداكرم - روبروي حوزه نظام وظيفه - كوچه 4 - دانشگاه حضرت معصومه (س).,33209030-025 ( داخلی 310 ),http://hmu.ac.ir,https://lib.ir/fa/library/452/كتابخانه-مركزی-دانشگاه-حضرت-معصومه-س/search/
کتابخانه مرکزی دانشگاه دولتی تربت حیدریه,خراسان رضوی,تربت حیدریه,تربت حیدریه - کیلومتر 7 جاده مشهد - دانشگاه دولتی تربت حیدریه.,05152299634 ( داخلی 154 ),http://Lib.torbath.ac.ir,https://lib.ir/fa/library/736/کتابخانه-مرکزی-دانشگاه-دولتی-تربت-حیدریه/search/
كتابخانه مركزی دانشگاه شهركرد,چهار محال و بختیاری,شهر كرد,شهر كرد - كيلومتر 2 جاده سامان- دانشگاه شهر كرد.,32324426-038 ( داخلی  ),http://lib.sku.ac.ir,https://lib.ir/fa/library/267/كتابخانه-مركزی-دانشگاه-شهركرد/search/
کتابخانه مرکزی دانشگاه صنعتی اصفهان,اصفهان,اصفهان,اصفهان - میدان استقلال - خ ازادگان - دانشگاه صنعتی اصفهان، کتابخانه مرکزی,33912520-031 ( داخلی  ),http://lib.iut.ac.ir,https://lib.ir/fa/library/604/کتابخانه-مرکزی-دانشگاه-صنعتی-اصفهان/search/
کتابخانه مرکزی دانشگاه صنعتی امیرکبیر,تهران,تهران,میدان ولیعصر- خیابان حافظ- پلاک ۳۵۰,۶۶۴۰۷۴۱۸(۰۲۱) – ۶۴۵۴۲۳۴۹(۰۲۱) ( داخلی  ),https://library.aut.ac.ir,https://lib.ir/fa/library/597/کتابخانه-مرکزی-دانشگاه-صنعتی-امیرکبیر/search/
کتابخانه مرکزی دانشگاه صنعتی شاهرود,سمنان,شاهرود,شاهرود. بلوار دانشگاه.دانشگاه صنعتی شاهرود. پردیس فناوریهای نوین,32300335-023 ( داخلی 3435 ),https://shahroodut.ac.ir/fa/sec/index.php?id=23,https://lib.ir/fa/library/201/کتابخانه-مرکزی-دانشگاه-صنعتی-شاهرود/search/
كتابخانه مركزی دانشگاه صنعتي شريف,تهران,تهران,تهران - خیابان آزادى - دانشگاه صنعتي شريف.,66005817-021 ( داخلی  ),http://library.sharif.ir,https://lib.ir/fa/library/230/كتابخانه-مركزی-دانشگاه-صنعتي-شريف/search/
کتابخانه مرکزی دانشگاه صنعتی همدان,همدان,همدان,همدان - خیابان شهیید فهمیده - خیابان مردم- دانشگاه صنعتی همدان,38411100-081 ( داخلی 103-104 ),http://hut.ac.ir/?fkeyid=&siteid=1&pageid=162,https://lib.ir/fa/library/603/کتابخانه-مرکزی-دانشگاه-صنعتی-همدان/search/
کتابخانه مرکزی دانشگاه علم و صنعت ایران,تهران,تهران,تهران - ميدان رسالت - خیابان هنگام - خیابان دانشگاه - دانشگاه علم و صنعت ايران.,8-77240540 ( داخلی 2316 - 2376 ),http://dl.iust.ac.ir,https://lib.ir/fa/library/558/کتابخانه-مرکزی-دانشگاه-علم-و-صنعت-ایران/search/
كتابخانه مركزی دانشگاه علوم بهزیستی و توانبخشی,تهران,تهران,تهران - اوین - بلوار دانشجو - بن بست كودكیار.,22180072-021 ( داخلی  ),http://lib.uswr.ac.ir,https://lib.ir/fa/library/498/كتابخانه-مركزی-دانشگاه-علوم-بهزیستی-و-توانبخشی/search/
كتابخانه مركزی دانشگاه علوم پزشكی اصفهان,اصفهان,اصفهان,اصفهان - خيابان هزار جريب - دانشگاه علوم پزشكي اصفهان - كتابخانه مركزى.,37922244-36687120-031 ( داخلی  ),http://lib.mui.ac.ir,https://lib.ir/fa/library/259/كتابخانه-مركزی-دانشگاه-علوم-پزشكی-اصفهان/search/
كتابخانه مركزی دانشگاه علوم پزشكی كاشان,اصفهان,كاشان,كاشان - بلوار علامه قطب راوندی - بلوار پزشك - دانشگاه علوم پزشك كاشان.,55577745-031 ( داخلی  ),http://kaums.ac.ir,https://lib.ir/fa/library/303/كتابخانه-مركزی-دانشگاه-علوم-پزشكی-كاشان/search/
كتابخانه مركزی دانشگاه قم,قم,قم,قم مقدسه - بلوار غدير (جاده قدیم اصفهان) - دانشگاه قم,32103324-32103323-025 ( داخلی 3327-3210-3347 ),https://lib.qom.ac.ir,https://lib.ir/fa/library/126/كتابخانه-مركزی-دانشگاه-قم/search/
کتابخانه مرکزی دانشگاه یاسوج (محمد بهمن بیگی),کهگیلویه و بویراحمد,یاسوج,یاسوج – روبوری ترمینال قدیم (سیزده آبان)- خیابان دانشجو – دانشگاه یاسوج کتابخانه مرکزی محمد بهمن بیگی,7431001420 ( داخلی  ),http://yu.ac.ir,https://lib.ir/fa/library/605/کتابخانه-مرکزی-دانشگاه-یاسوج-محمد-بهمن-بیگی/search/
كتابخانه مركزی دانشكده نفت اهواز,خوزستان,اهواز,اهواز - كوت عبدالله - انتهاي بزرگراه آيت ‌الله بهبهاني - ابتداي جاده آبادان.,35551059-061 ( داخلی  ),http://put.ac.ir,https://lib.ir/fa/library/263/كتابخانه-مركزی-دانشكده-نفت-اهواز/search/
کتابخانه مرکزی فرهنگستان زبان و ادب فارسی,تهران,تهران,تهران - بزرگراه حقانی - بعد از ایستگاه مترو حقانی – خروجی کتابخانه ملی ایران – فرهنگستان زبان و ادب فارسی,88642339-68 ( داخلی 88642495 ),http://Apll.ir,https://lib.ir/fa/library/456/کتابخانه-مرکزی-فرهنگستان-زبان-و-ادب-فارسی/search/
کتابخانه مرکزی قوه قضائیه,تهران,تهران,تهران - بلوار کشاورز - خیابان حجاب - نبش یکم - ساختمان مرکزی قوه قضائیه - طبقه همکف,42131053-021 ( داخلی  ),http://farhangionline.ir,https://lib.ir/fa/library/773/کتابخانه-مرکزی-قوه-قضائیه/search/
کتابخانه مرکزی مجتمع آموزش عالی امام خمینی (ره) - جامعه المصطفی (ص) العالمیه,قم,قم,خیابان 19 دی نبش میدان جهاد- مجتمع آموزش عالی امام خمینی (ره),37110210-025 ( داخلی  ),http://Dlib.miu.ac.ir,https://lib.ir/fa/library/111/کتابخانه-مرکزی-مجتمع-آموزش-عالی-امام-خمینی-ره--جامعه-المصطفی-ص-العالمیه/search/
کتابخانه مرکزی، مرکز اسناد و تامین منابع علمی دانشگاه صنعتی سهند,آذربایجان شرقی,سهند,تبریز، شهر جدید سهند، دانشگاه صنعتی سهند، کتابخانه مرکزی,04133443834 ( داخلی  ),https://library.sut.ac.ir,https://lib.ir/fa/library/302/کتابخانه-مرکزی-مرکز-اسناد-و-تامین-منابع-علمی-دانشگاه-صنعتی-سهند/search/
کتابخانه مرکزی، مرکز اسناد و موزه دانشگاه شهید بهشتی,تهران,تهران,تهران-اوین، ميدان شهيد شهرياری، دانشگاه شهید بهشتی، میدان اصلی دانشگاه روبروی درب دندانپزشکی، کتابخانه مرکزی، مرکز اسناد و موزه,22431916-021 ( داخلی 021-29902323 ),http://Library.sbu.ac.ir,https://lib.ir/fa/library/670/کتابخانه-مرکزی-مرکز-اسناد-و-موزه-دانشگاه-شهید-بهشتی/search/
کتابخانه مرکزی و مرکز اسناد دانشگاه اراک,مرکزی,اراک,اراک بلوار کربلا دانشگاه اراک,08632622404 ( داخلی 2404 ),http://www.digilib.araku.ac.ir,https://lib.ir/fa/library/445/کتابخانه-مرکزی-و-مرکز-اسناد-دانشگاه-اراک/search/
كتابخانه مركزی و مركز اسناد دانشگاه الزهراء (س),تهران,تهران,تهران - ونك - دانشگاه الزهرا (س).,88044040-021 ( داخلی  ),http://alzahra.ac.ir,https://lib.ir/fa/library/281/كتابخانه-مركزی-و-مركز-اسناد-دانشگاه-الزهراء-س/search/
كتابخانه مركزی و مركز اسناد دانشگاه تهران,تهران,تهران,تهران - ميدان انقلاب اسلامی - دانشگاه تهران - پرديس مركزی دانشگاه تهران.,66466179-61112362-021 ( داخلی  ),http://library.ut.ac.ir,https://lib.ir/fa/library/246/كتابخانه-مركزی-و-مركز-اسناد-دانشگاه-تهران/search/
کتابخانه مرکزي و مرکز اسناد دانشگاه سمنان,سمنان,سمنان,روبروي پارك سوکان – پردیس شماره یک دانشگاه سمنان – کتابخانه مرکزي و مرکز اسناد,( داخلی 02331535134 ),http://Https://Lib.semnan.ac.ir,https://lib.ir/fa/library/198/کتابخانه-مرکزي-و-مرکز-اسناد-دانشگاه-سمنان/search/
کتابخانه مرکزی و مرکز اسناد دانشگاه شهید باهنر کرمان,کرمان,كرمان,بزرگراه امام خمینی میدان افضلی پور دانشگاه شهید باهنر,03433257204 ( داخلی 03431323140 ),https://centlib.uk.ac.ir,https://lib.ir/fa/library/663/کتابخانه-مرکزی-و-مرکز-اسناد-دانشگاه-شهید-باهنر-کرمان/search/
كتابخانه مركزی و مركز اسناد دانشگاه شهيد چمران,خوزستان,اهواز,اهواز- بلوار گلستان - فلكه دانشگاه - دانشگاه شهيد چمران.,33360244-061 ( داخلی  ),http://libscu.ac.ir,https://lib.ir/fa/library/285/كتابخانه-مركزی-و-مركز-اسناد-دانشگاه-شهيد-چمران/search/
کتابخانه مرکزی و مرکز اسناد دانشگاه شهید مدنی آذربایجان,آذربایجان شرقی,تبریز,تبریز - کیلومتر 35 جاده تبریز مراغه - دانشگاه شهید مدنی,34327567-041 ( داخلی 2453 ),http://Plib.azaruniv.ac.ir,https://lib.ir/fa/library/601/کتابخانه-مرکزی-و-مرکز-اسناد-دانشگاه-شهید-مدنی-آذربایجان/search/
كتابخانه مركزی و مركز اسناد دانشگاه صنعتی خواجه نصير الدين طوسى,تهران,تهران,تهران- میرداماد غربی - پلاك 470 - طبقه چهارم - كتابخانه مركزي دانشگاه.,88881052-88881042-021 ( داخلی  ),http://library.kntu.ac.ir,https://lib.ir/fa/library/270/كتابخانه-مركزی-و-مركز-اسناد-دانشگاه-صنعتی-خواجه-نصير-الدين-طوسى/search/
كتابخانه مركزی و مركز اسناد دانشگاه علامه طباطبایی,تهران,تهران,تهران-خیابان كارگر جنوبی - چهارراه لشكر - جنب پمپ بنزین – ساختمان تخصصی آزاد.,39-55420036-021 ( داخلی  ),http://library.atu.ac.ir,https://lib.ir/fa/library/279/كتابخانه-مركزی-و-مركز-اسناد-دانشگاه-علامه-طباطبایی/search/
کتابخانه مرکزی و مرکز اسناد دانشگاه گلستان,گلستان,گرگان,خیابان شهید بهشتی- دانشگاه گلستان- کتابخانه مرکزی و مرکز اسناد,01732254168 و 01732254164 ( داخلی 327 ),http://gu.ac.ir/library/HomePage,https://lib.ir/fa/library/446/کتابخانه-مرکزی-و-مرکز-اسناد-دانشگاه-گلستان/search/
كتابخانه مركزی و مركز اسناد دانشگاه گيلان,گیلان,رشت,رشت - كيلومتر 10 جاده تهران - مجتمع دانشگاه گيلان.,7-33690445-013 ( داخلی  ),http://Library.gvilan.ac.ir,https://lib.ir/fa/library/271/كتابخانه-مركزی-و-مركز-اسناد-دانشگاه-گيلان/search/
كتابخانه مركزی و مركز اسناد دانشگاه مازندران,مازندران,بابلسر,بابلسر - پرديس دانشگاه مازنداران - كتابخانه مركزي و مركز اسناد.,62-35302861-011 ( داخلی  ),http://clib.umz.ac.ir,https://lib.ir/fa/library/261/كتابخانه-مركزی-و-مركز-اسناد-دانشگاه-مازندران/search/
كتابخانه مركزی و مركز اسناد شهيد مطهری دانشگاه رازى,کرمانشاه,كرمانشاه,كرمانشاه - باغ ابريشم - دانشگاه رازي - كتاب رازى.,34274531-083 ( داخلی  ),http://razi.ac.ir,https://lib.ir/fa/library/272/كتابخانه-مركزی-و-مركز-اسناد-شهيد-مطهری-دانشگاه-رازى/search/
کتابخانه مرکزی و مرکز اسناد شهید مطهری دانشگاه ولی عصر(عج),کرمان,رفسنجان,رفسنجان - میدان 22 بهمن - ابتدای جاده یزد - دانشگاه ولی عصر(عج),20-31312512-034 ( داخلی  ),http://Library.vru.ac.ir,https://lib.ir/fa/library/767/کتابخانه-مرکزی-و-مرکز-اسناد-شهید-مطهری-دانشگاه-ولی-عصر-عج/search/
کتابخانه مرکزی و مرکز اسناد و انتشارات دانشگاه تبریز,آذربایجان شرقی,تبریز,تبریز، بلوار 29 بهمن، دانشگاه تبریز، کتابخانه مرکزی، مرکز اسناد و انتشارات دانشگاه,04133294120-04133294118 ( داخلی  ),http://?http://lib.tabrizu.ac.ir,https://lib.ir/fa/library/301/کتابخانه-مرکزی-و-مرکز-اسناد-و-انتشارات-دانشگاه-تبریز/search/
کتابخانه مرکزی و مرکز اطلاع رسانی دانشگاه بیرجند,خراسان جنوبی,بيرجند,بیرجند- انتهای بلوار شهید آوینی- دانشگاه بیرجند,056-32202143  ( داخلی 306 ),http://Lib.birjand.ac.ir,https://lib.ir/fa/library/759/کتابخانه-مرکزی-و-مرکز-اطلاع-رسانی-دانشگاه-بیرجند/search/
کتابخانه مرکزی و مرکز اطلاع رسانی دانشگاه حکیم سبزواری,خراسان رضوی,سبزوار,سبزوار - بالاتر از توحید شهر - پردیس دانشگاه حكیم سبزواری - کتابخانه مرکزی.,44012672-051 ( داخلی  ),http://hsu.ac.ir/lib,https://lib.ir/fa/library/392/کتابخانه-مرکزی-و-مرکز-اطلاع-رسانی-دانشگاه-حکیم-سبزواری/search/
كتابخانه مركزی و مركز اطلاع رسانی دانشگاه شاهد,تهران,تهران,تهران - بزرگراه خلیج فارس - نرسیده به عوارضی تهران قم - روبروی حرم امام خمینی (ره) - دانشگاه شاهد.,51214110-021 ( داخلی  ),http://shahed.ac.ir/lib,https://lib.ir/fa/library/231/كتابخانه-مركزی-و-مركز-اطلاع-رسانی-دانشگاه-شاهد/search/
کتابخانه مرکزی و مرکز اطلاع رسانی دانشگاه فردوسی مشهد,خراسان رضوی,مشهد,مشهد مقدس - میدان آزادی - پردیس دانشگاه فردوسی مشهد.,05138806503 ( داخلی  ),http://library.um.ac.ir,https://lib.ir/fa/library/560/کتابخانه-مرکزی-و-مرکز-اطلاع-رسانی-دانشگاه-فردوسی-مشهد/search/
کتابخانه مرکزی و مرکز اطلاع رسانی دانشگاه محقق اردبیلی ره,اردبیل,اردبیل,اردبیل - انتهای خیابان دانشگاه - دانشگاه محقق اردبیلی ره,90-33512081-045 ( داخلی 5069 ),http://lib.uma.ac.ir,https://lib.ir/fa/library/623/کتابخانه-مرکزی-و-مرکز-اطلاع-رسانی-دانشگاه-محقق-اردبیلی-ره/search/
کتابخانه مرکزی و مرکز اطلاع رسانی شهرداری اصفهان,اصفهان,اصفهان,اصفهان - میدان امام حسین ع - خیابان باغ گلدسته - نبش هشت بهشت.,32239934-031 ( داخلی  ),http://cle.ir,https://lib.ir/fa/library/557/کتابخانه-مرکزی-و-مرکز-اطلاع-رسانی-شهرداری-اصفهان/search/
کتابخانه مرکزی و مرکز نشر دانشگاه صنعتی بیرجند,خراسان جنوبی,بيرجند,بیرجند، میدان ابن حسام، بلوار صنعت و معدن، دانشگاه صنعتی بیرجند، کتابخانه مرکزی و مرکز نشر دانشگاه صنعتی بیرجند,32391259 056   و 05632391257 ( داخلی  ),http://Dlib.miu.ac.ir,https://lib.ir/fa/library/505/کتابخانه-مرکزی-و-مرکز-نشر-دانشگاه-صنعتی-بیرجند/search/
كتابخانه مركزی كانون اسلامی انصار,تهران,تهران,تهران- خیابان دكتر شریعتی - سه راه آیت الله طالقانی - پلاك 173.,8-77632007-021 ( داخلی  ),http://Kanoon-ansar.ir,https://lib.ir/fa/library/371/كتابخانه-مركزی-كانون-اسلامی-انصار/search/
كتابخانه مركزی كشاورزى,تهران,تهران,تهران- بزرگراه شهيد چمران - خيابان تابناك - سازمان تحقيقات آموزش و ترويج كشاورزى.,16-22414413-021 ( داخلی  ),http://agrisis.org,https://lib.ir/fa/library/262/كتابخانه-مركزی-كشاورزى/search/
کتابخانه مستقل تخصصی حضرت صاحب الزمان (عج),خراسان رضوی,مشهد,مشهد مقدس - خیابان فدائیان اسلام (نخریسی) - بین فدائیان 1 و 3 .,38533744-38533792-051 ( داخلی  ),http://mahdilib.gigfa.com,https://lib.ir/fa/library/547/کتابخانه-مستقل-تخصصی-حضرت-صاحب-الزمان-عج/search/
كتابخانه مسجد الرضا (ع) (آستان قدس رضوی),خراسان رضوی,مشهد,مشهد - احمدآباد – بلوار امام رضا (ع)- نبش رضا 36,05138445932 ( داخلی  ),http://,https://lib.ir/fa/library/139/كتابخانه-مسجد-الرضا-ع--آستان-قدس-رضوی/search/
کتابخانه مسجد النبی (ص) (کتابخانه های سازمان فرهنگی هنری شهرداری تهران),تهران,تهران,تهران - تهرانسر - بلوار لاله - خيابان شهيد طالبي - كوچه ۲۷ مركزی - كتابخانه مشاركتي مسجدالنبي صلی الله علیه و آله,44526462-021 ( داخلی  ),http://tlib.ir,https://lib.ir/fa/library/624/کتابخانه-مسجد-النبی-ص--کتابخانه-های-سازمان-فرهنگی-هنری-شهرداری-تهران/search/
کتابخانه مسجد امام جعفر صادق (ع) (آستان قدس رضوی ع),خراسان رضوی,مشهد,مشهد - بلوار وکیل آباد 36 - سرو 12,38945610-051 ( داخلی  ),http://,https://lib.ir/fa/library/726/کتابخانه-مسجد-امام-جعفر-صادق-ع--آستان-قدس-رضوی-ع/search/
كتابخانه مسجد امام صادق (ع) (آستان قدس رضوی ع),خراسان رضوی,مشهد,خيابان دانشگاه- روبروی دانشگاه 15 - کتابخانه امام صادق (ع),32222423-051 ( داخلی  ),http://aqlibrary.ir,https://lib.ir/fa/library/140/كتابخانه-مسجد-امام-صادق-ع--آستان-قدس-رضوی-ع/search/
كتابخانه مسجد بزرگ امام رضا (ع) (آستان قدس رضوی ع),خراسان رضوی,مشهد,کوی امیرالمومنین (ع)، ولیعصر 25,37633311-051 ( داخلی  ),http://aqlibrary.ir/libraries/lib12.aspx,https://lib.ir/fa/library/150/كتابخانه-مسجد-بزرگ-امام-رضا-ع--آستان-قدس-رضوی-ع/search/
کتابخانه مسجد پنجتن (ع) (آستان قدس رضوی ع),خراسان رضوی,مشهد,کوهسنگی –خیابان شهید بهشتی-بهشتی 40,05138415647 ( داخلی  ),http://,https://lib.ir/fa/library/731/کتابخانه-مسجد-پنجتن-ع--آستان-قدس-رضوی-ع/search/
كتابخانه مسجد حضرت سجاد (ع) (آستان قدس رضوی ع),خراسان رضوی,مشهد,مشهد مقدس - بلوار سجاد – سجاد 21 – نبش خیابان امین,36097737-051 ( داخلی  ),http://,https://lib.ir/fa/library/169/كتابخانه-مسجد-حضرت-سجاد-ع--آستان-قدس-رضوی-ع/search/
کتابخانه مسجد حضرت عباس (ع) (آستان قدس رضوی),خراسان رضوی,مشهد,مشهد - قاسم آباد . بلوار شاهد . شاهد 10,35149120-051 ( داخلی  ),http://,https://lib.ir/fa/library/788/کتابخانه-مسجد-حضرت-عباس-ع--آستان-قدس-رضوی/search/
كتابخانه مسجد زينبيه (س) (آستان قدس رضوی ع),خراسان رضوی,مشهد,بلوار مطهری شمالی _ مطهری شمالی 2 _ مسجد زینبیه _ کتابخانه مسجد زینبیه,37247114-051 ( داخلی  ),https://library.razavi.ir/aqlibraries,https://lib.ir/fa/library/149/كتابخانه-مسجد-زينبيه-س--آستان-قدس-رضوی-ع/search/
كتابخانه مسجد قبا (آستان قدس رضوی ع),خراسان رضوی,مشهد,خیام جنوبی 21 کتابخانه مسجد قبا,37636151-051 ( داخلی  ),http://aqlibrary.org,https://lib.ir/fa/library/148/كتابخانه-مسجد-قبا-آستان-قدس-رضوی-ع/search/
کتابخانه مسجد محمدیه (ص) (آستان قدس رضوی ع),خراسان رضوی,مشهد,طلاب - پیچ دوم تلگرد عطاحسینی 13 - مسجد جوادالائمه - کتابخانه محمدیه,32595737-051 ( داخلی  ),http://aqlibrary.org,https://lib.ir/fa/library/147/کتابخانه-مسجد-محمدیه-ص--آستان-قدس-رضوی-ع/search/
کتابخانه مطالعات اسلامی زن و خانواده (تهران),تهران,تهران,"تهران - بلوارکشاورز - خیابان نادری - کوچه شهید حجت‌دوست - پلاک ۵۶ -
مرکز تحقیقات زن و خانواده",88983944-021 ( داخلی  ),http://Wrc.ir,https://lib.ir/fa/library/594/کتابخانه-مطالعات-اسلامی-زن-و-خانواده-تهران/search/
کتابخانه مطالعات اسلامی زن و خانواده (قم),قم,قم,بلوار الغدیر، کوچه 10، پلاک 5، طبقه 3 مرکز تحقیقات زن و خانواده,32603357-025 ( داخلی 7 ),http://Wrc.ir,https://lib.ir/fa/library/593/کتابخانه-مطالعات-اسلامی-زن-و-خانواده-قم/search/
کتابخانه مطالعات فرهنگی (کتابخانه های سازمان فرهنگی هنری شهرداری تهران),تهران,تهران,تهران - چهارراه وليعصر عج -خيابان شهيد برادران مظفر شمالی- بن بست مهربان- پلاك ۲.,66483949-021 ( داخلی  ),http://tlib.ir,https://lib.ir/fa/library/635/کتابخانه-مطالعات-فرهنگی-کتابخانه-های-سازمان-فرهنگی-هنری-شهرداری-تهران/search/
كتابخانه معاونت امور فرهنگی مجمع جهانی اهل بيت علیهم السلام,قم,قم,قم مقدسه - بلوار جمهوري اسلامى - نبش كوچه 6 .,32131321-025 ( داخلی  ),http://abwa-cd.com,https://lib.ir/fa/library/199/كتابخانه-معاونت-امور-فرهنگی-مجمع-جهانی-اهل-بيت-علیهم-السلام/search/
کتابخانه معلم دانشگاه فرهنگیان پردیس الزهرا (س) سمنان,سمنان,سمنان,سمنان - نبش میدان ارگ - دانشگاه فرهنگیان- پردیس الزهرا (س) سمنان (خواهران),33361709-023 ( داخلی 29 ),http://pas.te.cfu.ac.ir,https://lib.ir/fa/library/775/کتابخانه-معلم-دانشگاه-فرهنگیان-پردیس-الزهرا-س-سمنان/search/
کتابخانه مهر (کتابخانه های سازمان فرهنگی هنری شهرداری تهران),تهران,تهران,تهران - ميدان بهمن - بلوار شهيد تندگويان، بعداز پل شهيد لطيفي، ابتداي خاني‌آباد نو، بوستان بعثت، فرهنگسرای مهر,55035600-021 ( داخلی  ),http://tlib.ir,https://lib.ir/fa/library/570/کتابخانه-مهر-کتابخانه-های-سازمان-فرهنگی-هنری-شهرداری-تهران/search/
کتابخانه موزه مقدم دانشگاه تهران,تهران,تهران,تهران - خیابان امام خميني - بعد از خیابان شیخ هادی - جنب بانک ملت - پلاک 249.,66463144 ( داخلی  ),http://museums.ut.ac.ir,https://lib.ir/fa/library/536/کتابخانه-موزه-مقدم-دانشگاه-تهران/search/
كتابخانه مؤسسه آموزش عالی الزهراء (س) (خواهران),آذربایجان شرقی,تبریز,تبریز - خیابان شریعتی جنوبی - نرسیده به چهارراه هفده شهریور- خیابان لك لر.,9-35551998-041 ( داخلی  ),http://lib.whc.ir,https://lib.ir/fa/library/470/كتابخانه-مؤسسه-آموزش-عالی-الزهراء-س--خواهران/search/
کتابخانه موسسه آموزش عالی حوزوی امام حسین علیه السلام,یزد,يزد,یزد - بلوار جمهوری - کوچه چهارباغ - چهار راه اول - سمت راست,03535280020 ( داخلی 3 ),http://,https://lib.ir/fa/library/553/کتابخانه-موسسه-آموزش-عالی-حوزوی-امام-حسین-علیه-السلام/search/
كتابخانه مؤسسه آموزش عالی حوزوی خواهران كوثر,تهران,تهران,خیام - خبابان بهشت - خیابان شیخ فضل اله نوری - مجتمع كوثر .,55602857-021 ( داخلی  ),http://,https://lib.ir/fa/library/360/كتابخانه-مؤسسه-آموزش-عالی-حوزوی-خواهران-كوثر/search/
کتابخانه موسسه آموزش عالی حوزوی ریحانة النبی (ص) شیراز,فارس,شیراز,شیراز - چهارراه فضیلت - خیابان فیض,37337441-071 ( داخلی  ),http://,https://lib.ir/fa/library/668/کتابخانه-موسسه-آموزش-عالی-حوزوی-ریحانة-النبی-ص-شیراز/search/
کتابخانه موسسه آموزش عالی حوزوی فاطمه معصومه (س) بندرعباس,هرمزگان,بندر عباس,,( داخلی  ),http://,https://lib.ir/fa/library/667/کتابخانه-موسسه-آموزش-عالی-حوزوی-فاطمه-معصومه-س-بندرعباس/search/
کتابخانه موسسه آموزش عالی حوزوی معصومیه,قم,قم,قم - بلوار امین - سه راه سالاریه - به طرف میدان ارتش,32116298-025 ( داخلی  ),http://B2n.ir/p37182,https://lib.ir/fa/library/113/کتابخانه-موسسه-آموزش-عالی-حوزوی-معصومیه/search/
كتابخانه مؤسسه آموزشی و پژوهشی امام خمينی (ره),قم,قم,قم مقدسه - بلوار جمهوري اسلامى - موسسه آموزشی و پژوهشی امام خمينی (ره)- كتابخانه و مركز اسناد.,32113741-025 ( داخلی  ),http://QABAS.NET,https://lib.ir/fa/library/124/كتابخانه-مؤسسه-آموزشی-و-پژوهشی-امام-خمينی-ره/search/
کتابخانه موسسه باستان شناسی دانشگاه تهران,تهران,تهران,تهران- خيابان وليعصر – ايستگاه پسيان – مجتمع موقوفات دکتر محمود افشار- پلاك 1731.,22709204 ( داخلی  ),http://,https://lib.ir/fa/library/537/کتابخانه-موسسه-باستان-شناسی-دانشگاه-تهران/search/
کتابخانه موسسه حقوق تطبیقی دانشکده حقوق و علوم سیاسی دانشگاه تهران,تهران,تهران,تهران - ابتدای خیابان طالقانی - روبروی درب شرقی دانشگاه تهران - پلاک 590 .,66950254 ( داخلی  ),http://ut.ac.ir,https://lib.ir/fa/library/521/کتابخانه-موسسه-حقوق-تطبیقی-دانشکده-حقوق-و-علوم-سیاسی-دانشگاه-تهران/search/
کتابخانه موسسه روانشناسی و علوم تربیتی دانشگاه تهران (شهید دقایقی),تهران,تهران,تهران- بزرگراه جلال آل احمد- روبروی کوی نصر (گیشا)- خیابان دکتر کاردان- دانشکده روانشناسی و علوم تربیتی.,61117476-88275696  ( داخلی  ),http://psyedu.ut.ac.ir,https://lib.ir/fa/library/539/کتابخانه-موسسه-روانشناسی-و-علوم-تربیتی-دانشگاه-تهران-شهید-دقایقی/search/
کتابخانه موسسه ژئوفيزيك دانشگاه تهران,تهران,تهران,تهران- انتهاي كارگر شمالى- موسسه ژئوفيزيك دانشگاه تهران.,6-88001115 ( داخلی  ),http://geophysics.ut.ac.ir/Fa/bakhsh/Library.asp,https://lib.ir/fa/library/525/کتابخانه-موسسه-ژئوفيزيك-دانشگاه-تهران/search/
کتابخانه مؤسسه علمی فرهنگی دارالحدیث,قم,قم,قم مقدسه - بزرگراه امام علی علیه السلام - موسسه علمی فرهنگی دارالحديث.,37176415-025 ( داخلی  ),http://hadith.net,https://lib.ir/fa/library/100/کتابخانه-مؤسسه-علمی-فرهنگی-دارالحدیث/search/
کتابخانه موسسه لغتنامه دهخدا دانشگاه تهران,تهران,تهران,خیابان ولیعصر ، نرسیده به میدان تجریش ، ایستگاه پسیان ، موقوفات دکتر محمود افشار پلاک 3011,22731473-22700857 ( داخلی  ),http://ut.ac.ir/fa/contents/dehkhoda,https://lib.ir/fa/library/530/کتابخانه-موسسه-لغتنامه-دهخدا-دانشگاه-تهران/search/
کتابخانه مولانا (کتابخانه های سازمان فرهنگی هنری شهرداری تهران),تهران,تهران,تهران - شهرك غرب - بلوار شهيد دادمان - خیابان درختی - مركز خريد سپهر - طبقه دوم شرقی.,88578927-021 ( داخلی  ),http://tlib.ir,https://lib.ir/fa/library/625/کتابخانه-مولانا-کتابخانه-های-سازمان-فرهنگی-هنری-شهرداری-تهران/search/
کتابخانه میثاق (کتابخانه های سازمان فرهنگی هنری شهرداری تهران),تهران,تهران,تهران - فلكه دوم صادقيه - بلوار آيت ا... كاشاني - انتهاي خيابان مهران - خانه فرهنگ ميثاق.,44082461-021 ( داخلی  ),http://tlib.ir,https://lib.ir/fa/library/591/کتابخانه-میثاق-کتابخانه-های-سازمان-فرهنگی-هنری-شهرداری-تهران/search/
کتابخانه میرداماد,گلستان,گرگان,گرگان، بلوار شهید مفتح، نبش خیابان حوزه، موسسه فرهنگی میرداماد,01732426191 ( داخلی 3 ),http://www.mirdamad.org,https://lib.ir/fa/library/415/کتابخانه-میرداماد/search/
کتابخانه هدی (کتابخانه های سازمان فرهنگی هنری شهرداری تهران),تهران,تهران,تهران - خيابان قزوين- نرسيده به ميدان شمشيري- نبش خيابان كاظمي- فرهنگسراي قرآن.,55780004-021 ( داخلی  ),http://tlib.ir,https://lib.ir/fa/library/634/کتابخانه-هدی-کتابخانه-های-سازمان-فرهنگی-هنری-شهرداری-تهران/search/
كتابخانه هرندى (آستان قدس رضوی),کرمان,كرمان,كرمان - جنب مسجد جامع.,32262797-034 ( داخلی  ),http://aqlibrary.ir/libraries/lib31.aspx,https://lib.ir/fa/library/164/كتابخانه-هرندى-آستان-قدس-رضوی/search/
کتابخانه هشت بهشت (کتابخانه های سازمان فرهنگی هنری شهرداری تهران),تهران,تهران,تهران - خیابان انقلاب اسلامی- نبش خیابان شهید نامجو- مجتمع فرهنگی مذهبی امام رضا (ع),77680091-021 ( داخلی  ),http://tlib.ir,https://lib.ir/fa/library/632/کتابخانه-هشت-بهشت-کتابخانه-های-سازمان-فرهنگی-هنری-شهرداری-تهران/search/
کتابخانه هفت چنار (کتابخانه های سازمان فرهنگی هنری شهرداری تهران),تهران,تهران,تهران - ميدان بريانک - خیابان حسام الدین - کوچه شهید محقق - پارک ناظمی.,55787700-021 ( داخلی  ),http://tlib.ir,https://lib.ir/fa/library/626/کتابخانه-هفت-چنار-کتابخانه-های-سازمان-فرهنگی-هنری-شهرداری-تهران/search/
کتابخانه هنر (کتابخانه های سازمان فرهنگی هنری شهرداری تهران),تهران,تهران,تهران - خیابان دکتر شریعتی - بالاتر از پل سیدخندان - خیابان ارسباران(جلفا) - فرهنگسرای ارسباران.,20-22872818 ( داخلی 7 ),http://tlib.ir,https://lib.ir/fa/library/561/کتابخانه-هنر-کتابخانه-های-سازمان-فرهنگی-هنری-شهرداری-تهران/search/
کتابخانه هنگام (کتابخانه های سازمان فرهنگی هنری شهرداری تهران),تهران,تهران,تهران - بزرگراه رسالت، خيابان هنگام - خيابان دلاوران - خيابان آزادگان شمالي - فرهنگسراي هنگام.,77491491-021 ( داخلی  ),http://tlib.ir,https://lib.ir/fa/library/627/کتابخانه-هنگام-کتابخانه-های-سازمان-فرهنگی-هنری-شهرداری-تهران/search/
كتابخانه و پژوهشكده تخصصي قرآن و عترت (مهد قرآن حضرت جواد الائمه (ع)),یزد,يزد,يزد -چهارراه بعثت –ابتداي خيابان سيد گلسرخ –كوچه ششم –ساختمان شماره 70 موسسه مهد قرآن حضرت جواد الائمه(ع).,36265653-36267536-36264313-36224093-035 ( داخلی  ),http://Ketabmahdquran.blogfa.com,https://lib.ir/fa/library/551/كتابخانه-و-پژوهشكده-تخصصي-قرآن-و-عترت-مهد-قرآن-حضرت-جواد-الائمه-ع/search/
كتابخانه و مركز اسناد بنياد ايران شناسى,تهران,تهران,تهران ، خیابان شیخ بهایی جنوبی- شهرک والفجر – خیابان ایرانشناسی – بنیاد ایرانشناسی,8-88066146-021 ( داخلی  ),https://libiran.iranology.ir,https://lib.ir/fa/library/203/كتابخانه-و-مركز-اسناد-بنياد-ايران-شناسى/search/
کتابخانه و مرکز اسناد پژوهشگاه فرهنگ، هنر و ارتباطات,تهران,تهران,تهران - خیابان ولیعصر (ع) - پایین تر از میدان ولیعصر (ع) - خیابان دمشق - پلاک9 .,88917076-021 ( داخلی  ),http://Library.ricac.ac.ir,https://lib.ir/fa/library/510/کتابخانه-و-مرکز-اسناد-پژوهشگاه-فرهنگ-هنر-و-ارتباطات/search/
كتابخانه و مركز اسناد دانشگاه كردستان,کردستان,سنندج,سنندج - خیابان پاسداران - دانشگاه كردستان - كتابخانه مركزی و مركز اسناد.,33624006-087 ( داخلی  ),http://uok.ac.ir,https://lib.ir/fa/library/435/كتابخانه-و-مركز-اسناد-دانشگاه-كردستان/search/
كتابخانه و مركز اسناد سازمان پژوهشهای علمی و صنعتی ایران,تهران,تهران,تهران - جاده شهريار - فرعي حسن آباد - مجتمع تحقيقاتي عصر انقلاب.,7-56276326-021 ( داخلی  ),http://library.irost.ir,https://lib.ir/fa/library/194/كتابخانه-و-مركز-اسناد-سازمان-پژوهشهای-علمی-و-صنعتی-ایران/search/
کتابخانه و مرکز اسناد فرهنگستان هنر,تهران,تهران,تهران، خیابان ولی‌عصر (عج)، نرسیده به تقاطع طالقانی، فرهنگستان هنر، شماره ۱۵۵۲.,4-۶۶۹۷۴۷۹۳ ( داخلی  ),http://speciallibrary.honar.ac.ir,https://lib.ir/fa/library/633/کتابخانه-و-مرکز-اسناد-فرهنگستان-هنر/search/
کتابخانه و مرکز اطلاع رسانی آیت الله ایمانی دانشگاه سلمان فارسی,فارس,كازرون,کازرون- خیابان آیت الله طالقانی - دانشگاه سلمان فارسی,42226051-071 ( داخلی 177 ),http://kazerunsfu.ac.ir,https://lib.ir/fa/library/606/کتابخانه-و-مرکز-اطلاع-رسانی-آیت-الله-ایمانی-دانشگاه-سلمان-فارسی/search/
کتابخانه و مرکز اطلاع رسانی دانشگاه بین المللی امام رضا علیه السلام,خراسان رضوی,مشهد,خیابان دانشگاه – خیابان اسرار جنوبی – دانشگاه  بین المللی امام رضا (ع) – کتابخانه و مرکز اطلاع رسانی دانشگاه,05138041 ( داخلی 1406 ),http://Libportal.imamreza.ac.ir,https://lib.ir/fa/library/300/کتابخانه-و-مرکز-اطلاع-رسانی-دانشگاه-بین-المللی-امام-رضا-علیه-السلام/search/
کتابخانه و مرکز اطلاع رسانی شیخ بهائی (دفتر تبليغات اسلامی حوزه علميه خراسان),خراسان رضوی,مشهد,خیابان آیت الله خزعلی، بین کوچه روشن و مخابرات ، دفتر تبلیغات اسلامی,6-32233350 ( داخلی  ),http://Dtelib.ir,https://lib.ir/fa/library/780/کتابخانه-و-مرکز-اطلاع-رسانی-شیخ-بهائی-دفتر-تبليغات-اسلامی-حوزه-علميه-خراسان/search/
كتابخانه و مركز مدارک استانداری قم,قم,قم,قم مقدسه - فلكه جهاد - معاونت برنامه ريزی استانداری قم.,37117292-37117293-025 ( داخلی  ),http://,https://lib.ir/fa/library/117/كتابخانه-و-مركز-مدارک-استانداری-قم/search/
کتابخانه و مرکز یادگیری دانشکده پزشکی,تهران,تهران,تهران- خیابان قدس- خیابان پورسینا- درب شمالی دانشگاه تهران- دانشکده پزشکی,88953002 ( داخلی  ),https://medicine.tums.ac.ir/LIB,https://lib.ir/fa/library/781/کتابخانه-و-مرکز-یادگیری-دانشکده-پزشکی/search/
کتابخانه و موزه ملی ملک,تهران,تهران,تهران - خيابان امام خميني (ره) - خيابان ملل متحد (باغ ملي).,66743744-021 ( داخلی  ),http://malekmuseum.org/fa,https://lib.ir/fa/library/166/کتابخانه-و-موزه-ملی-ملک/search/
كتابخانه وزارت امور خارجه,تهران,تهران,تهران - خيابان شهيد باهنر(نياوران) - خيابان شهيد آقايي - شماره 23 - كتابخانه تخصصي (مجموعه شهيد باهنر).,30-22802729-021 ( داخلی  ),http://lpis.ir,https://lib.ir/fa/library/381/كتابخانه-وزارت-امور-خارجه/search/
کتابخانه کوثر دانشگاه قم,قم,قم,قم مقدسه - بلوار غدیر - دانشگاه قم - پردیس خواهران.,32103727-32103723-025 ( داخلی  ),http://qom.ac.ir,https://lib.ir/fa/library/549/کتابخانه-کوثر-دانشگاه-قم/search/
کتابخانه کوثر (کتابخانه های سازمان فرهنگی هنری شهرداری تهران),تهران,تهران,تهران - اكباتان - خيابان اصلي - روبروي مخابرات - خانه فرهنگ آيه.,44656424-021 ( داخلی  ),http://tlib.ir,https://lib.ir/fa/library/577/کتابخانه-کوثر-کتابخانه-های-سازمان-فرهنگی-هنری-شهرداری-تهران/search/
