name,province,city,address,phone_number,website,url
مجتمع عالی خواهران نمایندگی خراسان - جامعه المصطفی (ص) العالمیه,خراسان رضوی,مشهد,مشهد-خیابان مصلی-بین مصلی 9-11,05133694110 ( داخلی  ),http://Dlib.miu.ac.ir,https://lib.ir/fa/library/795/مجتمع-عالی-خواهران-نمایندگی-خراسان--جامعه-المصطفی-ص-العالمیه/search/
کتابخانه اداره کل پژوهش های اسلامی رسانه - دفتر نمایندگی خراسان,خراسان رضوی,مشهد,مشهد مقدس - خیابان امام خمینی (ره) - امام خمینی 25 - مجموعه فرهنگی و هنری صبا - طبقه سوم.,05132215106 ( داخلی  ),http://Lib.irib.ir,https://lib.ir/fa/library/556/کتابخانه-اداره-کل-پژوهش-های-اسلامی-رسانه--دفتر-نمایندگی-خراسان/search/
كتابخانه آیت الله حاج شيخ عباس تربتی (آستان قدس رضوی ع),خراسان رضوی,مشهد,مشهد مقدس - خواجه ربیع- روبروی یوسف زاده 11,37413999-051 ( داخلی  ),http://aqlibrary.ir/libraries/lib4.aspx,https://lib.ir/fa/library/141/كتابخانه-آیت-الله-حاج-شيخ-عباس-تربتی-آستان-قدس-رضوی-ع/search/
کتابخانه آیت الله حاج شیخ مجتبی قزوینی (آستان قدس رضوی ع),خراسان رضوی,مشهد,خیابان طبرسی - چهار راه مجلسی – مجلسی غربی 1 (رسالت 2),32766444-051 ( داخلی 32713070 - 051 ),https://library.razavi.ir/aqlibraries,https://lib.ir/fa/library/142/کتابخانه-آیت-الله-حاج-شیخ-مجتبی-قزوینی-آستان-قدس-رضوی-ع/search/
کتابخانه آیت الله حاج شیخ هاشم قزوینی (آستان قدس رضوی ع),خراسان رضوی,مشهد,بلوار شهید رستمی 38- محمدآباد 7,051-33668100  ( داخلی  ),http://www.razavi.aqr.ir,https://lib.ir/fa/library/143/کتابخانه-آیت-الله-حاج-شیخ-هاشم-قزوینی-آستان-قدس-رضوی-ع/search/
کتابخانه برادران نمایندگی خراسان - جامعه المصطفی (ص) العالمیه,خراسان رضوی,مشهد,مشهد – بلوار مدرس – نبش مدرس یک، جامعه المصطفی نمایندگی خراسان,05132211821 ( داخلی  ),http://Dlib.miu.ac.ir,https://lib.ir/fa/library/796/کتابخانه-برادران-نمایندگی-خراسان--جامعه-المصطفی-ص-العالمیه/search/
كتابخانه بنياد پژوهش های اسلامی آستان قدس رضوى (ع),خراسان رضوی,مشهد,مشهد مقدس - حرم مطهر دوربرگردان شیخ طبرسی - بنیاد پژوهشهاى اسلامى.,32232501-051 ( داخلی  ),http://islamic-rf.ir,https://lib.ir/fa/library/181/كتابخانه-بنياد-پژوهش-های-اسلامی-آستان-قدس-رضوى-ع/search/
كتابخانه پيغمبر (ص) (آستان قدس رضوی ع),خراسان رضوی,مشهد,مشهد مقدس - بلوار پيروزي - ميدان سلمان فارسى.,38794842-051 ( داخلی  ),http://aqlibrary.ir,https://lib.ir/fa/library/151/كتابخانه-پيغمبر-ص--آستان-قدس-رضوی-ع/search/
كتابخانه تخصصی ادبیات آستان قدس رضوی (ع),خراسان رضوی,مشهد,مشهد- حرم مطهر-  بست شیخ طوسی- کتابخانه مرکزی و مرکز اسناد آستان قدس رضوی- طبقه منهای یک,32232004-051 ( داخلی  ),http://aqlibrary.org/literature,https://lib.ir/fa/library/374/كتابخانه-تخصصی-ادبیات-آستان-قدس-رضوی-ع/search/
كتابخانه تخصصي اسناد (آستان قدس رضوی ع),خراسان رضوی,مشهد,مشهد مقدس - حرم مطهر امام رضا علیه السلام - ساختمان بنياد پژوهشهاي اسلامى - مديريت امور اسناد و مطبوعات.,32221149-051 ( داخلی  ),http://aqlibrary.org,https://lib.ir/fa/library/156/كتابخانه-تخصصي-اسناد-آستان-قدس-رضوی-ع/search/
کتابخانه تخصصی اقتصاد اسلامی آستان قدس رضوی (ع),خراسان رضوی,مشهد,,8-05112232004 ( داخلی 3359 ),http://islamiceconomics.aqlibrary.ir/,https://lib.ir/fa/library/515/کتابخانه-تخصصی-اقتصاد-اسلامی-آستان-قدس-رضوی-ع/search/
كتابخانه تخصصي امام رضا  (ع) (آستان قدس رضوی ع),خراسان رضوی,مشهد,مشهد مقدس - حرم مطهر امام رضا علیه السلام - بست شيخ بهايي - طبقه فوقاني كتابخانه گوهرشاد .,32223276-051 ( داخلی  ),http://aqlibrary.ir,https://lib.ir/fa/library/158/كتابخانه-تخصصي-امام-رضا--ع--آستان-قدس-رضوی-ع/search/
كتابخانه تخصصی اهل بیت (ع) مسجد گوهرشاد (آستان قدس رضوی ع),خراسان رضوی,مشهد,مشهد مقدس - حرم مطهر امام رضا علیه السلام - ورودی بست شيخ بهايي .,32223276-051 ( داخلی  ),http://aqlibrary.org,https://lib.ir/fa/library/138/كتابخانه-تخصصی-اهل-بیت-ع-مسجد-گوهرشاد-آستان-قدس-رضوی-ع/search/
كتابخانه تخصصي جغرافيا (آستان قدس رضوی ع),خراسان رضوی,مشهد,مشهد مقدس - حرم مطهر رضوی علیه السلام.,8-32232004 ( داخلی 3251 ),http://aqlibrary.ir,https://lib.ir/fa/library/155/كتابخانه-تخصصي-جغرافيا-آستان-قدس-رضوی-ع/search/
كتابخانه تخصصی دفاع مقدس,خراسان رضوی,مشهد,مشهد مقدس - بلوار امامت - روبروی امامت 18 - پارك ملت – مجنمع فرهنگی امام رضا(ع).,36091814-051 ( داخلی  ),http://mashadpl.ir,https://lib.ir/fa/library/410/كتابخانه-تخصصی-دفاع-مقدس/search/
كتابخانه تخصصی علوم قرآن و حدیث (آستان قدس رضوی ع),خراسان رضوی,مشهد,مشهد- آستان قدس رضوی- طبقه(۱-) کتابخانه مرکزی- مجاور تالار امانت مواد سمعی و بصری,32232004-051 ( داخلی 254 ),http://quran.aqlibrary.org,https://lib.ir/fa/library/376/كتابخانه-تخصصی-علوم-قرآن-و-حدیث-آستان-قدس-رضوی-ع/search/
كتابخانه تخصصی مخطوطات آستان قدس رضوی (ع),خراسان رضوی,مشهد,مشهد مقدس - حرم مطهر امام رضا علیه السلام.,8-32232004-051 ( داخلی 385 ),http://aqlibrary.org,https://lib.ir/fa/library/136/كتابخانه-تخصصی-مخطوطات-آستان-قدس-رضوی-ع/search/
كتابخانه تخصصی مطبوعات آستان قدس رضوی (ع),خراسان رضوی,مشهد,مشهد مقدس - حرم مطهر رضوى- ضلع شرقي دور برگردان طبرسى- ساختمان بنياد پژوهشهاي اسلامي قدس رضوى- مديريت امور اسناد ومطبوعات- گروه مطبوعات-كتابخانه تخصصی مطبوعات,32232501-051 ( داخلی 356 ),http://aqlibrary.org,https://lib.ir/fa/library/375/كتابخانه-تخصصی-مطبوعات-آستان-قدس-رضوی-ع/search/
كتابخانه تخصصی موزه آستان قدس رضوی (ع),خراسان رضوی,مشهد,مشهد مقدس -  حرم مطهر امام رضا علیه السلام - موزه مركزى.,32224570-051 ( داخلی  ),http://aqm.ir,https://lib.ir/fa/library/167/كتابخانه-تخصصی-موزه-آستان-قدس-رضوی-ع/search/
كتابخانه ثامن الائمه (ع) (آستان قدس رضوی ع),خراسان رضوی,مشهد,مشهد مقدس - بلوار شهيد موسوي قوچاني شمالى - مجتمع مسکونی ثامن الائمه(ع).,37123160-051 ( داخلی  ),http://aqlibrary.org,https://lib.ir/fa/library/168/كتابخانه-ثامن-الائمه-ع--آستان-قدس-رضوی-ع/search/
كتابخانه جامعة المصطفی (ص) العالمیه، واحد مشهد مقدس,خراسان رضوی,مشهد,مشهد مقدس - خیابان امام خمینی (ره)- کوجه شماره 14 - جامعه المصطفی العالمیه.,32233228-051 ( داخلی  ),http://miu.ac.ir,https://lib.ir/fa/library/453/كتابخانه-جامعة-المصطفی-ص-العالمیه-واحد-مشهد-مقدس/search/
كتابخانه جواد الائمه (ع) (آستان قدس رضوی ع),خراسان رضوی,مشهد,مشهد مقدس - بلوار وكيل آباد - بلوارهاشميه - هاشميه31 طبقه زير زمين مسجد جواد الائمه (ع) .,38823638-051 ( داخلی  ),http://aqlibrary.ir,https://lib.ir/fa/library/144/كتابخانه-جواد-الائمه-ع--آستان-قدس-رضوی-ع/search/
كتابخانه حسينيه امام رضا (ع) (آستان قدس رضوی ع),خراسان رضوی,مشهد,مشهد مقدس - میدان شهدا - خیابان شهید هاشمی نژاد 8 جدید  (کوچه ناظر) بن بست  ناظر 1,32218010-051 ( داخلی  ),http://aqlibrary.ir/libraries/lib15.aspx,https://lib.ir/fa/library/152/كتابخانه-حسينيه-امام-رضا-ع--آستان-قدس-رضوی-ع/search/
کتابخانه دانشگاه علوم اسلامی رضوى (ع),خراسان رضوی,مشهد,مشهد مقدس - ضلع شرقی دور برگردان طبرسى - ساختمان دانشگاه علوم اسلامی رضوى.,32218990-051 ( داخلی 359 ),http://razavi.ac.ir/libraryunit.aspx,https://lib.ir/fa/library/106/کتابخانه-دانشگاه-علوم-اسلامی-رضوى-ع/search/
كتابخانه دانشگاه فرهنگیان پردیس شهید بهشتی,خراسان رضوی,مشهد,مشهد مقدس - بلوار شهید كلانتری – حد فاصل میدان جمهوری اسلامی و میدان آزادی - جنب دانشگاه فردوسی مشهد – دانشگاه فرهنگیان پردیس شهید بهشتی.,38783094-051 ( داخلی  ),http://tbm.ir,https://lib.ir/fa/library/234/كتابخانه-دانشگاه-فرهنگیان-پردیس-شهید-بهشتی/search/
کتابخانه زبان روسی آستان قدس رضوی (ع),خراسان رضوی,مشهد,,( داخلی  ),http://,https://lib.ir/fa/library/517/کتابخانه-زبان-روسی-آستان-قدس-رضوی-ع/search/
کتابخانه سیار و تلفنی آستان قدس رضوی (ع),خراسان رضوی,مشهد,بست حرم مطهر رضوی- طبرسی- ساختمان بنیاد پژوهش ها – طبقه منفی 1 اتاق 103,05132236164 ( داخلی 3444 ),http://sayarlib.aqlibraries.ir,https://lib.ir/fa/library/137/کتابخانه-سیار-و-تلفنی-آستان-قدس-رضوی-ع/search/
كتابخانه عمومی باقر العلوم (ع),خراسان رضوی,مشهد,مشهد مقدس- قاسم آباد - بلوار دكتر حسابی - دكتر حسابی34.,36211070-051 ( داخلی  ),http://imbm.ir,https://lib.ir/fa/library/409/كتابخانه-عمومی-باقر-العلوم-ع/search/
كتابخانه عمومی ثارالله (ع),خراسان رضوی,مشهد,مشهد مقدس - بلوار كوثر - كوثر 6 - مسجد ثارالله (ع).,8839199-0511 ( داخلی  ),http://mashadpl.ir,https://lib.ir/fa/library/362/كتابخانه-عمومی-ثارالله-ع/search/
كتابخانه عمومی دكتر شریعتی,خراسان رضوی,مشهد,مشهد مقدس - خیابان امام خمینی ره – جنب اداره كل آموزش و پرورش.,32224640-051 ( داخلی  ),http://mashadpl.ir,https://lib.ir/fa/library/431/كتابخانه-عمومی-دكتر-شریعتی/search/
كتابخانه عمومی رضوی,خراسان رضوی,مشهد,مشهد مقدس - بلوار سرافرازان - بلوار پایداری - جنب مسجد موسی بن جعفر (ع).,38230009-051 ( داخلی  ),http://mashadpl.ir,https://lib.ir/fa/library/353/كتابخانه-عمومی-رضوی/search/
كتابخانه عمومی شهید باهنر,خراسان رضوی,مشهد,مشهد مقدس - بلوار امامت  - داخل پارك ملت - مجتمع فرهنگی امام رضا ( ع ).,36043383-051 ( داخلی  ),http://mashadpl.ir,https://lib.ir/fa/library/422/كتابخانه-عمومی-شهید-باهنر/search/
كتابخانه عمومی شهید مدرس,خراسان رضوی,مشهد,مشهد - بلوار مدرس - نبش مدرس 3 .,32229895-051 ( داخلی  ),http://mashadpl.ir,https://lib.ir/fa/library/428/كتابخانه-عمومی-شهید-مدرس/search/
كتابخانه عمومی شهید مطهری,خراسان رضوی,مشهد,مشهد مقدس - كوی سیدی - خیابان خلج - بوستان شادی.,33851822-051 ( داخلی  ),http://mashadpl.ir,https://lib.ir/fa/library/429/كتابخانه-عمومی-شهید-مطهری/search/
كتابخانه عمومی شهید مفتح,خراسان رضوی,مشهد,مشهد مقدس - بلوار وحدت – پارك وحدت.,33645833-051 ( داخلی  ),http://mashadpl.ir,https://lib.ir/fa/library/349/كتابخانه-عمومی-شهید-مفتح/search/
كتابخانه عمومی طبرسی,خراسان رضوی,مشهد,مشهد مقدس - قاسم آباد – بلوار شهید فلاحی- انتهای بلوار فاطمیه(س).,35219930-051 ( داخلی  ),http://mashadpl.ir,https://lib.ir/fa/library/411/كتابخانه-عمومی-طبرسی/search/
كتابخانه عمومی علامه طباطبایی,خراسان رضوی,مشهد,مشهد مقدس - چهارراه شهدا- خیابان شیرازی-كوچه شهید حسن خوراكیان.,32257070-051 ( داخلی  ),http://mashadpl.ir,https://lib.ir/fa/library/346/كتابخانه-عمومی-علامه-طباطبایی/search/
كتابخانه عمومی فردوسی,خراسان رضوی,مشهد,مشهد مقدس - سه راه محسن كاشانی - داخل پارك كودك.,37253980-051 ( داخلی  ),http://mashadpl.ir,https://lib.ir/fa/library/426/كتابخانه-عمومی-فردوسی/search/
كتابخانه عمومی نواب صفوی,خراسان رضوی,مشهد,مشهدمقدس - بلوار مصلی - نبش مصلی 3 - پارك مصلی.,33647584-051 ( داخلی  ),http://mashadpl.ir,https://lib.ir/fa/library/352/كتابخانه-عمومی-نواب-صفوی/search/
كتابخانه مجتمع فرهنگی امام خمينی (ره) (آستان قدس رضوی ع),خراسان رضوی,مشهد,خیابان خواجه ربیع 23,37411100-051 ( داخلی 37414621 - 051 ),https://library.razavi.ir/aqlibraries,https://lib.ir/fa/library/153/كتابخانه-مجتمع-فرهنگی-امام-خمينی-ره--آستان-قدس-رضوی-ع/search/
كتابخانه مدرسه علمیه پیروان حضرت زهرا (س),خراسان رضوی,مشهد,مشهد مقدس - خیابان امام رضا علیه السلام- ك 60.,33411210-051 ( داخلی  ),http://peyrovan-zahra.com,https://lib.ir/fa/library/503/كتابخانه-مدرسه-علمیه-پیروان-حضرت-زهرا-س/search/
كتابخانه مدرسه علمیه خواهران رضویه (ع),خراسان رضوی,مشهد,مشهد مقدس - چهارراه شهدا - خیابان شیرازی - کوی 19 - پلاک 19 - مدرسه علمیه رضویه.,05132222844 ( داخلی  ),http://mrazavieh.org,https://lib.ir/fa/library/554/كتابخانه-مدرسه-علمیه-خواهران-رضویه-ع/search/
كتابخانه مدرسه علمیه شهید آیت الله صدوقی,خراسان رضوی,مشهد,مشهد مقدس - میدان شهدا – خیابان آیت الله عبادی – بین عبادی 6 و 8 – مدرسه علمیه آیت الله شهید صدوقی,37251196-051 ( داخلی  ),http://,https://lib.ir/fa/library/777/كتابخانه-مدرسه-علمیه-شهید-آیت-الله-صدوقی/search/
کتابخانه مدرسه علمیه عالی نواب,خراسان رضوی,مشهد,خراسان رضوی - مشهد - حرم مطهر، اول خیابان شیرازی مدرسه علمیه عالی نواب,05132259559 ( داخلی 229 ),http://h-navvab.ir,https://lib.ir/fa/library/444/کتابخانه-مدرسه-علمیه-عالی-نواب/search/
كتابخانه مدرسه علمیه نرجس,خراسان رضوی,مشهد,مشهد مقدس - انتهاي خيابان دانش غربي - مدرسه علميه نرجس.,38544677-38595040-051 ( داخلی  ),http://m-narjes.com,https://lib.ir/fa/library/340/كتابخانه-مدرسه-علمیه-نرجس/search/
كتابخانه مركز آموزش عالی ثامن الحجج (ع),خراسان رضوی,مشهد,مشهد مقدس- بلوار دانشجو - نبش دانشجوی 33 - مركز آموزش عالی ثامن الحجج (ع),38924330-051 ( داخلی  ),http://samen.te.cfu.ac.ir,https://lib.ir/fa/library/495/كتابخانه-مركز-آموزش-عالی-ثامن-الحجج-ع/search/
کتابخانه مرکزی آستان قدس رضوی,خراسان رضوی,مشهد,حرم مطهر ، بست شیخ طوسی کتابخانه مرکزی,05132210018 ( داخلی 3370 ),http://www.razavi.aqr.ir,https://lib.ir/fa/library/122/کتابخانه-مرکزی-آستان-قدس-رضوی/search/
كتابخانه مركزی آستان قدس رضوی (ع) - تالار جوانان پسر,خراسان رضوی,مشهد,مشهد مقدس - حرم مطهر امام رضا علیه السلام - بست شيخ طوسی - سازمان كتابخانه ها، موزه ها و مركز اسناد آستان قدس رضوی (ع).,8-32232004-051 ( داخلی  ),http://aqlibrary.org/about/centerlib.aspx,https://lib.ir/fa/library/128/كتابخانه-مركزی-آستان-قدس-رضوی-ع--تالار-جوانان-پسر/search/
كتابخانه مركزی آستان قدس رضوی (ع) - تالار جوانان دختر,خراسان رضوی,مشهد,مشهد مقدس - حرم مطهر امام رضا علیه السلام - بست شيخ طوسی - سازمان كتابخانه ها، موزه ها و مركز اسناد آستان قدس رضوی (ع).,8-32232004-051 ( داخلی  ),http://aqlibrary.org/about/centerlib.aspx,https://lib.ir/fa/library/127/كتابخانه-مركزی-آستان-قدس-رضوی-ع--تالار-جوانان-دختر/search/
كتابخانه مركزی آستان قدس رضوی (ع) - تالار قفسه باز آقايان,خراسان رضوی,مشهد,مشهد مقدس - حرم مطهر امام رضا علیه السلام - بست شيخ طوسي - سازمان كتابخانه ها، موزه ها و مركز اسناد آستان قدس رضوي (ع).,8-32232004-051 ( داخلی  ),http://aqlibrary.org/about/centerlib.aspx,https://lib.ir/fa/library/130/كتابخانه-مركزی-آستان-قدس-رضوی-ع--تالار-قفسه-باز-آقايان/search/
كتابخانه مركزی آستان قدس رضوی (ع) - تالار قفسه باز بانوان,خراسان رضوی,مشهد,مشهد مقدس - حرم مطهر امام رضا علیه السلام - بست شيخ طوسي - سازمان كتابخانه ها، موزه ها و مركز اسناد آستان قدس رضوي (ع).,8-32232004-051 ( داخلی  ),http://aqlibrary.org/about/centerlib.aspx,https://lib.ir/fa/library/131/كتابخانه-مركزی-آستان-قدس-رضوی-ع--تالار-قفسه-باز-بانوان/search/
كتابخانه مركزی آستان قدس رضوی (ع) - تالار نوجوان پسر,خراسان رضوی,مشهد,مشهد مقدس - حرم مطهر امام رضا علیه السلام - بست شيخ طوسي - سازمان كتابخانه ها، موزه ها و مركز اسناد آستان قدس رضوى.,8-32232004-051 ( داخلی  ),http://aqlibrary.org/about/centerlib.aspx,https://lib.ir/fa/library/134/كتابخانه-مركزی-آستان-قدس-رضوی-ع--تالار-نوجوان-پسر/search/
كتابخانه مركزی آستان قدس رضوی (ع) - تالار نوجوان دختر,خراسان رضوی,مشهد,مشهد مقدس - حرم مطهر امام رضا علیه السلام - بست شيخ طوسي - سازمان كتابخانه ها، موزه ها و مركز اسناد آستان قدس رضوى (ع).,8-32232004-051 ( داخلی  ),http://aqlibrary.org/about/centerlib.aspx,https://lib.ir/fa/library/135/كتابخانه-مركزی-آستان-قدس-رضوی-ع--تالار-نوجوان-دختر/search/
كتابخانه مركزی آستان قدس رضوی (ع) - گردش و امانت آقايان,خراسان رضوی,مشهد,مشهد مقدس - حرم مطهر امام رضا علیه السلام - بست شيخ طوسي - سازمان كتابخانه ها، موزه ها و مركز اسناد آستان قدس رضوي (ع).,8-32232004-051 ( داخلی  ),http://aqlibrary.org/about/centerlib.aspx,https://lib.ir/fa/library/132/كتابخانه-مركزی-آستان-قدس-رضوی-ع--گردش-و-امانت-آقايان/search/
كتابخانه مركزی آستان قدس رضوی (ع) - گردش و امانت بانوان,خراسان رضوی,مشهد,مشهد مقدس - حرم مطهر امام رضا علیه السلام - بست شيخ طوسي - سازمان كتابخانه ها، موزه ها و مركز اسناد آستان قدس رضوي (ع ).,8-32232004-051 ( داخلی  ),http://aqlibrary.org/about/centerlib.aspx,https://lib.ir/fa/library/133/كتابخانه-مركزی-آستان-قدس-رضوی-ع--گردش-و-امانت-بانوان/search/
کتابخانه مرکزی و مرکز اطلاع رسانی دانشگاه فردوسی مشهد,خراسان رضوی,مشهد,مشهد مقدس - میدان آزادی - پردیس دانشگاه فردوسی مشهد.,05138806503 ( داخلی  ),http://library.um.ac.ir,https://lib.ir/fa/library/560/کتابخانه-مرکزی-و-مرکز-اطلاع-رسانی-دانشگاه-فردوسی-مشهد/search/
کتابخانه مستقل تخصصی حضرت صاحب الزمان (عج),خراسان رضوی,مشهد,مشهد مقدس - خیابان فدائیان اسلام (نخریسی) - بین فدائیان 1 و 3 .,38533744-38533792-051 ( داخلی  ),http://mahdilib.gigfa.com,https://lib.ir/fa/library/547/کتابخانه-مستقل-تخصصی-حضرت-صاحب-الزمان-عج/search/
كتابخانه مسجد الرضا (ع) (آستان قدس رضوی),خراسان رضوی,مشهد,مشهد - احمدآباد – بلوار امام رضا (ع)- نبش رضا 36,05138445932 ( داخلی  ),http://,https://lib.ir/fa/library/139/كتابخانه-مسجد-الرضا-ع--آستان-قدس-رضوی/search/
کتابخانه مسجد امام جعفر صادق (ع) (آستان قدس رضوی ع),خراسان رضوی,مشهد,مشهد - بلوار وکیل آباد 36 - سرو 12,38945610-051 ( داخلی  ),http://,https://lib.ir/fa/library/726/کتابخانه-مسجد-امام-جعفر-صادق-ع--آستان-قدس-رضوی-ع/search/
كتابخانه مسجد امام صادق (ع) (آستان قدس رضوی ع),خراسان رضوی,مشهد,خيابان دانشگاه- روبروی دانشگاه 15 - کتابخانه امام صادق (ع),32222423-051 ( داخلی  ),http://aqlibrary.ir,https://lib.ir/fa/library/140/كتابخانه-مسجد-امام-صادق-ع--آستان-قدس-رضوی-ع/search/
كتابخانه مسجد بزرگ امام رضا (ع) (آستان قدس رضوی ع),خراسان رضوی,مشهد,کوی امیرالمومنین (ع)، ولیعصر 25,37633311-051 ( داخلی  ),http://aqlibrary.ir/libraries/lib12.aspx,https://lib.ir/fa/library/150/كتابخانه-مسجد-بزرگ-امام-رضا-ع--آستان-قدس-رضوی-ع/search/
کتابخانه مسجد پنجتن (ع) (آستان قدس رضوی ع),خراسان رضوی,مشهد,کوهسنگی –خیابان شهید بهشتی-بهشتی 40,05138415647 ( داخلی  ),http://,https://lib.ir/fa/library/731/کتابخانه-مسجد-پنجتن-ع--آستان-قدس-رضوی-ع/search/
كتابخانه مسجد حضرت سجاد (ع) (آستان قدس رضوی ع),خراسان رضوی,مشهد,مشهد مقدس - بلوار سجاد – سجاد 21 – نبش خیابان امین,36097737-051 ( داخلی  ),http://,https://lib.ir/fa/library/169/كتابخانه-مسجد-حضرت-سجاد-ع--آستان-قدس-رضوی-ع/search/
کتابخانه مسجد حضرت عباس (ع) (آستان قدس رضوی),خراسان رضوی,مشهد,مشهد - قاسم آباد . بلوار شاهد . شاهد 10,35149120-051 ( داخلی  ),http://,https://lib.ir/fa/library/788/کتابخانه-مسجد-حضرت-عباس-ع--آستان-قدس-رضوی/search/
كتابخانه مسجد زينبيه (س) (آستان قدس رضوی ع),خراسان رضوی,مشهد,بلوار مطهری شمالی _ مطهری شمالی 2 _ مسجد زینبیه _ کتابخانه مسجد زینبیه,37247114-051 ( داخلی  ),https://library.razavi.ir/aqlibraries,https://lib.ir/fa/library/149/كتابخانه-مسجد-زينبيه-س--آستان-قدس-رضوی-ع/search/
كتابخانه مسجد قبا (آستان قدس رضوی ع),خراسان رضوی,مشهد,خیام جنوبی 21 کتابخانه مسجد قبا,37636151-051 ( داخلی  ),http://aqlibrary.org,https://lib.ir/fa/library/148/كتابخانه-مسجد-قبا-آستان-قدس-رضوی-ع/search/
کتابخانه مسجد محمدیه (ص) (آستان قدس رضوی ع),خراسان رضوی,مشهد,طلاب - پیچ دوم تلگرد عطاحسینی 13 - مسجد جوادالائمه - کتابخانه محمدیه,32595737-051 ( داخلی  ),http://aqlibrary.org,https://lib.ir/fa/library/147/کتابخانه-مسجد-محمدیه-ص--آستان-قدس-رضوی-ع/search/
کتابخانه و مرکز اطلاع رسانی دانشگاه بین المللی امام رضا علیه السلام,خراسان رضوی,مشهد,خیابان دانشگاه – خیابان اسرار جنوبی – دانشگاه  بین المللی امام رضا (ع) – کتابخانه و مرکز اطلاع رسانی دانشگاه,05138041 ( داخلی 1406 ),http://Libportal.imamreza.ac.ir,https://lib.ir/fa/library/300/کتابخانه-و-مرکز-اطلاع-رسانی-دانشگاه-بین-المللی-امام-رضا-علیه-السلام/search/
کتابخانه و مرکز اطلاع رسانی شیخ بهائی (دفتر تبليغات اسلامی حوزه علميه خراسان),خراسان رضوی,مشهد,خیابان آیت الله خزعلی، بین کوچه روشن و مخابرات ، دفتر تبلیغات اسلامی,6-32233350 ( داخلی  ),http://Dtelib.ir,https://lib.ir/fa/library/780/کتابخانه-و-مرکز-اطلاع-رسانی-شیخ-بهائی-دفتر-تبليغات-اسلامی-حوزه-علميه-خراسان/search/
